<?xml version="1.0" encoding="utf-8"?>
<gpx xmlns="http://www.topografix.com/GPX/1/1" version="1.1" creator="https://mapy.cz/">
	<trk>
		<name>01.Dolní Lomná - Horní Lomná</name>
		<trkseg>
			<trkpt lat="49.555464" lon="18.733529">
				<ele>429.000000</ele>
			</trkpt>
			<trkpt lat="49.555405" lon="18.733403">
				<ele>429.000000</ele>
			</trkpt>
			<trkpt lat="49.555324" lon="18.733143">
				<ele>429.000000</ele>
			</trkpt>
			<trkpt lat="49.554811" lon="18.731195">
				<ele>432.000000</ele>
			</trkpt>
			<trkpt lat="49.554695" lon="18.730745">
				<ele>432.000000</ele>
			</trkpt>
			<trkpt lat="49.554625" lon="18.730503">
				<ele>433.000000</ele>
			</trkpt>
			<trkpt lat="49.554543" lon="18.730296">
				<ele>433.000000</ele>
			</trkpt>
			<trkpt lat="49.554467" lon="18.730107">
				<ele>434.000000</ele>
			</trkpt>
			<trkpt lat="49.554363" lon="18.729900">
				<ele>434.000000</ele>
			</trkpt>
			<trkpt lat="49.554316" lon="18.729927">
				<ele>433.000000</ele>
			</trkpt>
			<trkpt lat="49.554292" lon="18.729927">
				<ele>433.000000</ele>
			</trkpt>
			<trkpt lat="49.554264" lon="18.729900">
				<ele>433.000000</ele>
			</trkpt>
			<trkpt lat="49.554234" lon="18.729864">
				<ele>433.000000</ele>
			</trkpt>
			<trkpt lat="49.554234" lon="18.729864">
				<ele>433.000000</ele>
			</trkpt>
			<trkpt lat="49.554223" lon="18.729856">
				<ele>433.000000</ele>
			</trkpt>
			<trkpt lat="49.553716" lon="18.729119">
				<ele>433.000000</ele>
			</trkpt>
			<trkpt lat="49.553191" lon="18.728373">
				<ele>434.000000</ele>
			</trkpt>
			<trkpt lat="49.552999" lon="18.728132">
				<ele>434.000000</ele>
			</trkpt>
			<trkpt lat="49.552795" lon="18.727879">
				<ele>435.000000</ele>
			</trkpt>
			<trkpt lat="49.552655" lon="18.727717">
				<ele>435.000000</ele>
			</trkpt>
			<trkpt lat="49.552445" lon="18.727493">
				<ele>435.000000</ele>
			</trkpt>
			<trkpt lat="49.552235" lon="18.727296">
				<ele>435.000000</ele>
			</trkpt>
			<trkpt lat="49.552049" lon="18.727143">
				<ele>436.000000</ele>
			</trkpt>
			<trkpt lat="49.551624" lon="18.726801">
				<ele>437.000000</ele>
			</trkpt>
			<trkpt lat="49.551367" lon="18.726595">
				<ele>437.000000</ele>
			</trkpt>
			<trkpt lat="49.551151" lon="18.726397">
				<ele>437.000000</ele>
			</trkpt>
			<trkpt lat="49.550942" lon="18.726172">
				<ele>437.000000</ele>
			</trkpt>
			<trkpt lat="49.550662" lon="18.725822">
				<ele>438.000000</ele>
			</trkpt>
			<trkpt lat="49.550498" lon="18.725616">
				<ele>438.000000</ele>
			</trkpt>
			<trkpt lat="49.550370" lon="18.725426">
				<ele>438.000000</ele>
			</trkpt>
			<trkpt lat="49.550260" lon="18.725239">
				<ele>438.000000</ele>
			</trkpt>
			<trkpt lat="49.550166" lon="18.725050">
				<ele>439.000000</ele>
			</trkpt>
			<trkpt lat="49.550044" lon="18.724736">
				<ele>440.000000</ele>
			</trkpt>
			<trkpt lat="49.549963" lon="18.724466">
				<ele>440.000000</ele>
			</trkpt>
			<trkpt lat="49.549898" lon="18.724187">
				<ele>441.000000</ele>
			</trkpt>
			<trkpt lat="49.549840" lon="18.723792">
				<ele>441.000000</ele>
			</trkpt>
			<trkpt lat="49.549782" lon="18.723316">
				<ele>441.000000</ele>
			</trkpt>
			<trkpt lat="49.549735" lon="18.723065">
				<ele>441.000000</ele>
			</trkpt>
			<trkpt lat="49.549659" lon="18.722750">
				<ele>442.000000</ele>
			</trkpt>
			<trkpt lat="49.549659" lon="18.722750">
				<ele>442.000000</ele>
			</trkpt>
			<trkpt lat="49.549630" lon="18.722633">
				<ele>442.000000</ele>
			</trkpt>
			<trkpt lat="49.549525" lon="18.722237">
				<ele>442.000000</ele>
			</trkpt>
			<trkpt lat="49.549508" lon="18.722113">
				<ele>442.000000</ele>
			</trkpt>
			<trkpt lat="49.549484" lon="18.721950">
				<ele>442.000000</ele>
			</trkpt>
			<trkpt lat="49.549444" lon="18.721304">
				<ele>443.000000</ele>
			</trkpt>
			<trkpt lat="49.549397" lon="18.720415">
				<ele>444.000000</ele>
			</trkpt>
			<trkpt lat="49.549391" lon="18.720243">
				<ele>444.000000</ele>
			</trkpt>
			<trkpt lat="49.549362" lon="18.720109">
				<ele>444.000000</ele>
			</trkpt>
			<trkpt lat="49.549322" lon="18.719975">
				<ele>444.000000</ele>
			</trkpt>
			<trkpt lat="49.549263" lon="18.719803">
				<ele>445.000000</ele>
			</trkpt>
			<trkpt lat="49.549088" lon="18.719417">
				<ele>445.000000</ele>
			</trkpt>
			<trkpt lat="49.549030" lon="18.719291">
				<ele>446.000000</ele>
			</trkpt>
			<trkpt lat="49.548995" lon="18.719210">
				<ele>446.000000</ele>
			</trkpt>
			<trkpt lat="49.548989" lon="18.719121">
				<ele>446.000000</ele>
			</trkpt>
			<trkpt lat="49.548984" lon="18.719013">
				<ele>446.000000</ele>
			</trkpt>
			<trkpt lat="49.549006" lon="18.718834">
				<ele>447.000000</ele>
			</trkpt>
			<trkpt lat="49.549065" lon="18.718205">
				<ele>447.000000</ele>
			</trkpt>
			<trkpt lat="49.549158" lon="18.718142">
				<ele>446.000000</ele>
			</trkpt>
			<trkpt lat="49.549135" lon="18.717872">
				<ele>446.000000</ele>
			</trkpt>
			<trkpt lat="49.549135" lon="18.717855">
				<ele>446.000000</ele>
			</trkpt>
			<trkpt lat="49.549135" lon="18.717855">
				<ele>446.000000</ele>
			</trkpt>
			<trkpt lat="49.549118" lon="18.717692">
				<ele>447.000000</ele>
			</trkpt>
			<trkpt lat="49.549071" lon="18.717413">
				<ele>447.000000</ele>
			</trkpt>
			<trkpt lat="49.549006" lon="18.717216">
				<ele>447.000000</ele>
			</trkpt>
			<trkpt lat="49.548966" lon="18.717126">
				<ele>447.000000</ele>
			</trkpt>
			<trkpt lat="49.548890" lon="18.716983">
				<ele>447.000000</ele>
			</trkpt>
			<trkpt lat="49.548861" lon="18.716937">
				<ele>447.000000</ele>
			</trkpt>
			<trkpt lat="49.548855" lon="18.716876">
				<ele>447.000000</ele>
			</trkpt>
			<trkpt lat="49.548826" lon="18.716704">
				<ele>448.000000</ele>
			</trkpt>
			<trkpt lat="49.548785" lon="18.716497">
				<ele>448.000000</ele>
			</trkpt>
			<trkpt lat="49.548762" lon="18.716354">
				<ele>448.000000</ele>
			</trkpt>
			<trkpt lat="49.548768" lon="18.716255">
				<ele>448.000000</ele>
			</trkpt>
			<trkpt lat="49.548779" lon="18.716220">
				<ele>448.000000</ele>
			</trkpt>
			<trkpt lat="49.548797" lon="18.716193">
				<ele>448.000000</ele>
			</trkpt>
			<trkpt lat="49.548849" lon="18.716157">
				<ele>448.000000</ele>
			</trkpt>
			<trkpt lat="49.549187" lon="18.716084">
				<ele>449.000000</ele>
			</trkpt>
			<trkpt lat="49.549287" lon="18.716048">
				<ele>449.000000</ele>
			</trkpt>
			<trkpt lat="49.549234" lon="18.715771">
				<ele>449.000000</ele>
			</trkpt>
			<trkpt lat="49.549187" lon="18.715545">
				<ele>450.000000</ele>
			</trkpt>
			<trkpt lat="49.549181" lon="18.715366">
				<ele>450.000000</ele>
			</trkpt>
			<trkpt lat="49.549187" lon="18.715222">
				<ele>450.000000</ele>
			</trkpt>
			<trkpt lat="49.549199" lon="18.715088">
				<ele>450.000000</ele>
			</trkpt>
			<trkpt lat="49.549257" lon="18.714692">
				<ele>450.000000</ele>
			</trkpt>
			<trkpt lat="49.549345" lon="18.714171">
				<ele>450.000000</ele>
			</trkpt>
			<trkpt lat="49.549240" lon="18.714019">
				<ele>451.000000</ele>
			</trkpt>
			<trkpt lat="49.549240" lon="18.714019">
				<ele>451.000000</ele>
			</trkpt>
			<trkpt lat="49.549175" lon="18.713920">
				<ele>451.000000</ele>
			</trkpt>
			<trkpt lat="49.548937" lon="18.713543">
				<ele>452.000000</ele>
			</trkpt>
			<trkpt lat="49.548698" lon="18.713138">
				<ele>452.000000</ele>
			</trkpt>
			<trkpt lat="49.548605" lon="18.712985">
				<ele>452.000000</ele>
			</trkpt>
			<trkpt lat="49.548552" lon="18.712868">
				<ele>453.000000</ele>
			</trkpt>
			<trkpt lat="49.548517" lon="18.712742">
				<ele>453.000000</ele>
			</trkpt>
			<trkpt lat="49.548499" lon="18.712589">
				<ele>453.000000</ele>
			</trkpt>
			<trkpt lat="49.548354" lon="18.711161">
				<ele>454.000000</ele>
			</trkpt>
			<trkpt lat="49.548330" lon="18.710874">
				<ele>454.000000</ele>
			</trkpt>
			<trkpt lat="49.548319" lon="18.710668">
				<ele>455.000000</ele>
			</trkpt>
			<trkpt lat="49.548313" lon="18.710488">
				<ele>455.000000</ele>
			</trkpt>
			<trkpt lat="49.548284" lon="18.710299">
				<ele>456.000000</ele>
			</trkpt>
			<trkpt lat="49.548243" lon="18.710129">
				<ele>456.000000</ele>
			</trkpt>
			<trkpt lat="49.548237" lon="18.710039">
				<ele>456.000000</ele>
			</trkpt>
			<trkpt lat="49.548243" lon="18.709939">
				<ele>456.000000</ele>
			</trkpt>
			<trkpt lat="49.548261" lon="18.709842">
				<ele>456.000000</ele>
			</trkpt>
			<trkpt lat="49.548371" lon="18.709913">
				<ele>455.000000</ele>
			</trkpt>
			<trkpt lat="49.548371" lon="18.709913">
				<ele>455.000000</ele>
			</trkpt>
			<trkpt lat="49.548430" lon="18.709949">
				<ele>455.000000</ele>
			</trkpt>
			<trkpt lat="49.548552" lon="18.710048">
				<ele>455.000000</ele>
			</trkpt>
			<trkpt lat="49.548634" lon="18.709985">
				<ele>456.000000</ele>
			</trkpt>
			<trkpt lat="49.548680" lon="18.709931">
				<ele>456.000000</ele>
			</trkpt>
			<trkpt lat="49.548721" lon="18.709850">
				<ele>457.000000</ele>
			</trkpt>
			<trkpt lat="49.548739" lon="18.709769">
				<ele>457.000000</ele>
			</trkpt>
			<trkpt lat="49.548476" lon="18.709069">
				<ele>457.000000</ele>
			</trkpt>
			<trkpt lat="49.548646" lon="18.708826">
				<ele>456.000000</ele>
			</trkpt>
			<trkpt lat="49.548768" lon="18.708736">
				<ele>456.000000</ele>
			</trkpt>
			<trkpt lat="49.548849" lon="18.708656">
				<ele>456.000000</ele>
			</trkpt>
			<trkpt lat="49.548913" lon="18.708566">
				<ele>457.000000</ele>
			</trkpt>
			<trkpt lat="49.548943" lon="18.708511">
				<ele>457.000000</ele>
			</trkpt>
			<trkpt lat="49.548943" lon="18.708511">
				<ele>457.000000</ele>
			</trkpt>
			<trkpt lat="49.548989" lon="18.708431">
				<ele>458.000000</ele>
			</trkpt>
			<trkpt lat="49.549036" lon="18.708215">
				<ele>460.000000</ele>
			</trkpt>
			<trkpt lat="49.549071" lon="18.707901">
				<ele>463.000000</ele>
			</trkpt>
			<trkpt lat="49.549106" lon="18.707712">
				<ele>466.000000</ele>
			</trkpt>
			<trkpt lat="49.549135" lon="18.707542">
				<ele>466.000000</ele>
			</trkpt>
			<trkpt lat="49.549327" lon="18.706949">
				<ele>470.000000</ele>
			</trkpt>
			<trkpt lat="49.549368" lon="18.706778">
				<ele>471.000000</ele>
			</trkpt>
			<trkpt lat="49.549391" lon="18.706526">
				<ele>473.000000</ele>
			</trkpt>
			<trkpt lat="49.549426" lon="18.706131">
				<ele>477.000000</ele>
			</trkpt>
			<trkpt lat="49.549473" lon="18.705844">
				<ele>479.000000</ele>
			</trkpt>
			<trkpt lat="49.549554" lon="18.705394">
				<ele>481.000000</ele>
			</trkpt>
			<trkpt lat="49.549601" lon="18.705170">
				<ele>482.000000</ele>
			</trkpt>
			<trkpt lat="49.549706" lon="18.704739">
				<ele>484.000000</ele>
			</trkpt>
			<trkpt lat="49.549747" lon="18.704478">
				<ele>485.000000</ele>
			</trkpt>
			<trkpt lat="49.549835" lon="18.703777">
				<ele>488.000000</ele>
			</trkpt>
			<trkpt lat="49.549922" lon="18.703247">
				<ele>491.000000</ele>
			</trkpt>
			<trkpt lat="49.549974" lon="18.702951">
				<ele>492.000000</ele>
			</trkpt>
			<trkpt lat="49.550050" lon="18.702664">
				<ele>493.000000</ele>
			</trkpt>
			<trkpt lat="49.550149" lon="18.702368">
				<ele>493.000000</ele>
			</trkpt>
			<trkpt lat="49.550196" lon="18.702232">
				<ele>493.000000</ele>
			</trkpt>
			<trkpt lat="49.550207" lon="18.702134">
				<ele>493.000000</ele>
			</trkpt>
			<trkpt lat="49.550201" lon="18.702026">
				<ele>494.000000</ele>
			</trkpt>
			<trkpt lat="49.550172" lon="18.701819">
				<ele>496.000000</ele>
			</trkpt>
			<trkpt lat="49.550160" lon="18.701693">
				<ele>496.000000</ele>
			</trkpt>
			<trkpt lat="49.550166" lon="18.701568">
				<ele>497.000000</ele>
			</trkpt>
			<trkpt lat="49.550166" lon="18.701442">
				<ele>497.000000</ele>
			</trkpt>
			<trkpt lat="49.550201" lon="18.701236">
				<ele>499.000000</ele>
			</trkpt>
			<trkpt lat="49.550307" lon="18.700526">
				<ele>501.000000</ele>
			</trkpt>
			<trkpt lat="49.550353" lon="18.700157">
				<ele>503.000000</ele>
			</trkpt>
			<trkpt lat="49.550370" lon="18.699905">
				<ele>504.000000</ele>
			</trkpt>
			<trkpt lat="49.550388" lon="18.699178">
				<ele>506.000000</ele>
			</trkpt>
			<trkpt lat="49.550405" lon="18.699043">
				<ele>507.000000</ele>
			</trkpt>
			<trkpt lat="49.550417" lon="18.698989">
				<ele>507.000000</ele>
			</trkpt>
			<trkpt lat="49.550446" lon="18.698936">
				<ele>507.000000</ele>
			</trkpt>
			<trkpt lat="49.550487" lon="18.698891">
				<ele>508.000000</ele>
			</trkpt>
			<trkpt lat="49.550522" lon="18.698873">
				<ele>508.000000</ele>
			</trkpt>
			<trkpt lat="49.550621" lon="18.698836">
				<ele>508.000000</ele>
			</trkpt>
			<trkpt lat="49.551291" lon="18.698773">
				<ele>511.000000</ele>
			</trkpt>
			<trkpt lat="49.551449" lon="18.698773">
				<ele>512.000000</ele>
			</trkpt>
			<trkpt lat="49.551559" lon="18.698792">
				<ele>513.000000</ele>
			</trkpt>
			<trkpt lat="49.551652" lon="18.698873">
				<ele>515.000000</ele>
			</trkpt>
			<trkpt lat="49.551786" lon="18.699008">
				<ele>515.000000</ele>
			</trkpt>
			<trkpt lat="49.551955" lon="18.699268">
				<ele>516.000000</ele>
			</trkpt>
			<trkpt lat="49.551985" lon="18.699295">
				<ele>517.000000</ele>
			</trkpt>
			<trkpt lat="49.552008" lon="18.699295">
				<ele>517.000000</ele>
			</trkpt>
			<trkpt lat="49.552037" lon="18.699304">
				<ele>517.000000</ele>
			</trkpt>
			<trkpt lat="49.552072" lon="18.699278">
				<ele>517.000000</ele>
			</trkpt>
			<trkpt lat="49.552096" lon="18.699249">
				<ele>517.000000</ele>
			</trkpt>
			<trkpt lat="49.552119" lon="18.699196">
				<ele>519.000000</ele>
			</trkpt>
			<trkpt lat="49.552142" lon="18.699089">
				<ele>521.000000</ele>
			</trkpt>
			<trkpt lat="49.552148" lon="18.698855">
				<ele>522.000000</ele>
			</trkpt>
			<trkpt lat="49.552183" lon="18.698702">
				<ele>524.000000</ele>
			</trkpt>
			<trkpt lat="49.552212" lon="18.698594">
				<ele>525.000000</ele>
			</trkpt>
			<trkpt lat="49.552259" lon="18.698505">
				<ele>526.000000</ele>
			</trkpt>
			<trkpt lat="49.552305" lon="18.698423">
				<ele>526.000000</ele>
			</trkpt>
			<trkpt lat="49.552375" lon="18.698360">
				<ele>527.000000</ele>
			</trkpt>
			<trkpt lat="49.552614" lon="18.698127">
				<ele>530.000000</ele>
			</trkpt>
			<trkpt lat="49.553272" lon="18.697544">
				<ele>539.000000</ele>
			</trkpt>
			<trkpt lat="49.553348" lon="18.697463">
				<ele>540.000000</ele>
			</trkpt>
			<trkpt lat="49.553395" lon="18.697400">
				<ele>541.000000</ele>
			</trkpt>
			<trkpt lat="49.553413" lon="18.697318">
				<ele>541.000000</ele>
			</trkpt>
			<trkpt lat="49.553407" lon="18.697247">
				<ele>541.000000</ele>
			</trkpt>
			<trkpt lat="49.553378" lon="18.697131">
				<ele>542.000000</ele>
			</trkpt>
			<trkpt lat="49.553325" lon="18.697049">
				<ele>544.000000</ele>
			</trkpt>
			<trkpt lat="49.553244" lon="18.696986">
				<ele>546.000000</ele>
			</trkpt>
			<trkpt lat="49.553144" lon="18.696941">
				<ele>548.000000</ele>
			</trkpt>
			<trkpt lat="49.552795" lon="18.696762">
				<ele>547.000000</ele>
			</trkpt>
			<trkpt lat="49.552655" lon="18.696662">
				<ele>549.000000</ele>
			</trkpt>
			<trkpt lat="49.552509" lon="18.696573">
				<ele>550.000000</ele>
			</trkpt>
			<trkpt lat="49.552381" lon="18.696448">
				<ele>552.000000</ele>
			</trkpt>
			<trkpt lat="49.552271" lon="18.696303">
				<ele>552.000000</ele>
			</trkpt>
			<trkpt lat="49.552183" lon="18.696133">
				<ele>552.000000</ele>
			</trkpt>
			<trkpt lat="49.552107" lon="18.695944">
				<ele>551.000000</ele>
			</trkpt>
			<trkpt lat="49.551874" lon="18.695100">
				<ele>556.000000</ele>
			</trkpt>
			<trkpt lat="49.551857" lon="18.695010">
				<ele>557.000000</ele>
			</trkpt>
			<trkpt lat="49.551845" lon="18.694902">
				<ele>557.000000</ele>
			</trkpt>
			<trkpt lat="49.551857" lon="18.694804">
				<ele>557.000000</ele>
			</trkpt>
			<trkpt lat="49.551880" lon="18.694714">
				<ele>557.000000</ele>
			</trkpt>
			<trkpt lat="49.551915" lon="18.694633">
				<ele>557.000000</ele>
			</trkpt>
			<trkpt lat="49.551968" lon="18.694525">
				<ele>557.000000</ele>
			</trkpt>
			<trkpt lat="49.552031" lon="18.694435">
				<ele>557.000000</ele>
			</trkpt>
			<trkpt lat="49.552113" lon="18.694345">
				<ele>559.000000</ele>
			</trkpt>
			<trkpt lat="49.552224" lon="18.694228">
				<ele>561.000000</ele>
			</trkpt>
			<trkpt lat="49.552346" lon="18.694139">
				<ele>564.000000</ele>
			</trkpt>
			<trkpt lat="49.552743" lon="18.693860">
				<ele>567.000000</ele>
			</trkpt>
			<trkpt lat="49.552888" lon="18.693762">
				<ele>567.000000</ele>
			</trkpt>
			<trkpt lat="49.552964" lon="18.693689">
				<ele>567.000000</ele>
			</trkpt>
			<trkpt lat="49.552999" lon="18.693636">
				<ele>567.000000</ele>
			</trkpt>
			<trkpt lat="49.553022" lon="18.693582">
				<ele>568.000000</ele>
			</trkpt>
			<trkpt lat="49.553034" lon="18.693528">
				<ele>568.000000</ele>
			</trkpt>
			<trkpt lat="49.553040" lon="18.693473">
				<ele>569.000000</ele>
			</trkpt>
			<trkpt lat="49.553057" lon="18.692970">
				<ele>571.000000</ele>
			</trkpt>
			<trkpt lat="49.553075" lon="18.692710">
				<ele>572.000000</ele>
			</trkpt>
			<trkpt lat="49.553150" lon="18.692261">
				<ele>572.000000</ele>
			</trkpt>
			<trkpt lat="49.553179" lon="18.692054">
				<ele>574.000000</ele>
			</trkpt>
			<trkpt lat="49.553185" lon="18.691741">
				<ele>576.000000</ele>
			</trkpt>
			<trkpt lat="49.553168" lon="18.691569">
				<ele>576.000000</ele>
			</trkpt>
			<trkpt lat="49.553162" lon="18.691552">
				<ele>576.000000</ele>
			</trkpt>
			<trkpt lat="49.553162" lon="18.691552">
				<ele>576.000000</ele>
			</trkpt>
			<trkpt lat="49.553127" lon="18.691408">
				<ele>576.000000</ele>
			</trkpt>
			<trkpt lat="49.553057" lon="18.691228">
				<ele>575.000000</ele>
			</trkpt>
			<trkpt lat="49.552906" lon="18.690959">
				<ele>577.000000</ele>
			</trkpt>
			<trkpt lat="49.552865" lon="18.690869">
				<ele>577.000000</ele>
			</trkpt>
			<trkpt lat="49.552841" lon="18.690815">
				<ele>577.000000</ele>
			</trkpt>
			<trkpt lat="49.552830" lon="18.690743">
				<ele>577.000000</ele>
			</trkpt>
			<trkpt lat="49.552841" lon="18.690662">
				<ele>578.000000</ele>
			</trkpt>
			<trkpt lat="49.552876" lon="18.690582">
				<ele>579.000000</ele>
			</trkpt>
			<trkpt lat="49.552929" lon="18.690492">
				<ele>580.000000</ele>
			</trkpt>
			<trkpt lat="49.552958" lon="18.690420">
				<ele>580.000000</ele>
			</trkpt>
			<trkpt lat="49.552981" lon="18.690357">
				<ele>580.000000</ele>
			</trkpt>
			<trkpt lat="49.552993" lon="18.690286">
				<ele>580.000000</ele>
			</trkpt>
			<trkpt lat="49.552993" lon="18.690186">
				<ele>579.000000</ele>
			</trkpt>
			<trkpt lat="49.552987" lon="18.690096">
				<ele>580.000000</ele>
			</trkpt>
			<trkpt lat="49.552975" lon="18.689980">
				<ele>581.000000</ele>
			</trkpt>
			<trkpt lat="49.552952" lon="18.689854">
				<ele>583.000000</ele>
			</trkpt>
			<trkpt lat="49.552917" lon="18.689746">
				<ele>584.000000</ele>
			</trkpt>
			<trkpt lat="49.552789" lon="18.689360">
				<ele>586.000000</ele>
			</trkpt>
			<trkpt lat="49.552655" lon="18.689045">
				<ele>588.000000</ele>
			</trkpt>
			<trkpt lat="49.552474" lon="18.688739">
				<ele>587.000000</ele>
			</trkpt>
			<trkpt lat="49.552241" lon="18.688389">
				<ele>592.000000</ele>
			</trkpt>
			<trkpt lat="49.552137" lon="18.688228">
				<ele>593.000000</ele>
			</trkpt>
			<trkpt lat="49.551897" lon="18.687904">
				<ele>593.000000</ele>
			</trkpt>
			<trkpt lat="49.551705" lon="18.687670">
				<ele>594.000000</ele>
			</trkpt>
			<trkpt lat="49.551507" lon="18.687446">
				<ele>594.000000</ele>
			</trkpt>
			<trkpt lat="49.551280" lon="18.687240">
				<ele>593.000000</ele>
			</trkpt>
			<trkpt lat="49.551210" lon="18.687141">
				<ele>593.000000</ele>
			</trkpt>
			<trkpt lat="49.551186" lon="18.687078">
				<ele>592.000000</ele>
			</trkpt>
			<trkpt lat="49.551169" lon="18.687041">
				<ele>592.000000</ele>
			</trkpt>
			<trkpt lat="49.551163" lon="18.686980">
				<ele>592.000000</ele>
			</trkpt>
			<trkpt lat="49.551163" lon="18.686952">
				<ele>592.000000</ele>
			</trkpt>
			<trkpt lat="49.551163" lon="18.686952">
				<ele>592.000000</ele>
			</trkpt>
			<trkpt lat="49.551163" lon="18.686925">
				<ele>591.000000</ele>
			</trkpt>
			<trkpt lat="49.551175" lon="18.686890">
				<ele>591.000000</ele>
			</trkpt>
			<trkpt lat="49.551204" lon="18.686835">
				<ele>591.000000</ele>
			</trkpt>
			<trkpt lat="49.551414" lon="18.686521">
				<ele>587.000000</ele>
			</trkpt>
			<trkpt lat="49.551583" lon="18.686296">
				<ele>583.000000</ele>
			</trkpt>
			<trkpt lat="49.551763" lon="18.686099">
				<ele>581.000000</ele>
			</trkpt>
			<trkpt lat="49.552008" lon="18.685883">
				<ele>579.000000</ele>
			</trkpt>
			<trkpt lat="49.552498" lon="18.685479">
				<ele>574.000000</ele>
			</trkpt>
			<trkpt lat="49.552847" lon="18.685227">
				<ele>568.000000</ele>
			</trkpt>
			<trkpt lat="49.553022" lon="18.685120">
				<ele>566.000000</ele>
			</trkpt>
			<trkpt lat="49.553203" lon="18.685030">
				<ele>564.000000</ele>
			</trkpt>
			<trkpt lat="49.553395" lon="18.684949">
				<ele>564.000000</ele>
			</trkpt>
			<trkpt lat="49.553593" lon="18.684886">
				<ele>563.000000</ele>
			</trkpt>
			<trkpt lat="49.553634" lon="18.684867">
				<ele>563.000000</ele>
			</trkpt>
			<trkpt lat="49.553669" lon="18.684833">
				<ele>562.000000</ele>
			</trkpt>
			<trkpt lat="49.553698" lon="18.684796">
				<ele>561.000000</ele>
			</trkpt>
			<trkpt lat="49.553716" lon="18.684724">
				<ele>560.000000</ele>
			</trkpt>
			<trkpt lat="49.553727" lon="18.684670">
				<ele>560.000000</ele>
			</trkpt>
			<trkpt lat="49.553722" lon="18.684617">
				<ele>560.000000</ele>
			</trkpt>
			<trkpt lat="49.553716" lon="18.684491">
				<ele>560.000000</ele>
			</trkpt>
			<trkpt lat="49.553716" lon="18.684410">
				<ele>560.000000</ele>
			</trkpt>
			<trkpt lat="49.553744" lon="18.684338">
				<ele>560.000000</ele>
			</trkpt>
			<trkpt lat="49.553791" lon="18.684302">
				<ele>560.000000</ele>
			</trkpt>
			<trkpt lat="49.553838" lon="18.684248">
				<ele>559.000000</ele>
			</trkpt>
			<trkpt lat="49.553861" lon="18.684212">
				<ele>559.000000</ele>
			</trkpt>
			<trkpt lat="49.553867" lon="18.684167">
				<ele>558.000000</ele>
			</trkpt>
			<trkpt lat="49.553873" lon="18.684060">
				<ele>557.000000</ele>
			</trkpt>
			<trkpt lat="49.553850" lon="18.683934">
				<ele>556.000000</ele>
			</trkpt>
			<trkpt lat="49.553751" lon="18.683970">
				<ele>555.000000</ele>
			</trkpt>
			<trkpt lat="49.553663" lon="18.684005">
				<ele>554.000000</ele>
			</trkpt>
			<trkpt lat="49.553663" lon="18.684005">
				<ele>554.000000</ele>
			</trkpt>
			<trkpt lat="49.553640" lon="18.684015">
				<ele>554.000000</ele>
			</trkpt>
			<trkpt lat="49.553488" lon="18.684068">
				<ele>552.000000</ele>
			</trkpt>
			<trkpt lat="49.553360" lon="18.684078">
				<ele>552.000000</ele>
			</trkpt>
			<trkpt lat="49.553232" lon="18.684068">
				<ele>551.000000</ele>
			</trkpt>
			<trkpt lat="49.553086" lon="18.684005">
				<ele>549.000000</ele>
			</trkpt>
			<trkpt lat="49.552754" lon="18.683854">
				<ele>547.000000</ele>
			</trkpt>
			<trkpt lat="49.552544" lon="18.683736">
				<ele>545.000000</ele>
			</trkpt>
			<trkpt lat="49.552364" lon="18.683646">
				<ele>543.000000</ele>
			</trkpt>
			<trkpt lat="49.552189" lon="18.683521">
				<ele>541.000000</ele>
			</trkpt>
			<trkpt lat="49.552026" lon="18.683386">
				<ele>539.000000</ele>
			</trkpt>
			<trkpt lat="49.551874" lon="18.683259">
				<ele>538.000000</ele>
			</trkpt>
			<trkpt lat="49.551699" lon="18.683072">
				<ele>537.000000</ele>
			</trkpt>
			<trkpt lat="49.551554" lon="18.682892">
				<ele>535.000000</ele>
			</trkpt>
			<trkpt lat="49.551501" lon="18.682820">
				<ele>535.000000</ele>
			</trkpt>
			<trkpt lat="49.551420" lon="18.682632">
				<ele>534.000000</ele>
			</trkpt>
			<trkpt lat="49.551373" lon="18.682569">
				<ele>533.000000</ele>
			</trkpt>
			<trkpt lat="49.551111" lon="18.682335">
				<ele>530.000000</ele>
			</trkpt>
			<trkpt lat="49.550866" lon="18.682074">
				<ele>526.000000</ele>
			</trkpt>
			<trkpt lat="49.549933" lon="18.680988">
				<ele>518.000000</ele>
			</trkpt>
			<trkpt lat="49.549566" lon="18.680583">
				<ele>516.000000</ele>
			</trkpt>
			<trkpt lat="49.549333" lon="18.680340">
				<ele>512.000000</ele>
			</trkpt>
			<trkpt lat="49.549106" lon="18.680143">
				<ele>510.000000</ele>
			</trkpt>
			<trkpt lat="49.548832" lon="18.679963">
				<ele>508.000000</ele>
			</trkpt>
			<trkpt lat="49.548663" lon="18.679864">
				<ele>507.000000</ele>
			</trkpt>
			<trkpt lat="49.548360" lon="18.679747">
				<ele>505.000000</ele>
			</trkpt>
			<trkpt lat="49.548237" lon="18.679685">
				<ele>504.000000</ele>
			</trkpt>
			<trkpt lat="49.548121" lon="18.679586">
				<ele>503.000000</ele>
			</trkpt>
			<trkpt lat="49.547999" lon="18.679470">
				<ele>502.000000</ele>
			</trkpt>
			<trkpt lat="49.547940" lon="18.679370">
				<ele>501.000000</ele>
			</trkpt>
			<trkpt lat="49.547899" lon="18.679280">
				<ele>500.000000</ele>
			</trkpt>
			<trkpt lat="49.547824" lon="18.679137">
				<ele>500.000000</ele>
			</trkpt>
			<trkpt lat="49.547736" lon="18.679047">
				<ele>499.000000</ele>
			</trkpt>
			<trkpt lat="49.547666" lon="18.679001">
				<ele>498.000000</ele>
			</trkpt>
			<trkpt lat="49.547596" lon="18.678957">
				<ele>498.000000</ele>
			</trkpt>
			<trkpt lat="49.547311" lon="18.678850">
				<ele>496.000000</ele>
			</trkpt>
			<trkpt lat="49.547148" lon="18.678768">
				<ele>494.000000</ele>
			</trkpt>
			<trkpt lat="49.547060" lon="18.678732">
				<ele>493.000000</ele>
			</trkpt>
			<trkpt lat="49.546961" lon="18.678724">
				<ele>493.000000</ele>
			</trkpt>
			<trkpt lat="49.546873" lon="18.678751">
				<ele>492.000000</ele>
			</trkpt>
			<trkpt lat="49.546810" lon="18.678760">
				<ele>492.000000</ele>
			</trkpt>
			<trkpt lat="49.546774" lon="18.678787">
				<ele>492.000000</ele>
			</trkpt>
			<trkpt lat="49.546704" lon="18.678544">
				<ele>491.000000</ele>
			</trkpt>
			<trkpt lat="49.546704" lon="18.678544">
				<ele>491.000000</ele>
			</trkpt>
			<trkpt lat="49.546676" lon="18.678445">
				<ele>491.000000</ele>
			</trkpt>
			<trkpt lat="49.546547" lon="18.677978">
				<ele>490.000000</ele>
			</trkpt>
			<trkpt lat="49.546512" lon="18.677825">
				<ele>490.000000</ele>
			</trkpt>
			<trkpt lat="49.546471" lon="18.677520">
				<ele>491.000000</ele>
			</trkpt>
			<trkpt lat="49.546355" lon="18.676820">
				<ele>492.000000</ele>
			</trkpt>
			<trkpt lat="49.546338" lon="18.676648">
				<ele>492.000000</ele>
			</trkpt>
			<trkpt lat="49.546338" lon="18.676594">
				<ele>492.000000</ele>
			</trkpt>
			<trkpt lat="49.546355" lon="18.676523">
				<ele>493.000000</ele>
			</trkpt>
			<trkpt lat="49.546413" lon="18.676280">
				<ele>493.000000</ele>
			</trkpt>
			<trkpt lat="49.546454" lon="18.676074">
				<ele>492.000000</ele>
			</trkpt>
			<trkpt lat="49.546477" lon="18.675858">
				<ele>492.000000</ele>
			</trkpt>
			<trkpt lat="49.546507" lon="18.675552">
				<ele>493.000000</ele>
			</trkpt>
			<trkpt lat="49.546541" lon="18.674933">
				<ele>493.000000</ele>
			</trkpt>
			<trkpt lat="49.546570" lon="18.674663">
				<ele>494.000000</ele>
			</trkpt>
			<trkpt lat="49.546693" lon="18.673980">
				<ele>494.000000</ele>
			</trkpt>
			<trkpt lat="49.546722" lon="18.673747">
				<ele>494.000000</ele>
			</trkpt>
			<trkpt lat="49.546739" lon="18.673612">
				<ele>494.000000</ele>
			</trkpt>
			<trkpt lat="49.546757" lon="18.673514">
				<ele>495.000000</ele>
			</trkpt>
			<trkpt lat="49.546798" lon="18.673424">
				<ele>495.000000</ele>
			</trkpt>
			<trkpt lat="49.546838" lon="18.673343">
				<ele>495.000000</ele>
			</trkpt>
			<trkpt lat="49.546867" lon="18.673298">
				<ele>495.000000</ele>
			</trkpt>
			<trkpt lat="49.546873" lon="18.673244">
				<ele>495.000000</ele>
			</trkpt>
			<trkpt lat="49.546885" lon="18.673208">
				<ele>495.000000</ele>
			</trkpt>
			<trkpt lat="49.546879" lon="18.673164">
				<ele>495.000000</ele>
			</trkpt>
			<trkpt lat="49.546867" lon="18.673135">
				<ele>495.000000</ele>
			</trkpt>
			<trkpt lat="49.546845" lon="18.673091">
				<ele>496.000000</ele>
			</trkpt>
			<trkpt lat="49.546774" lon="18.673028">
				<ele>496.000000</ele>
			</trkpt>
			<trkpt lat="49.546745" lon="18.673011">
				<ele>496.000000</ele>
			</trkpt>
			<trkpt lat="49.546739" lon="18.672984">
				<ele>496.000000</ele>
			</trkpt>
			<trkpt lat="49.546734" lon="18.672956">
				<ele>495.000000</ele>
			</trkpt>
			<trkpt lat="49.546745" lon="18.672902">
				<ele>495.000000</ele>
			</trkpt>
			<trkpt lat="49.547287" lon="18.670827">
				<ele>499.000000</ele>
			</trkpt>
			<trkpt lat="49.547544" lon="18.669866">
				<ele>499.000000</ele>
			</trkpt>
			<trkpt lat="49.547602" lon="18.669579">
				<ele>499.000000</ele>
			</trkpt>
			<trkpt lat="49.547661" lon="18.669292">
				<ele>500.000000</ele>
			</trkpt>
			<trkpt lat="49.547689" lon="18.668950">
				<ele>501.000000</ele>
			</trkpt>
			<trkpt lat="49.547701" lon="18.668590">
				<ele>501.000000</ele>
			</trkpt>
			<trkpt lat="49.547695" lon="18.668177">
				<ele>502.000000</ele>
			</trkpt>
			<trkpt lat="49.547672" lon="18.667791">
				<ele>501.000000</ele>
			</trkpt>
			<trkpt lat="49.547666" lon="18.667621">
				<ele>501.000000</ele>
			</trkpt>
			<trkpt lat="49.547672" lon="18.667485">
				<ele>501.000000</ele>
			</trkpt>
			<trkpt lat="49.547683" lon="18.667333">
				<ele>501.000000</ele>
			</trkpt>
			<trkpt lat="49.547719" lon="18.667153">
				<ele>501.000000</ele>
			</trkpt>
			<trkpt lat="49.547817" lon="18.666569">
				<ele>502.000000</ele>
			</trkpt>
			<trkpt lat="49.547858" lon="18.666363">
				<ele>502.000000</ele>
			</trkpt>
			<trkpt lat="49.547911" lon="18.666183">
				<ele>502.000000</ele>
			</trkpt>
			<trkpt lat="49.547969" lon="18.666040">
				<ele>503.000000</ele>
			</trkpt>
			<trkpt lat="49.548062" lon="18.665868">
				<ele>503.000000</ele>
			</trkpt>
			<trkpt lat="49.548447" lon="18.665177">
				<ele>504.000000</ele>
			</trkpt>
			<trkpt lat="49.548447" lon="18.665177">
				<ele>504.000000</ele>
			</trkpt>
			<trkpt lat="49.548453" lon="18.665159">
				<ele>504.000000</ele>
			</trkpt>
			<trkpt lat="49.548523" lon="18.665042">
				<ele>505.000000</ele>
			</trkpt>
			<trkpt lat="49.548552" lon="18.664979">
				<ele>505.000000</ele>
			</trkpt>
			<trkpt lat="49.548564" lon="18.664935">
				<ele>505.000000</ele>
			</trkpt>
			<trkpt lat="49.548570" lon="18.664881">
				<ele>504.000000</ele>
			</trkpt>
			<trkpt lat="49.548564" lon="18.664826">
				<ele>504.000000</ele>
			</trkpt>
			<trkpt lat="49.548552" lon="18.664701">
				<ele>503.000000</ele>
			</trkpt>
			<trkpt lat="49.548523" lon="18.664422">
				<ele>503.000000</ele>
			</trkpt>
			<trkpt lat="49.548512" lon="18.664323">
				<ele>504.000000</ele>
			</trkpt>
			<trkpt lat="49.548499" lon="18.664269">
				<ele>504.000000</ele>
			</trkpt>
			<trkpt lat="49.548512" lon="18.664216">
				<ele>504.000000</ele>
			</trkpt>
			<trkpt lat="49.548523" lon="18.664172">
				<ele>504.000000</ele>
			</trkpt>
			<trkpt lat="49.548540" lon="18.664135">
				<ele>504.000000</ele>
			</trkpt>
			<trkpt lat="49.548884" lon="18.663606">
				<ele>506.000000</ele>
			</trkpt>
			<trkpt lat="49.549065" lon="18.663317">
				<ele>506.000000</ele>
			</trkpt>
			<trkpt lat="49.549187" lon="18.663048">
				<ele>506.000000</ele>
			</trkpt>
			<trkpt lat="49.549374" lon="18.662617">
				<ele>507.000000</ele>
			</trkpt>
			<trkpt lat="49.549549" lon="18.662159">
				<ele>507.000000</ele>
			</trkpt>
			<trkpt lat="49.550149" lon="18.660551">
				<ele>509.000000</ele>
			</trkpt>
			<trkpt lat="49.550219" lon="18.660390">
				<ele>509.000000</ele>
			</trkpt>
			<trkpt lat="49.550260" lon="18.660237">
				<ele>509.000000</ele>
			</trkpt>
			<trkpt lat="49.550277" lon="18.660101">
				<ele>510.000000</ele>
			</trkpt>
			<trkpt lat="49.550307" lon="18.659922">
				<ele>510.000000</ele>
			</trkpt>
			<trkpt lat="49.550411" lon="18.658727">
				<ele>511.000000</ele>
			</trkpt>
			<trkpt lat="49.550481" lon="18.657927">
				<ele>511.000000</ele>
			</trkpt>
			<trkpt lat="49.550493" lon="18.657667">
				<ele>512.000000</ele>
			</trkpt>
			<trkpt lat="49.550498" lon="18.657424">
				<ele>512.000000</ele>
			</trkpt>
			<trkpt lat="49.550487" lon="18.657174">
				<ele>512.000000</ele>
			</trkpt>
			<trkpt lat="49.550470" lon="18.656948">
				<ele>513.000000</ele>
			</trkpt>
			<trkpt lat="49.550423" lon="18.656679">
				<ele>513.000000</ele>
			</trkpt>
			<trkpt lat="49.550376" lon="18.656428">
				<ele>513.000000</ele>
			</trkpt>
			<trkpt lat="49.550341" lon="18.656248">
				<ele>514.000000</ele>
			</trkpt>
			<trkpt lat="49.550289" lon="18.656077">
				<ele>514.000000</ele>
			</trkpt>
			<trkpt lat="49.550242" lon="18.655933">
				<ele>514.000000</ele>
			</trkpt>
			<trkpt lat="49.550231" lon="18.655916">
				<ele>514.000000</ele>
			</trkpt>
			<trkpt lat="49.550231" lon="18.655916">
				<ele>514.000000</ele>
			</trkpt>
			<trkpt lat="49.550184" lon="18.655807">
				<ele>514.000000</ele>
			</trkpt>
			<trkpt lat="49.550126" lon="18.655673">
				<ele>514.000000</ele>
			</trkpt>
			<trkpt lat="49.550044" lon="18.655566">
				<ele>514.000000</ele>
			</trkpt>
			<trkpt lat="49.549828" lon="18.655251">
				<ele>515.000000</ele>
			</trkpt>
			<trkpt lat="49.549491" lon="18.654828">
				<ele>516.000000</ele>
			</trkpt>
			<trkpt lat="49.549339" lon="18.654648">
				<ele>516.000000</ele>
			</trkpt>
			<trkpt lat="49.549199" lon="18.654514">
				<ele>516.000000</ele>
			</trkpt>
			<trkpt lat="49.549065" lon="18.654406">
				<ele>517.000000</ele>
			</trkpt>
			<trkpt lat="49.548925" lon="18.654316">
				<ele>517.000000</ele>
			</trkpt>
			<trkpt lat="49.548774" lon="18.654218">
				<ele>517.000000</ele>
			</trkpt>
			<trkpt lat="49.548616" lon="18.654155">
				<ele>518.000000</ele>
			</trkpt>
			<trkpt lat="49.548092" lon="18.653966">
				<ele>519.000000</ele>
			</trkpt>
			<trkpt lat="49.547905" lon="18.653895">
				<ele>519.000000</ele>
			</trkpt>
			<trkpt lat="49.547789" lon="18.653832">
				<ele>520.000000</ele>
			</trkpt>
			<trkpt lat="49.547683" lon="18.653742">
				<ele>520.000000</ele>
			</trkpt>
			<trkpt lat="49.547579" lon="18.653616">
				<ele>520.000000</ele>
			</trkpt>
			<trkpt lat="49.547235" lon="18.653140">
				<ele>521.000000</ele>
			</trkpt>
			<trkpt lat="49.547176" lon="18.653023">
				<ele>522.000000</ele>
			</trkpt>
			<trkpt lat="49.547101" lon="18.652853">
				<ele>522.000000</ele>
			</trkpt>
			<trkpt lat="49.547083" lon="18.652780">
				<ele>522.000000</ele>
			</trkpt>
			<trkpt lat="49.547083" lon="18.652736">
				<ele>522.000000</ele>
			</trkpt>
			<trkpt lat="49.547095" lon="18.652681">
				<ele>522.000000</ele>
			</trkpt>
			<trkpt lat="49.547124" lon="18.652618">
				<ele>521.000000</ele>
			</trkpt>
			<trkpt lat="49.547241" lon="18.652367">
				<ele>521.000000</ele>
			</trkpt>
			<trkpt lat="49.547282" lon="18.652287">
				<ele>522.000000</ele>
			</trkpt>
			<trkpt lat="49.547299" lon="18.652205">
				<ele>522.000000</ele>
			</trkpt>
			<trkpt lat="49.547305" lon="18.652107">
				<ele>522.000000</ele>
			</trkpt>
			<trkpt lat="49.547299" lon="18.652025">
				<ele>522.000000</ele>
			</trkpt>
			<trkpt lat="49.547282" lon="18.651666">
				<ele>523.000000</ele>
			</trkpt>
			<trkpt lat="49.547258" lon="18.651262">
				<ele>525.000000</ele>
			</trkpt>
			<trkpt lat="49.547229" lon="18.650714">
				<ele>527.000000</ele>
			</trkpt>
			<trkpt lat="49.547206" lon="18.650400">
				<ele>527.000000</ele>
			</trkpt>
			<trkpt lat="49.547189" lon="18.650310">
				<ele>526.000000</ele>
			</trkpt>
			<trkpt lat="49.547130" lon="18.650203">
				<ele>525.000000</ele>
			</trkpt>
			<trkpt lat="49.547101" lon="18.650193">
				<ele>525.000000</ele>
			</trkpt>
			<trkpt lat="49.547066" lon="18.650211">
				<ele>525.000000</ele>
			</trkpt>
			<trkpt lat="49.547042" lon="18.650176">
				<ele>525.000000</ele>
			</trkpt>
			<trkpt lat="49.547013" lon="18.650067">
				<ele>525.000000</ele>
			</trkpt>
			<trkpt lat="49.547013" lon="18.650067">
				<ele>525.000000</ele>
			</trkpt>
			<trkpt lat="49.547001" lon="18.650023">
				<ele>525.000000</ele>
			</trkpt>
			<trkpt lat="49.546984" lon="18.649977">
				<ele>526.000000</ele>
			</trkpt>
			<trkpt lat="49.546955" lon="18.649968">
				<ele>526.000000</ele>
			</trkpt>
			<trkpt lat="49.546914" lon="18.649933">
				<ele>526.000000</ele>
			</trkpt>
			<trkpt lat="49.546867" lon="18.649887">
				<ele>526.000000</ele>
			</trkpt>
			<trkpt lat="49.546832" lon="18.649843">
				<ele>525.000000</ele>
			</trkpt>
			<trkpt lat="49.546792" lon="18.649771">
				<ele>525.000000</ele>
			</trkpt>
			<trkpt lat="49.546512" lon="18.649214">
				<ele>526.000000</ele>
			</trkpt>
			<trkpt lat="49.546314" lon="18.648864">
				<ele>526.000000</ele>
			</trkpt>
			<trkpt lat="49.545888" lon="18.648119">
				<ele>528.000000</ele>
			</trkpt>
			<trkpt lat="49.545638" lon="18.647624">
				<ele>529.000000</ele>
			</trkpt>
			<trkpt lat="49.545416" lon="18.647211">
				<ele>530.000000</ele>
			</trkpt>
			<trkpt lat="49.545323" lon="18.647050">
				<ele>530.000000</ele>
			</trkpt>
			<trkpt lat="49.545107" lon="18.646744">
				<ele>530.000000</ele>
			</trkpt>
			<trkpt lat="49.544886" lon="18.646384">
				<ele>531.000000</ele>
			</trkpt>
			<trkpt lat="49.544728" lon="18.646124">
				<ele>531.000000</ele>
			</trkpt>
			<trkpt lat="49.544688" lon="18.646016">
				<ele>532.000000</ele>
			</trkpt>
			<trkpt lat="49.544635" lon="18.645890">
				<ele>532.000000</ele>
			</trkpt>
			<trkpt lat="49.544367" lon="18.645082">
				<ele>533.000000</ele>
			</trkpt>
			<trkpt lat="49.544140" lon="18.644471">
				<ele>534.000000</ele>
			</trkpt>
			<trkpt lat="49.544117" lon="18.644390">
				<ele>534.000000</ele>
			</trkpt>
			<trkpt lat="49.544052" lon="18.644408">
				<ele>533.000000</ele>
			</trkpt>
			<trkpt lat="49.543988" lon="18.644435">
				<ele>534.000000</ele>
			</trkpt>
			<trkpt lat="49.543953" lon="18.644444">
				<ele>534.000000</ele>
			</trkpt>
			<trkpt lat="49.543953" lon="18.644444">
				<ele>534.000000</ele>
			</trkpt>
			<trkpt lat="49.543936" lon="18.644444">
				<ele>534.000000</ele>
			</trkpt>
			<trkpt lat="49.543883" lon="18.644426">
				<ele>534.000000</ele>
			</trkpt>
			<trkpt lat="49.543819" lon="18.644390">
				<ele>535.000000</ele>
			</trkpt>
			<trkpt lat="49.543364" lon="18.644031">
				<ele>535.000000</ele>
			</trkpt>
			<trkpt lat="49.543201" lon="18.643878">
				<ele>536.000000</ele>
			</trkpt>
			<trkpt lat="49.543067" lon="18.643797">
				<ele>536.000000</ele>
			</trkpt>
			<trkpt lat="49.542741" lon="18.643635">
				<ele>537.000000</ele>
			</trkpt>
			<trkpt lat="49.542496" lon="18.643536">
				<ele>537.000000</ele>
			</trkpt>
			<trkpt lat="49.542403" lon="18.643509">
				<ele>537.000000</ele>
			</trkpt>
			<trkpt lat="49.542286" lon="18.643501">
				<ele>538.000000</ele>
			</trkpt>
			<trkpt lat="49.542141" lon="18.643482">
				<ele>538.000000</ele>
			</trkpt>
			<trkpt lat="49.541966" lon="18.643402">
				<ele>539.000000</ele>
			</trkpt>
			<trkpt lat="49.541616" lon="18.643232">
				<ele>540.000000</ele>
			</trkpt>
			<trkpt lat="49.541255" lon="18.643096">
				<ele>541.000000</ele>
			</trkpt>
			<trkpt lat="49.540602" lon="18.643169">
				<ele>541.000000</ele>
			</trkpt>
			<trkpt lat="49.540118" lon="18.643195">
				<ele>542.000000</ele>
			</trkpt>
			<trkpt lat="49.539762" lon="18.643205">
				<ele>543.000000</ele>
			</trkpt>
			<trkpt lat="49.539639" lon="18.643186">
				<ele>544.000000</ele>
			</trkpt>
			<trkpt lat="49.539587" lon="18.643169">
				<ele>544.000000</ele>
			</trkpt>
			<trkpt lat="49.539541" lon="18.643132">
				<ele>544.000000</ele>
			</trkpt>
			<trkpt lat="49.539500" lon="18.643088">
				<ele>544.000000</ele>
			</trkpt>
			<trkpt lat="49.539465" lon="18.643042">
				<ele>545.000000</ele>
			</trkpt>
			<trkpt lat="49.539442" lon="18.642970">
				<ele>545.000000</ele>
			</trkpt>
			<trkpt lat="49.539424" lon="18.642916">
				<ele>545.000000</ele>
			</trkpt>
			<trkpt lat="49.539238" lon="18.642916">
				<ele>546.000000</ele>
			</trkpt>
			<trkpt lat="49.539238" lon="18.642916">
				<ele>546.000000</ele>
			</trkpt>
			<trkpt lat="49.538730" lon="18.642926">
				<ele>547.000000</ele>
			</trkpt>
			<trkpt lat="49.538118" lon="18.642935">
				<ele>547.000000</ele>
			</trkpt>
			<trkpt lat="49.537914" lon="18.642916">
				<ele>548.000000</ele>
			</trkpt>
			<trkpt lat="49.537775" lon="18.642890">
				<ele>548.000000</ele>
			</trkpt>
			<trkpt lat="49.537663" lon="18.642853">
				<ele>549.000000</ele>
			</trkpt>
			<trkpt lat="49.537529" lon="18.642792">
				<ele>549.000000</ele>
			</trkpt>
			<trkpt lat="49.537221" lon="18.642603">
				<ele>550.000000</ele>
			</trkpt>
			<trkpt lat="49.536684" lon="18.642216">
				<ele>552.000000</ele>
			</trkpt>
			<trkpt lat="49.536462" lon="18.642063">
				<ele>552.000000</ele>
			</trkpt>
			<trkpt lat="49.536271" lon="18.641937">
				<ele>553.000000</ele>
			</trkpt>
			<trkpt lat="49.536154" lon="18.641857">
				<ele>553.000000</ele>
			</trkpt>
			<trkpt lat="49.536061" lon="18.641758">
				<ele>553.000000</ele>
			</trkpt>
			<trkpt lat="49.535973" lon="18.641641">
				<ele>553.000000</ele>
			</trkpt>
			<trkpt lat="49.535897" lon="18.641497">
				<ele>554.000000</ele>
			</trkpt>
			<trkpt lat="49.535868" lon="18.641434">
				<ele>554.000000</ele>
			</trkpt>
			<trkpt lat="49.535810" lon="18.641308">
				<ele>554.000000</ele>
			</trkpt>
			<trkpt lat="49.535722" lon="18.641084">
				<ele>554.000000</ele>
			</trkpt>
			<trkpt lat="49.535652" lon="18.640851">
				<ele>555.000000</ele>
			</trkpt>
			<trkpt lat="49.535600" lon="18.640626">
				<ele>555.000000</ele>
			</trkpt>
			<trkpt lat="49.535495" lon="18.640195">
				<ele>556.000000</ele>
			</trkpt>
			<trkpt lat="49.535442" lon="18.639943">
				<ele>556.000000</ele>
			</trkpt>
			<trkpt lat="49.535384" lon="18.639700">
				<ele>557.000000</ele>
			</trkpt>
			<trkpt lat="49.535338" lon="18.639530">
				<ele>557.000000</ele>
			</trkpt>
			<trkpt lat="49.535297" lon="18.639413">
				<ele>557.000000</ele>
			</trkpt>
			<trkpt lat="49.535250" lon="18.639341">
				<ele>557.000000</ele>
			</trkpt>
			<trkpt lat="49.535204" lon="18.639270">
				<ele>557.000000</ele>
			</trkpt>
			<trkpt lat="49.535139" lon="18.639216">
				<ele>557.000000</ele>
			</trkpt>
			<trkpt lat="49.534936" lon="18.639063">
				<ele>558.000000</ele>
			</trkpt>
			<trkpt lat="49.534848" lon="18.639000">
				<ele>558.000000</ele>
			</trkpt>
			<trkpt lat="49.534772" lon="18.638964">
				<ele>558.000000</ele>
			</trkpt>
			<trkpt lat="49.534690" lon="18.638955">
				<ele>558.000000</ele>
			</trkpt>
			<trkpt lat="49.534574" lon="18.638947">
				<ele>558.000000</ele>
			</trkpt>
			<trkpt lat="49.534136" lon="18.638982">
				<ele>559.000000</ele>
			</trkpt>
			<trkpt lat="49.533950" lon="18.638974">
				<ele>559.000000</ele>
			</trkpt>
			<trkpt lat="49.533735" lon="18.638928">
				<ele>560.000000</ele>
			</trkpt>
			<trkpt lat="49.533279" lon="18.638830">
				<ele>560.000000</ele>
			</trkpt>
			<trkpt lat="49.533023" lon="18.638775">
				<ele>561.000000</ele>
			</trkpt>
			<trkpt lat="49.532947" lon="18.638775">
				<ele>561.000000</ele>
			</trkpt>
			<trkpt lat="49.532574" lon="18.638677">
				<ele>562.000000</ele>
			</trkpt>
			<trkpt lat="49.532253" lon="18.638641">
				<ele>563.000000</ele>
			</trkpt>
			<trkpt lat="49.531758" lon="18.638605">
				<ele>565.000000</ele>
			</trkpt>
			<trkpt lat="49.531414" lon="18.638587">
				<ele>566.000000</ele>
			</trkpt>
			<trkpt lat="49.531297" lon="18.638578">
				<ele>567.000000</ele>
			</trkpt>
			<trkpt lat="49.531140" lon="18.638595">
				<ele>567.000000</ele>
			</trkpt>
			<trkpt lat="49.531017" lon="18.638614">
				<ele>568.000000</ele>
			</trkpt>
			<trkpt lat="49.530895" lon="18.638650">
				<ele>568.000000</ele>
			</trkpt>
			<trkpt lat="49.530732" lon="18.638704">
				<ele>569.000000</ele>
			</trkpt>
			<trkpt lat="49.530697" lon="18.638658">
				<ele>569.000000</ele>
			</trkpt>
			<trkpt lat="49.530667" lon="18.638632">
				<ele>570.000000</ele>
			</trkpt>
			<trkpt lat="49.530516" lon="18.638551">
				<ele>571.000000</ele>
			</trkpt>
			<trkpt lat="49.530452" lon="18.638505">
				<ele>571.000000</ele>
			</trkpt>
			<trkpt lat="49.530452" lon="18.638505">
				<ele>571.000000</ele>
			</trkpt>
			<trkpt lat="49.530201" lon="18.638335">
				<ele>572.000000</ele>
			</trkpt>
			<trkpt lat="49.530049" lon="18.638228">
				<ele>573.000000</ele>
			</trkpt>
			<trkpt lat="49.529787" lon="18.638039">
				<ele>574.000000</ele>
			</trkpt>
			<trkpt lat="49.529478" lon="18.637796">
				<ele>576.000000</ele>
			</trkpt>
			<trkpt lat="49.529437" lon="18.637760">
				<ele>576.000000</ele>
			</trkpt>
			<trkpt lat="49.529437" lon="18.637760">
				<ele>576.000000</ele>
			</trkpt>
			<trkpt lat="49.529437" lon="18.637760">
				<ele>576.000000</ele>
			</trkpt>
		</trkseg>
	</trk>
</gpx>

