<?xml version="1.0" encoding="utf-8"?>
<gpx xmlns="http://www.topografix.com/GPX/1/1" version="1.1" creator="https://mapy.cz/">
	<trk>
		<name>02_Horní Lomní - Morávka, vodní nádrž</name>
		<trkseg>
			<trkpt lat="49.529519" lon="18.638821">
				<ele>572.000000</ele>
			</trkpt>
			<trkpt lat="49.529490" lon="18.638874">
				<ele>571.000000</ele>
			</trkpt>
			<trkpt lat="49.529402" lon="18.639045">
				<ele>572.000000</ele>
			</trkpt>
			<trkpt lat="49.529280" lon="18.639000">
				<ele>572.000000</ele>
			</trkpt>
			<trkpt lat="49.529163" lon="18.638920">
				<ele>572.000000</ele>
			</trkpt>
			<trkpt lat="49.529041" lon="18.638830">
				<ele>573.000000</ele>
			</trkpt>
			<trkpt lat="49.528720" lon="18.638542">
				<ele>574.000000</ele>
			</trkpt>
			<trkpt lat="49.528563" lon="18.638416">
				<ele>574.000000</ele>
			</trkpt>
			<trkpt lat="49.528259" lon="18.638245">
				<ele>575.000000</ele>
			</trkpt>
			<trkpt lat="49.527956" lon="18.638129">
				<ele>577.000000</ele>
			</trkpt>
			<trkpt lat="49.527734" lon="18.638039">
				<ele>577.000000</ele>
			</trkpt>
			<trkpt lat="49.527583" lon="18.638003">
				<ele>578.000000</ele>
			</trkpt>
			<trkpt lat="49.527461" lon="18.637976">
				<ele>578.000000</ele>
			</trkpt>
			<trkpt lat="49.527321" lon="18.637985">
				<ele>578.000000</ele>
			</trkpt>
			<trkpt lat="49.527000" lon="18.637958">
				<ele>580.000000</ele>
			</trkpt>
			<trkpt lat="49.526849" lon="18.637931">
				<ele>580.000000</ele>
			</trkpt>
			<trkpt lat="49.526749" lon="18.637895">
				<ele>580.000000</ele>
			</trkpt>
			<trkpt lat="49.526662" lon="18.637850">
				<ele>581.000000</ele>
			</trkpt>
			<trkpt lat="49.526574" lon="18.637760">
				<ele>581.000000</ele>
			</trkpt>
			<trkpt lat="49.526452" lon="18.637616">
				<ele>581.000000</ele>
			</trkpt>
			<trkpt lat="49.526300" lon="18.637392">
				<ele>581.000000</ele>
			</trkpt>
			<trkpt lat="49.526172" lon="18.637203">
				<ele>582.000000</ele>
			</trkpt>
			<trkpt lat="49.526009" lon="18.636934">
				<ele>582.000000</ele>
			</trkpt>
			<trkpt lat="49.525974" lon="18.636871">
				<ele>582.000000</ele>
			</trkpt>
			<trkpt lat="49.525915" lon="18.636781">
				<ele>582.000000</ele>
			</trkpt>
			<trkpt lat="49.525834" lon="18.636710">
				<ele>583.000000</ele>
			</trkpt>
			<trkpt lat="49.525653" lon="18.636547">
				<ele>583.000000</ele>
			</trkpt>
			<trkpt lat="49.525508" lon="18.636440">
				<ele>584.000000</ele>
			</trkpt>
			<trkpt lat="49.525339" lon="18.636242">
				<ele>585.000000</ele>
			</trkpt>
			<trkpt lat="49.525320" lon="18.636215">
				<ele>585.000000</ele>
			</trkpt>
			<trkpt lat="49.525320" lon="18.636215">
				<ele>585.000000</ele>
			</trkpt>
			<trkpt lat="49.525105" lon="18.635937">
				<ele>586.000000</ele>
			</trkpt>
			<trkpt lat="49.524744" lon="18.635425">
				<ele>587.000000</ele>
			</trkpt>
			<trkpt lat="49.524516" lon="18.635119">
				<ele>588.000000</ele>
			</trkpt>
			<trkpt lat="49.524283" lon="18.634876">
				<ele>589.000000</ele>
			</trkpt>
			<trkpt lat="49.524096" lon="18.634697">
				<ele>589.000000</ele>
			</trkpt>
			<trkpt lat="49.523531" lon="18.634077">
				<ele>592.000000</ele>
			</trkpt>
			<trkpt lat="49.522906" lon="18.633421">
				<ele>595.000000</ele>
			</trkpt>
			<trkpt lat="49.522575" lon="18.633071">
				<ele>596.000000</ele>
			</trkpt>
			<trkpt lat="49.522236" lon="18.632685">
				<ele>597.000000</ele>
			</trkpt>
			<trkpt lat="49.522056" lon="18.632488">
				<ele>598.000000</ele>
			</trkpt>
			<trkpt lat="49.521898" lon="18.632353">
				<ele>599.000000</ele>
			</trkpt>
			<trkpt lat="49.521752" lon="18.632245">
				<ele>599.000000</ele>
			</trkpt>
			<trkpt lat="49.521571" lon="18.632110">
				<ele>600.000000</ele>
			</trkpt>
			<trkpt lat="49.521420" lon="18.632012">
				<ele>601.000000</ele>
			</trkpt>
			<trkpt lat="49.521268" lon="18.631930">
				<ele>601.000000</ele>
			</trkpt>
			<trkpt lat="49.521134" lon="18.631886">
				<ele>602.000000</ele>
			</trkpt>
			<trkpt lat="49.520994" lon="18.631876">
				<ele>603.000000</ele>
			</trkpt>
			<trkpt lat="49.520767" lon="18.631886">
				<ele>603.000000</ele>
			</trkpt>
			<trkpt lat="49.520271" lon="18.631930">
				<ele>605.000000</ele>
			</trkpt>
			<trkpt lat="49.520038" lon="18.631922">
				<ele>606.000000</ele>
			</trkpt>
			<trkpt lat="49.519734" lon="18.631876">
				<ele>608.000000</ele>
			</trkpt>
			<trkpt lat="49.519501" lon="18.631813">
				<ele>609.000000</ele>
			</trkpt>
			<trkpt lat="49.519349" lon="18.631750">
				<ele>609.000000</ele>
			</trkpt>
			<trkpt lat="49.518480" lon="18.631337">
				<ele>612.000000</ele>
			</trkpt>
			<trkpt lat="49.518125" lon="18.631158">
				<ele>614.000000</ele>
			</trkpt>
			<trkpt lat="49.518019" lon="18.631113">
				<ele>615.000000</ele>
			</trkpt>
			<trkpt lat="49.517950" lon="18.631050">
				<ele>615.000000</ele>
			</trkpt>
			<trkpt lat="49.517880" lon="18.630978">
				<ele>616.000000</ele>
			</trkpt>
			<trkpt lat="49.517822" lon="18.630880">
				<ele>616.000000</ele>
			</trkpt>
			<trkpt lat="49.517541" lon="18.630314">
				<ele>618.000000</ele>
			</trkpt>
			<trkpt lat="49.517396" lon="18.630071">
				<ele>619.000000</ele>
			</trkpt>
			<trkpt lat="49.517285" lon="18.629909">
				<ele>620.000000</ele>
			</trkpt>
			<trkpt lat="49.517163" lon="18.629792">
				<ele>620.000000</ele>
			</trkpt>
			<trkpt lat="49.517057" lon="18.629702">
				<ele>622.000000</ele>
			</trkpt>
			<trkpt lat="49.516743" lon="18.629469">
				<ele>623.000000</ele>
			</trkpt>
			<trkpt lat="49.516486" lon="18.629289">
				<ele>624.000000</ele>
			</trkpt>
			<trkpt lat="49.516142" lon="18.629092">
				<ele>625.000000</ele>
			</trkpt>
			<trkpt lat="49.516025" lon="18.629029">
				<ele>626.000000</ele>
			</trkpt>
			<trkpt lat="49.515874" lon="18.628993">
				<ele>627.000000</ele>
			</trkpt>
			<trkpt lat="49.515734" lon="18.628939">
				<ele>628.000000</ele>
			</trkpt>
			<trkpt lat="49.515605" lon="18.628858">
				<ele>629.000000</ele>
			</trkpt>
			<trkpt lat="49.515477" lon="18.628787">
				<ele>629.000000</ele>
			</trkpt>
			<trkpt lat="49.515494" lon="18.628687">
				<ele>630.000000</ele>
			</trkpt>
			<trkpt lat="49.515483" lon="18.628580">
				<ele>631.000000</ele>
			</trkpt>
			<trkpt lat="49.515483" lon="18.628580">
				<ele>631.000000</ele>
			</trkpt>
			<trkpt lat="49.515483" lon="18.628561">
				<ele>631.000000</ele>
			</trkpt>
			<trkpt lat="49.515477" lon="18.628454">
				<ele>631.000000</ele>
			</trkpt>
			<trkpt lat="49.515489" lon="18.628355">
				<ele>631.000000</ele>
			</trkpt>
			<trkpt lat="49.515512" lon="18.628274">
				<ele>632.000000</ele>
			</trkpt>
			<trkpt lat="49.515559" lon="18.628211">
				<ele>632.000000</ele>
			</trkpt>
			<trkpt lat="49.515751" lon="18.628005">
				<ele>634.000000</ele>
			</trkpt>
			<trkpt lat="49.515856" lon="18.627861">
				<ele>635.000000</ele>
			</trkpt>
			<trkpt lat="49.515943" lon="18.627699">
				<ele>635.000000</ele>
			</trkpt>
			<trkpt lat="49.516031" lon="18.627492">
				<ele>637.000000</ele>
			</trkpt>
			<trkpt lat="49.516118" lon="18.627242">
				<ele>638.000000</ele>
			</trkpt>
			<trkpt lat="49.516300" lon="18.626657">
				<ele>642.000000</ele>
			</trkpt>
			<trkpt lat="49.516387" lon="18.626433">
				<ele>644.000000</ele>
			</trkpt>
			<trkpt lat="49.516573" lon="18.625840">
				<ele>647.000000</ele>
			</trkpt>
			<trkpt lat="49.516754" lon="18.625211">
				<ele>650.000000</ele>
			</trkpt>
			<trkpt lat="49.517011" lon="18.624223">
				<ele>658.000000</ele>
			</trkpt>
			<trkpt lat="49.517116" lon="18.623846">
				<ele>661.000000</ele>
			</trkpt>
			<trkpt lat="49.517215" lon="18.623549">
				<ele>664.000000</ele>
			</trkpt>
			<trkpt lat="49.517303" lon="18.623280">
				<ele>666.000000</ele>
			</trkpt>
			<trkpt lat="49.517355" lon="18.623047">
				<ele>667.000000</ele>
			</trkpt>
			<trkpt lat="49.517372" lon="18.622831">
				<ele>669.000000</ele>
			</trkpt>
			<trkpt lat="49.517361" lon="18.622561">
				<ele>671.000000</ele>
			</trkpt>
			<trkpt lat="49.517331" lon="18.622345">
				<ele>672.000000</ele>
			</trkpt>
			<trkpt lat="49.517262" lon="18.622076">
				<ele>674.000000</ele>
			</trkpt>
			<trkpt lat="49.517163" lon="18.621716">
				<ele>675.000000</ele>
			</trkpt>
			<trkpt lat="49.517098" lon="18.621519">
				<ele>676.000000</ele>
			</trkpt>
			<trkpt lat="49.517022" lon="18.621349">
				<ele>677.000000</ele>
			</trkpt>
			<trkpt lat="49.516912" lon="18.621160">
				<ele>679.000000</ele>
			</trkpt>
			<trkpt lat="49.516806" lon="18.620963">
				<ele>682.000000</ele>
			</trkpt>
			<trkpt lat="49.516690" lon="18.620666">
				<ele>685.000000</ele>
			</trkpt>
			<trkpt lat="49.516381" lon="18.620001">
				<ele>688.000000</ele>
			</trkpt>
			<trkpt lat="49.516241" lon="18.619632">
				<ele>690.000000</ele>
			</trkpt>
			<trkpt lat="49.516095" lon="18.619255">
				<ele>694.000000</ele>
			</trkpt>
			<trkpt lat="49.515984" lon="18.618886">
				<ele>697.000000</ele>
			</trkpt>
			<trkpt lat="49.515885" lon="18.618590">
				<ele>699.000000</ele>
			</trkpt>
			<trkpt lat="49.515722" lon="18.617953">
				<ele>703.000000</ele>
			</trkpt>
			<trkpt lat="49.515430" lon="18.616704">
				<ele>712.000000</ele>
			</trkpt>
			<trkpt lat="49.515453" lon="18.616632">
				<ele>712.000000</ele>
			</trkpt>
			<trkpt lat="49.515465" lon="18.616615">
				<ele>712.000000</ele>
			</trkpt>
			<trkpt lat="49.515465" lon="18.616615">
				<ele>712.000000</ele>
			</trkpt>
			<trkpt lat="49.515483" lon="18.616569">
				<ele>713.000000</ele>
			</trkpt>
			<trkpt lat="49.515530" lon="18.616515">
				<ele>713.000000</ele>
			</trkpt>
			<trkpt lat="49.515565" lon="18.616489">
				<ele>713.000000</ele>
			</trkpt>
			<trkpt lat="49.515617" lon="18.616479">
				<ele>714.000000</ele>
			</trkpt>
			<trkpt lat="49.515664" lon="18.616498">
				<ele>714.000000</ele>
			</trkpt>
			<trkpt lat="49.515704" lon="18.616525">
				<ele>715.000000</ele>
			</trkpt>
			<trkpt lat="49.515803" lon="18.616632">
				<ele>716.000000</ele>
			</trkpt>
			<trkpt lat="49.516264" lon="18.617091">
				<ele>721.000000</ele>
			</trkpt>
			<trkpt lat="49.516527" lon="18.617378">
				<ele>724.000000</ele>
			</trkpt>
			<trkpt lat="49.516667" lon="18.617548">
				<ele>726.000000</ele>
			</trkpt>
			<trkpt lat="49.516847" lon="18.617818">
				<ele>729.000000</ele>
			</trkpt>
			<trkpt lat="49.517057" lon="18.618160">
				<ele>733.000000</ele>
			</trkpt>
			<trkpt lat="49.517122" lon="18.618249">
				<ele>733.000000</ele>
			</trkpt>
			<trkpt lat="49.517197" lon="18.618321">
				<ele>734.000000</ele>
			</trkpt>
			<trkpt lat="49.517844" lon="18.618995">
				<ele>740.000000</ele>
			</trkpt>
			<trkpt lat="49.518125" lon="18.619265">
				<ele>744.000000</ele>
			</trkpt>
			<trkpt lat="49.518183" lon="18.619336">
				<ele>745.000000</ele>
			</trkpt>
			<trkpt lat="49.518341" lon="18.619552">
				<ele>747.000000</ele>
			</trkpt>
			<trkpt lat="49.518410" lon="18.619615">
				<ele>748.000000</ele>
			</trkpt>
			<trkpt lat="49.518463" lon="18.619632">
				<ele>748.000000</ele>
			</trkpt>
			<trkpt lat="49.518504" lon="18.619632">
				<ele>748.000000</ele>
			</trkpt>
			<trkpt lat="49.518562" lon="18.619615">
				<ele>748.000000</ele>
			</trkpt>
			<trkpt lat="49.518609" lon="18.619561">
				<ele>749.000000</ele>
			</trkpt>
			<trkpt lat="49.518679" lon="18.619498">
				<ele>750.000000</ele>
			</trkpt>
			<trkpt lat="49.518726" lon="18.619471">
				<ele>751.000000</ele>
			</trkpt>
			<trkpt lat="49.518743" lon="18.619462">
				<ele>751.000000</ele>
			</trkpt>
			<trkpt lat="49.518743" lon="18.619462">
				<ele>751.000000</ele>
			</trkpt>
			<trkpt lat="49.518784" lon="18.619452">
				<ele>752.000000</ele>
			</trkpt>
			<trkpt lat="49.518825" lon="18.619452">
				<ele>752.000000</ele>
			</trkpt>
			<trkpt lat="49.518871" lon="18.619452">
				<ele>753.000000</ele>
			</trkpt>
			<trkpt lat="49.518906" lon="18.619471">
				<ele>754.000000</ele>
			</trkpt>
			<trkpt lat="49.518941" lon="18.619506">
				<ele>756.000000</ele>
			</trkpt>
			<trkpt lat="49.518970" lon="18.619561">
				<ele>757.000000</ele>
			</trkpt>
			<trkpt lat="49.518994" lon="18.619615">
				<ele>758.000000</ele>
			</trkpt>
			<trkpt lat="49.519104" lon="18.620135">
				<ele>760.000000</ele>
			</trkpt>
			<trkpt lat="49.519116" lon="18.620207">
				<ele>760.000000</ele>
			</trkpt>
			<trkpt lat="49.519133" lon="18.620252">
				<ele>760.000000</ele>
			</trkpt>
			<trkpt lat="49.519163" lon="18.620261">
				<ele>761.000000</ele>
			</trkpt>
			<trkpt lat="49.519186" lon="18.620270">
				<ele>761.000000</ele>
			</trkpt>
			<trkpt lat="49.519210" lon="18.620244">
				<ele>762.000000</ele>
			</trkpt>
			<trkpt lat="49.519227" lon="18.620190">
				<ele>762.000000</ele>
			</trkpt>
			<trkpt lat="49.519239" lon="18.620108">
				<ele>763.000000</ele>
			</trkpt>
			<trkpt lat="49.519250" lon="18.619992">
				<ele>764.000000</ele>
			</trkpt>
			<trkpt lat="49.519279" lon="18.619076">
				<ele>771.000000</ele>
			</trkpt>
			<trkpt lat="49.519285" lon="18.618896">
				<ele>772.000000</ele>
			</trkpt>
			<trkpt lat="49.519308" lon="18.618789">
				<ele>772.000000</ele>
			</trkpt>
			<trkpt lat="49.519349" lon="18.618663">
				<ele>773.000000</ele>
			</trkpt>
			<trkpt lat="49.519414" lon="18.618546">
				<ele>772.000000</ele>
			</trkpt>
			<trkpt lat="49.519472" lon="18.618464">
				<ele>770.000000</ele>
			</trkpt>
			<trkpt lat="49.519495" lon="18.618410">
				<ele>770.000000</ele>
			</trkpt>
			<trkpt lat="49.519495" lon="18.618410">
				<ele>770.000000</ele>
			</trkpt>
			<trkpt lat="49.519565" lon="18.618240">
				<ele>769.000000</ele>
			</trkpt>
			<trkpt lat="49.519693" lon="18.618007">
				<ele>768.000000</ele>
			</trkpt>
			<trkpt lat="49.519729" lon="18.617944">
				<ele>769.000000</ele>
			</trkpt>
			<trkpt lat="49.519769" lon="18.617890">
				<ele>770.000000</ele>
			</trkpt>
			<trkpt lat="49.519810" lon="18.617871">
				<ele>770.000000</ele>
			</trkpt>
			<trkpt lat="49.519857" lon="18.617854">
				<ele>772.000000</ele>
			</trkpt>
			<trkpt lat="49.519903" lon="18.617863">
				<ele>772.000000</ele>
			</trkpt>
			<trkpt lat="49.519956" lon="18.617881">
				<ele>772.000000</ele>
			</trkpt>
			<trkpt lat="49.520038" lon="18.617907">
				<ele>772.000000</ele>
			</trkpt>
			<trkpt lat="49.520125" lon="18.617907">
				<ele>772.000000</ele>
			</trkpt>
			<trkpt lat="49.520154" lon="18.617881">
				<ele>772.000000</ele>
			</trkpt>
			<trkpt lat="49.520183" lon="18.617854">
				<ele>771.000000</ele>
			</trkpt>
			<trkpt lat="49.520201" lon="18.617808">
				<ele>771.000000</ele>
			</trkpt>
			<trkpt lat="49.520212" lon="18.617773">
				<ele>770.000000</ele>
			</trkpt>
			<trkpt lat="49.520277" lon="18.617152">
				<ele>770.000000</ele>
			</trkpt>
			<trkpt lat="49.520300" lon="18.616974">
				<ele>768.000000</ele>
			</trkpt>
			<trkpt lat="49.520329" lon="18.616839">
				<ele>767.000000</ele>
			</trkpt>
			<trkpt lat="49.520382" lon="18.616695">
				<ele>766.000000</ele>
			</trkpt>
			<trkpt lat="49.520440" lon="18.616569">
				<ele>766.000000</ele>
			</trkpt>
			<trkpt lat="49.520516" lon="18.616452">
				<ele>767.000000</ele>
			</trkpt>
			<trkpt lat="49.520597" lon="18.616353">
				<ele>766.000000</ele>
			</trkpt>
			<trkpt lat="49.520673" lon="18.616299">
				<ele>765.000000</ele>
			</trkpt>
			<trkpt lat="49.520737" lon="18.616290">
				<ele>764.000000</ele>
			</trkpt>
			<trkpt lat="49.520807" lon="18.616309">
				<ele>764.000000</ele>
			</trkpt>
			<trkpt lat="49.520860" lon="18.616372">
				<ele>764.000000</ele>
			</trkpt>
			<trkpt lat="49.521023" lon="18.616641">
				<ele>766.000000</ele>
			</trkpt>
			<trkpt lat="49.521099" lon="18.616749">
				<ele>766.000000</ele>
			</trkpt>
			<trkpt lat="49.521187" lon="18.616839">
				<ele>767.000000</ele>
			</trkpt>
			<trkpt lat="49.521291" lon="18.616902">
				<ele>768.000000</ele>
			</trkpt>
			<trkpt lat="49.521513" lon="18.617009">
				<ele>770.000000</ele>
			</trkpt>
			<trkpt lat="49.521717" lon="18.617135">
				<ele>773.000000</ele>
			</trkpt>
			<trkpt lat="49.521921" lon="18.617252">
				<ele>776.000000</ele>
			</trkpt>
			<trkpt lat="49.521997" lon="18.617270">
				<ele>777.000000</ele>
			</trkpt>
			<trkpt lat="49.522061" lon="18.617288">
				<ele>779.000000</ele>
			</trkpt>
			<trkpt lat="49.522125" lon="18.617278">
				<ele>779.000000</ele>
			</trkpt>
			<trkpt lat="49.522160" lon="18.617252">
				<ele>779.000000</ele>
			</trkpt>
			<trkpt lat="49.522190" lon="18.617198">
				<ele>779.000000</ele>
			</trkpt>
			<trkpt lat="49.522201" lon="18.617135">
				<ele>779.000000</ele>
			</trkpt>
			<trkpt lat="49.522225" lon="18.616722">
				<ele>784.000000</ele>
			</trkpt>
			<trkpt lat="49.522259" lon="18.615949">
				<ele>789.000000</ele>
			</trkpt>
			<trkpt lat="49.522271" lon="18.615869">
				<ele>789.000000</ele>
			</trkpt>
			<trkpt lat="49.522283" lon="18.615770">
				<ele>789.000000</ele>
			</trkpt>
			<trkpt lat="49.522312" lon="18.615689">
				<ele>789.000000</ele>
			</trkpt>
			<trkpt lat="49.522341" lon="18.615617">
				<ele>788.000000</ele>
			</trkpt>
			<trkpt lat="49.522387" lon="18.615544">
				<ele>789.000000</ele>
			</trkpt>
			<trkpt lat="49.522434" lon="18.615500">
				<ele>791.000000</ele>
			</trkpt>
			<trkpt lat="49.522498" lon="18.615464">
				<ele>793.000000</ele>
			</trkpt>
			<trkpt lat="49.522556" lon="18.615473">
				<ele>794.000000</ele>
			</trkpt>
			<trkpt lat="49.522790" lon="18.615500">
				<ele>795.000000</ele>
			</trkpt>
			<trkpt lat="49.522982" lon="18.615500">
				<ele>795.000000</ele>
			</trkpt>
			<trkpt lat="49.523163" lon="18.615464">
				<ele>796.000000</ele>
			</trkpt>
			<trkpt lat="49.523297" lon="18.615401">
				<ele>795.000000</ele>
			</trkpt>
			<trkpt lat="49.523425" lon="18.615311">
				<ele>794.000000</ele>
			</trkpt>
			<trkpt lat="49.523484" lon="18.615248">
				<ele>793.000000</ele>
			</trkpt>
			<trkpt lat="49.523531" lon="18.615168">
				<ele>792.000000</ele>
			</trkpt>
			<trkpt lat="49.523577" lon="18.615087">
				<ele>791.000000</ele>
			</trkpt>
			<trkpt lat="49.523618" lon="18.614997">
				<ele>790.000000</ele>
			</trkpt>
			<trkpt lat="49.523676" lon="18.614808">
				<ele>788.000000</ele>
			</trkpt>
			<trkpt lat="49.523723" lon="18.614575">
				<ele>788.000000</ele>
			</trkpt>
			<trkpt lat="49.523799" lon="18.614045">
				<ele>788.000000</ele>
			</trkpt>
			<trkpt lat="49.523863" lon="18.613776">
				<ele>785.000000</ele>
			</trkpt>
			<trkpt lat="49.523933" lon="18.613515">
				<ele>784.000000</ele>
			</trkpt>
			<trkpt lat="49.523962" lon="18.613443">
				<ele>783.000000</ele>
			</trkpt>
			<trkpt lat="49.524003" lon="18.613407">
				<ele>783.000000</ele>
			</trkpt>
			<trkpt lat="49.524055" lon="18.613371">
				<ele>783.000000</ele>
			</trkpt>
			<trkpt lat="49.524102" lon="18.613362">
				<ele>784.000000</ele>
			</trkpt>
			<trkpt lat="49.524184" lon="18.613362">
				<ele>785.000000</ele>
			</trkpt>
			<trkpt lat="49.524260" lon="18.613399">
				<ele>785.000000</ele>
			</trkpt>
			<trkpt lat="49.524679" lon="18.613623">
				<ele>786.000000</ele>
			</trkpt>
			<trkpt lat="49.524796" lon="18.613659">
				<ele>786.000000</ele>
			</trkpt>
			<trkpt lat="49.524918" lon="18.613686">
				<ele>786.000000</ele>
			</trkpt>
			<trkpt lat="49.525006" lon="18.613686">
				<ele>786.000000</ele>
			</trkpt>
			<trkpt lat="49.525088" lon="18.613722">
				<ele>786.000000</ele>
			</trkpt>
			<trkpt lat="49.525361" lon="18.613883">
				<ele>786.000000</ele>
			</trkpt>
			<trkpt lat="49.525461" lon="18.613919">
				<ele>787.000000</ele>
			</trkpt>
			<trkpt lat="49.525513" lon="18.613919">
				<ele>788.000000</ele>
			</trkpt>
			<trkpt lat="49.525577" lon="18.613928">
				<ele>788.000000</ele>
			</trkpt>
			<trkpt lat="49.525642" lon="18.613902">
				<ele>789.000000</ele>
			</trkpt>
			<trkpt lat="49.525694" lon="18.613883">
				<ele>789.000000</ele>
			</trkpt>
			<trkpt lat="49.525770" lon="18.613812">
				<ele>789.000000</ele>
			</trkpt>
			<trkpt lat="49.525939" lon="18.613649">
				<ele>785.000000</ele>
			</trkpt>
			<trkpt lat="49.525991" lon="18.613613">
				<ele>784.000000</ele>
			</trkpt>
			<trkpt lat="49.526038" lon="18.613596">
				<ele>783.000000</ele>
			</trkpt>
			<trkpt lat="49.526061" lon="18.613605">
				<ele>783.000000</ele>
			</trkpt>
			<trkpt lat="49.526096" lon="18.613632">
				<ele>783.000000</ele>
			</trkpt>
			<trkpt lat="49.526137" lon="18.613659">
				<ele>783.000000</ele>
			</trkpt>
			<trkpt lat="49.526254" lon="18.613875">
				<ele>782.000000</ele>
			</trkpt>
			<trkpt lat="49.526347" lon="18.614063">
				<ele>781.000000</ele>
			</trkpt>
			<trkpt lat="49.526429" lon="18.614261">
				<ele>780.000000</ele>
			</trkpt>
			<trkpt lat="49.526505" lon="18.614476">
				<ele>780.000000</ele>
			</trkpt>
			<trkpt lat="49.526609" lon="18.614862">
				<ele>779.000000</ele>
			</trkpt>
			<trkpt lat="49.526819" lon="18.615607">
				<ele>776.000000</ele>
			</trkpt>
			<trkpt lat="49.526942" lon="18.616012">
				<ele>775.000000</ele>
			</trkpt>
			<trkpt lat="49.526965" lon="18.616102">
				<ele>774.000000</ele>
			</trkpt>
			<trkpt lat="49.527000" lon="18.616210">
				<ele>774.000000</ele>
			</trkpt>
			<trkpt lat="49.527052" lon="18.616299">
				<ele>774.000000</ele>
			</trkpt>
			<trkpt lat="49.527093" lon="18.616345">
				<ele>774.000000</ele>
			</trkpt>
			<trkpt lat="49.527140" lon="18.616363">
				<ele>774.000000</ele>
			</trkpt>
			<trkpt lat="49.527175" lon="18.616363">
				<ele>775.000000</ele>
			</trkpt>
			<trkpt lat="49.527210" lon="18.616345">
				<ele>775.000000</ele>
			</trkpt>
			<trkpt lat="49.527251" lon="18.616299">
				<ele>774.000000</ele>
			</trkpt>
			<trkpt lat="49.527280" lon="18.616236">
				<ele>775.000000</ele>
			</trkpt>
			<trkpt lat="49.527303" lon="18.616165">
				<ele>775.000000</ele>
			</trkpt>
			<trkpt lat="49.527303" lon="18.616165">
				<ele>775.000000</ele>
			</trkpt>
			<trkpt lat="49.527344" lon="18.616057">
				<ele>775.000000</ele>
			</trkpt>
			<trkpt lat="49.527396" lon="18.615842">
				<ele>777.000000</ele>
			</trkpt>
			<trkpt lat="49.527437" lon="18.615653">
				<ele>779.000000</ele>
			</trkpt>
			<trkpt lat="49.527455" lon="18.615447">
				<ele>780.000000</ele>
			</trkpt>
			<trkpt lat="49.527461" lon="18.615294">
				<ele>779.000000</ele>
			</trkpt>
			<trkpt lat="49.527437" lon="18.615123">
				<ele>779.000000</ele>
			</trkpt>
			<trkpt lat="49.527396" lon="18.614988">
				<ele>779.000000</ele>
			</trkpt>
			<trkpt lat="49.527338" lon="18.614844">
				<ele>780.000000</ele>
			</trkpt>
			<trkpt lat="49.527262" lon="18.614728">
				<ele>782.000000</ele>
			</trkpt>
			<trkpt lat="49.527082" lon="18.614494">
				<ele>781.000000</ele>
			</trkpt>
			<trkpt lat="49.526977" lon="18.614324">
				<ele>783.000000</ele>
			</trkpt>
			<trkpt lat="49.526901" lon="18.614144">
				<ele>784.000000</ele>
			</trkpt>
			<trkpt lat="49.526843" lon="18.613936">
				<ele>785.000000</ele>
			</trkpt>
			<trkpt lat="49.526773" lon="18.613586">
				<ele>787.000000</ele>
			</trkpt>
			<trkpt lat="49.526749" lon="18.613344">
				<ele>785.000000</ele>
			</trkpt>
			<trkpt lat="49.526726" lon="18.613110">
				<ele>782.000000</ele>
			</trkpt>
			<trkpt lat="49.526726" lon="18.612931">
				<ele>780.000000</ele>
			</trkpt>
			<trkpt lat="49.526755" lon="18.612770">
				<ele>779.000000</ele>
			</trkpt>
			<trkpt lat="49.526796" lon="18.612644">
				<ele>779.000000</ele>
			</trkpt>
			<trkpt lat="49.526860" lon="18.612554">
				<ele>778.000000</ele>
			</trkpt>
			<trkpt lat="49.526953" lon="18.612481">
				<ele>777.000000</ele>
			</trkpt>
			<trkpt lat="49.527099" lon="18.612410">
				<ele>774.000000</ele>
			</trkpt>
			<trkpt lat="49.527234" lon="18.612374">
				<ele>773.000000</ele>
			</trkpt>
			<trkpt lat="49.527362" lon="18.612374">
				<ele>772.000000</ele>
			</trkpt>
			<trkpt lat="49.527490" lon="18.612392">
				<ele>771.000000</ele>
			</trkpt>
			<trkpt lat="49.527612" lon="18.612446">
				<ele>770.000000</ele>
			</trkpt>
			<trkpt lat="49.527753" lon="18.612527">
				<ele>769.000000</ele>
			</trkpt>
			<trkpt lat="49.527904" lon="18.612644">
				<ele>767.000000</ele>
			</trkpt>
			<trkpt lat="49.528050" lon="18.612797">
				<ele>764.000000</ele>
			</trkpt>
			<trkpt lat="49.528277" lon="18.613003">
				<ele>761.000000</ele>
			</trkpt>
			<trkpt lat="49.528487" lon="18.613200">
				<ele>758.000000</ele>
			</trkpt>
			<trkpt lat="49.529122" lon="18.613712">
				<ele>750.000000</ele>
			</trkpt>
			<trkpt lat="49.529251" lon="18.613793">
				<ele>749.000000</ele>
			</trkpt>
			<trkpt lat="49.529304" lon="18.613812">
				<ele>749.000000</ele>
			</trkpt>
			<trkpt lat="49.529350" lon="18.613829">
				<ele>749.000000</ele>
			</trkpt>
			<trkpt lat="49.529385" lon="18.613820">
				<ele>748.000000</ele>
			</trkpt>
			<trkpt lat="49.529414" lon="18.613793">
				<ele>748.000000</ele>
			</trkpt>
			<trkpt lat="49.529443" lon="18.613766">
				<ele>747.000000</ele>
			</trkpt>
			<trkpt lat="49.529455" lon="18.613712">
				<ele>747.000000</ele>
			</trkpt>
			<trkpt lat="49.529507" lon="18.613371">
				<ele>745.000000</ele>
			</trkpt>
			<trkpt lat="49.529571" lon="18.612841">
				<ele>739.000000</ele>
			</trkpt>
			<trkpt lat="49.529571" lon="18.612491">
				<ele>736.000000</ele>
			</trkpt>
			<trkpt lat="49.529583" lon="18.612383">
				<ele>735.000000</ele>
			</trkpt>
			<trkpt lat="49.529595" lon="18.612338">
				<ele>735.000000</ele>
			</trkpt>
			<trkpt lat="49.529612" lon="18.612320">
				<ele>735.000000</ele>
			</trkpt>
			<trkpt lat="49.529641" lon="18.612294">
				<ele>735.000000</ele>
			</trkpt>
			<trkpt lat="49.529676" lon="18.612294">
				<ele>736.000000</ele>
			</trkpt>
			<trkpt lat="49.529729" lon="18.612294">
				<ele>737.000000</ele>
			</trkpt>
			<trkpt lat="49.529782" lon="18.612338">
				<ele>737.000000</ele>
			</trkpt>
			<trkpt lat="49.529834" lon="18.612383">
				<ele>738.000000</ele>
			</trkpt>
			<trkpt lat="49.529886" lon="18.612473">
				<ele>738.000000</ele>
			</trkpt>
			<trkpt lat="49.530020" lon="18.612733">
				<ele>740.000000</ele>
			</trkpt>
			<trkpt lat="49.530137" lon="18.612904">
				<ele>740.000000</ele>
			</trkpt>
			<trkpt lat="49.530195" lon="18.612984">
				<ele>740.000000</ele>
			</trkpt>
			<trkpt lat="49.530265" lon="18.613039">
				<ele>741.000000</ele>
			</trkpt>
			<trkpt lat="49.530405" lon="18.613137">
				<ele>741.000000</ele>
			</trkpt>
			<trkpt lat="49.530492" lon="18.613183">
				<ele>740.000000</ele>
			</trkpt>
			<trkpt lat="49.530574" lon="18.613246">
				<ele>740.000000</ele>
			</trkpt>
			<trkpt lat="49.530644" lon="18.613317">
				<ele>741.000000</ele>
			</trkpt>
			<trkpt lat="49.530697" lon="18.613389">
				<ele>741.000000</ele>
			</trkpt>
			<trkpt lat="49.530749" lon="18.613489">
				<ele>741.000000</ele>
			</trkpt>
			<trkpt lat="49.530808" lon="18.613623">
				<ele>741.000000</ele>
			</trkpt>
			<trkpt lat="49.530854" lon="18.613749">
				<ele>742.000000</ele>
			</trkpt>
			<trkpt lat="49.530895" lon="18.613902">
				<ele>741.000000</ele>
			</trkpt>
			<trkpt lat="49.530959" lon="18.614152">
				<ele>740.000000</ele>
			</trkpt>
			<trkpt lat="49.531105" lon="18.614772">
				<ele>739.000000</ele>
			</trkpt>
			<trkpt lat="49.531152" lon="18.614970">
				<ele>739.000000</ele>
			</trkpt>
			<trkpt lat="49.531221" lon="18.615186">
				<ele>738.000000</ele>
			</trkpt>
			<trkpt lat="49.531274" lon="18.615311">
				<ele>738.000000</ele>
			</trkpt>
			<trkpt lat="49.531332" lon="18.615410">
				<ele>738.000000</ele>
			</trkpt>
			<trkpt lat="49.531402" lon="18.615500">
				<ele>738.000000</ele>
			</trkpt>
			<trkpt lat="49.531490" lon="18.615581">
				<ele>737.000000</ele>
			</trkpt>
			<trkpt lat="49.531606" lon="18.615644">
				<ele>737.000000</ele>
			</trkpt>
			<trkpt lat="49.531851" lon="18.615787">
				<ele>736.000000</ele>
			</trkpt>
			<trkpt lat="49.531968" lon="18.615877">
				<ele>735.000000</ele>
			</trkpt>
			<trkpt lat="49.532020" lon="18.615949">
				<ele>736.000000</ele>
			</trkpt>
			<trkpt lat="49.532061" lon="18.616021">
				<ele>736.000000</ele>
			</trkpt>
			<trkpt lat="49.532084" lon="18.616139">
				<ele>736.000000</ele>
			</trkpt>
			<trkpt lat="49.532090" lon="18.616228">
				<ele>736.000000</ele>
			</trkpt>
			<trkpt lat="49.532102" lon="18.616704">
				<ele>735.000000</ele>
			</trkpt>
			<trkpt lat="49.532125" lon="18.616856">
				<ele>735.000000</ele>
			</trkpt>
			<trkpt lat="49.532149" lon="18.617009">
				<ele>734.000000</ele>
			</trkpt>
			<trkpt lat="49.532178" lon="18.617152">
				<ele>734.000000</ele>
			</trkpt>
			<trkpt lat="49.532230" lon="18.617288">
				<ele>733.000000</ele>
			</trkpt>
			<trkpt lat="49.532288" lon="18.617450">
				<ele>732.000000</ele>
			</trkpt>
			<trkpt lat="49.532359" lon="18.617567">
				<ele>732.000000</ele>
			</trkpt>
			<trkpt lat="49.532545" lon="18.617907">
				<ele>731.000000</ele>
			</trkpt>
			<trkpt lat="49.532662" lon="18.618141">
				<ele>729.000000</ele>
			</trkpt>
			<trkpt lat="49.532755" lon="18.618339">
				<ele>728.000000</ele>
			</trkpt>
			<trkpt lat="49.532831" lon="18.618536">
				<ele>727.000000</ele>
			</trkpt>
			<trkpt lat="49.532883" lon="18.618734">
				<ele>727.000000</ele>
			</trkpt>
			<trkpt lat="49.532924" lon="18.618959">
				<ele>727.000000</ele>
			</trkpt>
			<trkpt lat="49.532941" lon="18.619210">
				<ele>726.000000</ele>
			</trkpt>
			<trkpt lat="49.532947" lon="18.619444">
				<ele>724.000000</ele>
			</trkpt>
			<trkpt lat="49.532906" lon="18.620881">
				<ele>716.000000</ele>
			</trkpt>
			<trkpt lat="49.532918" lon="18.621186">
				<ele>715.000000</ele>
			</trkpt>
			<trkpt lat="49.532924" lon="18.621519">
				<ele>713.000000</ele>
			</trkpt>
			<trkpt lat="49.532947" lon="18.621852">
				<ele>712.000000</ele>
			</trkpt>
			<trkpt lat="49.532988" lon="18.622129">
				<ele>711.000000</ele>
			</trkpt>
			<trkpt lat="49.533041" lon="18.622372">
				<ele>709.000000</ele>
			</trkpt>
			<trkpt lat="49.533116" lon="18.622597">
				<ele>707.000000</ele>
			</trkpt>
			<trkpt lat="49.533250" lon="18.622894">
				<ele>706.000000</ele>
			</trkpt>
			<trkpt lat="49.533413" lon="18.623198">
				<ele>706.000000</ele>
			</trkpt>
			<trkpt lat="49.533478" lon="18.623297">
				<ele>706.000000</ele>
			</trkpt>
			<trkpt lat="49.533565" lon="18.623387">
				<ele>705.000000</ele>
			</trkpt>
			<trkpt lat="49.533664" lon="18.623450">
				<ele>704.000000</ele>
			</trkpt>
			<trkpt lat="49.533711" lon="18.623441">
				<ele>704.000000</ele>
			</trkpt>
			<trkpt lat="49.533757" lon="18.623406">
				<ele>703.000000</ele>
			</trkpt>
			<trkpt lat="49.533787" lon="18.623334">
				<ele>703.000000</ele>
			</trkpt>
			<trkpt lat="49.533798" lon="18.623244">
				<ele>702.000000</ele>
			</trkpt>
			<trkpt lat="49.533839" lon="18.622452">
				<ele>700.000000</ele>
			</trkpt>
			<trkpt lat="49.533863" lon="18.622058">
				<ele>699.000000</ele>
			</trkpt>
			<trkpt lat="49.533909" lon="18.621645">
				<ele>697.000000</ele>
			</trkpt>
			<trkpt lat="49.533985" lon="18.621223">
				<ele>695.000000</ele>
			</trkpt>
			<trkpt lat="49.534084" lon="18.620666">
				<ele>695.000000</ele>
			</trkpt>
			<trkpt lat="49.534119" lon="18.620513">
				<ele>695.000000</ele>
			</trkpt>
			<trkpt lat="49.534154" lon="18.620397">
				<ele>695.000000</ele>
			</trkpt>
			<trkpt lat="49.534195" lon="18.620288">
				<ele>694.000000</ele>
			</trkpt>
			<trkpt lat="49.534241" lon="18.620181">
				<ele>694.000000</ele>
			</trkpt>
			<trkpt lat="49.534311" lon="18.620072">
				<ele>693.000000</ele>
			</trkpt>
			<trkpt lat="49.534387" lon="18.619965">
				<ele>693.000000</ele>
			</trkpt>
			<trkpt lat="49.534423" lon="18.619947">
				<ele>692.000000</ele>
			</trkpt>
			<trkpt lat="49.534469" lon="18.619929">
				<ele>692.000000</ele>
			</trkpt>
			<trkpt lat="49.534516" lon="18.619938">
				<ele>692.000000</ele>
			</trkpt>
			<trkpt lat="49.534568" lon="18.619955">
				<ele>692.000000</ele>
			</trkpt>
			<trkpt lat="49.534609" lon="18.620001">
				<ele>693.000000</ele>
			</trkpt>
			<trkpt lat="49.534632" lon="18.620055">
				<ele>693.000000</ele>
			</trkpt>
			<trkpt lat="49.534661" lon="18.620108">
				<ele>693.000000</ele>
			</trkpt>
			<trkpt lat="49.534667" lon="18.620171">
				<ele>693.000000</ele>
			</trkpt>
			<trkpt lat="49.534661" lon="18.620557">
				<ele>693.000000</ele>
			</trkpt>
			<trkpt lat="49.534679" lon="18.620710">
				<ele>692.000000</ele>
			</trkpt>
			<trkpt lat="49.534702" lon="18.620818">
				<ele>692.000000</ele>
			</trkpt>
			<trkpt lat="49.534743" lon="18.620934">
				<ele>692.000000</ele>
			</trkpt>
			<trkpt lat="49.534801" lon="18.621052">
				<ele>692.000000</ele>
			</trkpt>
			<trkpt lat="49.534929" lon="18.621249">
				<ele>691.000000</ele>
			</trkpt>
			<trkpt lat="49.535070" lon="18.621465">
				<ele>690.000000</ele>
			</trkpt>
			<trkpt lat="49.535128" lon="18.621546">
				<ele>690.000000</ele>
			</trkpt>
			<trkpt lat="49.535198" lon="18.621626">
				<ele>690.000000</ele>
			</trkpt>
			<trkpt lat="49.535209" lon="18.621519">
				<ele>691.000000</ele>
			</trkpt>
			<trkpt lat="49.535221" lon="18.621456">
				<ele>693.000000</ele>
			</trkpt>
			<trkpt lat="49.535256" lon="18.621402">
				<ele>695.000000</ele>
			</trkpt>
			<trkpt lat="49.535297" lon="18.621366">
				<ele>697.000000</ele>
			</trkpt>
			<trkpt lat="49.535402" lon="18.621294">
				<ele>700.000000</ele>
			</trkpt>
			<trkpt lat="49.535402" lon="18.621294">
				<ele>700.000000</ele>
			</trkpt>
			<trkpt lat="49.535460" lon="18.621249">
				<ele>701.000000</ele>
			</trkpt>
			<trkpt lat="49.535611" lon="18.621123">
				<ele>704.000000</ele>
			</trkpt>
			<trkpt lat="49.536083" lon="18.620657">
				<ele>714.000000</ele>
			</trkpt>
			<trkpt lat="49.536224" lon="18.620531">
				<ele>716.000000</ele>
			</trkpt>
			<trkpt lat="49.536305" lon="18.620423">
				<ele>718.000000</ele>
			</trkpt>
			<trkpt lat="49.536381" lon="18.620307">
				<ele>720.000000</ele>
			</trkpt>
			<trkpt lat="49.536457" lon="18.620144">
				<ele>722.000000</ele>
			</trkpt>
			<trkpt lat="49.536533" lon="18.620018">
				<ele>724.000000</ele>
			</trkpt>
			<trkpt lat="49.536620" lon="18.619865">
				<ele>729.000000</ele>
			</trkpt>
			<trkpt lat="49.536853" lon="18.619542">
				<ele>736.000000</ele>
			</trkpt>
			<trkpt lat="49.537022" lon="18.619309">
				<ele>741.000000</ele>
			</trkpt>
			<trkpt lat="49.537075" lon="18.619210">
				<ele>743.000000</ele>
			</trkpt>
			<trkpt lat="49.537122" lon="18.619093">
				<ele>746.000000</ele>
			</trkpt>
			<trkpt lat="49.537180" lon="18.618913">
				<ele>751.000000</ele>
			</trkpt>
			<trkpt lat="49.537290" lon="18.618536">
				<ele>759.000000</ele>
			</trkpt>
			<trkpt lat="49.537314" lon="18.618456">
				<ele>761.000000</ele>
			</trkpt>
			<trkpt lat="49.537308" lon="18.618384">
				<ele>763.000000</ele>
			</trkpt>
			<trkpt lat="49.537290" lon="18.618312">
				<ele>764.000000</ele>
			</trkpt>
			<trkpt lat="49.537256" lon="18.618257">
				<ele>765.000000</ele>
			</trkpt>
			<trkpt lat="49.537022" lon="18.618016">
				<ele>768.000000</ele>
			</trkpt>
			<trkpt lat="49.536953" lon="18.617944">
				<ele>768.000000</ele>
			</trkpt>
			<trkpt lat="49.536918" lon="18.617898">
				<ele>769.000000</ele>
			</trkpt>
			<trkpt lat="49.536888" lon="18.617844">
				<ele>769.000000</ele>
			</trkpt>
			<trkpt lat="49.536882" lon="18.617773">
				<ele>771.000000</ele>
			</trkpt>
			<trkpt lat="49.536912" lon="18.617665">
				<ele>774.000000</ele>
			</trkpt>
			<trkpt lat="49.536970" lon="18.617531">
				<ele>778.000000</ele>
			</trkpt>
			<trkpt lat="49.537057" lon="18.617395">
				<ele>782.000000</ele>
			</trkpt>
			<trkpt lat="49.537197" lon="18.617215">
				<ele>789.000000</ele>
			</trkpt>
			<trkpt lat="49.537360" lon="18.617009">
				<ele>795.000000</ele>
			</trkpt>
			<trkpt lat="49.537489" lon="18.616794">
				<ele>800.000000</ele>
			</trkpt>
			<trkpt lat="49.537611" lon="18.616586">
				<ele>805.000000</ele>
			</trkpt>
			<trkpt lat="49.537728" lon="18.616372">
				<ele>810.000000</ele>
			</trkpt>
			<trkpt lat="49.537833" lon="18.616147">
				<ele>814.000000</ele>
			</trkpt>
			<trkpt lat="49.537944" lon="18.615860">
				<ele>819.000000</ele>
			</trkpt>
			<trkpt lat="49.538048" lon="18.615563">
				<ele>824.000000</ele>
			</trkpt>
			<trkpt lat="49.538153" lon="18.615231">
				<ele>827.000000</ele>
			</trkpt>
			<trkpt lat="49.538282" lon="18.614871">
				<ele>825.000000</ele>
			</trkpt>
			<trkpt lat="49.538282" lon="18.614871">
				<ele>825.000000</ele>
			</trkpt>
			<trkpt lat="49.538316" lon="18.614772">
				<ele>824.000000</ele>
			</trkpt>
			<trkpt lat="49.538386" lon="18.614620">
				<ele>822.000000</ele>
			</trkpt>
			<trkpt lat="49.538474" lon="18.614476">
				<ele>821.000000</ele>
			</trkpt>
			<trkpt lat="49.538596" lon="18.614305">
				<ele>820.000000</ele>
			</trkpt>
			<trkpt lat="49.538736" lon="18.614126">
				<ele>819.000000</ele>
			</trkpt>
			<trkpt lat="49.538894" lon="18.613902">
				<ele>817.000000</ele>
			</trkpt>
			<trkpt lat="49.539016" lon="18.613703">
				<ele>815.000000</ele>
			</trkpt>
			<trkpt lat="49.539132" lon="18.613460">
				<ele>813.000000</ele>
			</trkpt>
			<trkpt lat="49.539319" lon="18.613047">
				<ele>810.000000</ele>
			</trkpt>
			<trkpt lat="49.539395" lon="18.612868">
				<ele>809.000000</ele>
			</trkpt>
			<trkpt lat="49.539483" lon="18.612724">
				<ele>808.000000</ele>
			</trkpt>
			<trkpt lat="49.539558" lon="18.612590">
				<ele>806.000000</ele>
			</trkpt>
			<trkpt lat="49.539651" lon="18.612491">
				<ele>805.000000</ele>
			</trkpt>
			<trkpt lat="49.539838" lon="18.612294">
				<ele>803.000000</ele>
			</trkpt>
			<trkpt lat="49.540305" lon="18.611889">
				<ele>798.000000</ele>
			</trkpt>
			<trkpt lat="49.540398" lon="18.611844">
				<ele>797.000000</ele>
			</trkpt>
			<trkpt lat="49.540502" lon="18.611763">
				<ele>797.000000</ele>
			</trkpt>
			<trkpt lat="49.540584" lon="18.611674">
				<ele>796.000000</ele>
			</trkpt>
			<trkpt lat="49.540660" lon="18.611565">
				<ele>795.000000</ele>
			</trkpt>
			<trkpt lat="49.540736" lon="18.611466">
				<ele>794.000000</ele>
			</trkpt>
			<trkpt lat="49.540799" lon="18.611305">
				<ele>792.000000</ele>
			</trkpt>
			<trkpt lat="49.540951" lon="18.610928">
				<ele>790.000000</ele>
			</trkpt>
			<trkpt lat="49.541015" lon="18.610739">
				<ele>788.000000</ele>
			</trkpt>
			<trkpt lat="49.541143" lon="18.610487">
				<ele>784.000000</ele>
			</trkpt>
			<trkpt lat="49.541307" lon="18.610120">
				<ele>783.000000</ele>
			</trkpt>
			<trkpt lat="49.541453" lon="18.609787">
				<ele>784.000000</ele>
			</trkpt>
			<trkpt lat="49.541791" lon="18.608942">
				<ele>783.000000</ele>
			</trkpt>
			<trkpt lat="49.541937" lon="18.608610">
				<ele>779.000000</ele>
			</trkpt>
			<trkpt lat="49.541972" lon="18.608512">
				<ele>778.000000</ele>
			</trkpt>
			<trkpt lat="49.541989" lon="18.608403">
				<ele>776.000000</ele>
			</trkpt>
			<trkpt lat="49.542047" lon="18.607703">
				<ele>768.000000</ele>
			</trkpt>
			<trkpt lat="49.542059" lon="18.607631">
				<ele>767.000000</ele>
			</trkpt>
			<trkpt lat="49.542076" lon="18.607577">
				<ele>767.000000</ele>
			</trkpt>
			<trkpt lat="49.542117" lon="18.607533">
				<ele>766.000000</ele>
			</trkpt>
			<trkpt lat="49.542152" lon="18.607505">
				<ele>765.000000</ele>
			</trkpt>
			<trkpt lat="49.542280" lon="18.607487">
				<ele>762.000000</ele>
			</trkpt>
			<trkpt lat="49.542344" lon="18.607478">
				<ele>759.000000</ele>
			</trkpt>
			<trkpt lat="49.542391" lon="18.607433">
				<ele>757.000000</ele>
			</trkpt>
			<trkpt lat="49.542426" lon="18.607370">
				<ele>756.000000</ele>
			</trkpt>
			<trkpt lat="49.542450" lon="18.607263">
				<ele>756.000000</ele>
			</trkpt>
			<trkpt lat="49.542461" lon="18.607137">
				<ele>755.000000</ele>
			</trkpt>
			<trkpt lat="49.542455" lon="18.606984">
				<ele>754.000000</ele>
			</trkpt>
			<trkpt lat="49.542438" lon="18.606795">
				<ele>754.000000</ele>
			</trkpt>
			<trkpt lat="49.542397" lon="18.606598">
				<ele>754.000000</ele>
			</trkpt>
			<trkpt lat="49.542333" lon="18.606284">
				<ele>751.000000</ele>
			</trkpt>
			<trkpt lat="49.542280" lon="18.606076">
				<ele>748.000000</ele>
			</trkpt>
			<trkpt lat="49.542204" lon="18.605906">
				<ele>743.000000</ele>
			</trkpt>
			<trkpt lat="49.542117" lon="18.605762">
				<ele>740.000000</ele>
			</trkpt>
			<trkpt lat="49.542059" lon="18.605682">
				<ele>740.000000</ele>
			</trkpt>
			<trkpt lat="49.541989" lon="18.605610">
				<ele>738.000000</ele>
			</trkpt>
			<trkpt lat="49.541937" lon="18.605565">
				<ele>737.000000</ele>
			</trkpt>
			<trkpt lat="49.541844" lon="18.605493">
				<ele>734.000000</ele>
			</trkpt>
			<trkpt lat="49.541844" lon="18.605493">
				<ele>734.000000</ele>
			</trkpt>
			<trkpt lat="49.541616" lon="18.605331">
				<ele>727.000000</ele>
			</trkpt>
			<trkpt lat="49.540858" lon="18.604820">
				<ele>704.000000</ele>
			</trkpt>
			<trkpt lat="49.540782" lon="18.604747">
				<ele>701.000000</ele>
			</trkpt>
			<trkpt lat="49.540712" lon="18.604711">
				<ele>699.000000</ele>
			</trkpt>
			<trkpt lat="49.540631" lon="18.604711">
				<ele>698.000000</ele>
			</trkpt>
			<trkpt lat="49.540496" lon="18.604711">
				<ele>694.000000</ele>
			</trkpt>
			<trkpt lat="49.540398" lon="18.604703">
				<ele>691.000000</ele>
			</trkpt>
			<trkpt lat="49.540327" lon="18.604684">
				<ele>689.000000</ele>
			</trkpt>
			<trkpt lat="49.540176" lon="18.604567">
				<ele>684.000000</ele>
			</trkpt>
			<trkpt lat="49.540188" lon="18.604478">
				<ele>683.000000</ele>
			</trkpt>
			<trkpt lat="49.540217" lon="18.604397">
				<ele>682.000000</ele>
			</trkpt>
			<trkpt lat="49.540305" lon="18.604191">
				<ele>681.000000</ele>
			</trkpt>
			<trkpt lat="49.540333" lon="18.604118">
				<ele>680.000000</ele>
			</trkpt>
			<trkpt lat="49.540333" lon="18.604118">
				<ele>680.000000</ele>
			</trkpt>
			<trkpt lat="49.540362" lon="18.604065">
				<ele>680.000000</ele>
			</trkpt>
			<trkpt lat="49.540409" lon="18.603948">
				<ele>680.000000</ele>
			</trkpt>
			<trkpt lat="49.540444" lon="18.603812">
				<ele>680.000000</ele>
			</trkpt>
			<trkpt lat="49.540468" lon="18.603661">
				<ele>680.000000</ele>
			</trkpt>
			<trkpt lat="49.540491" lon="18.603409">
				<ele>679.000000</ele>
			</trkpt>
			<trkpt lat="49.540549" lon="18.603005">
				<ele>677.000000</ele>
			</trkpt>
			<trkpt lat="49.540572" lon="18.602833">
				<ele>676.000000</ele>
			</trkpt>
			<trkpt lat="49.540613" lon="18.602690">
				<ele>675.000000</ele>
			</trkpt>
			<trkpt lat="49.540654" lon="18.602537">
				<ele>675.000000</ele>
			</trkpt>
			<trkpt lat="49.540712" lon="18.602367">
				<ele>676.000000</ele>
			</trkpt>
			<trkpt lat="49.540870" lon="18.601971">
				<ele>673.000000</ele>
			</trkpt>
			<trkpt lat="49.540957" lon="18.601757">
				<ele>672.000000</ele>
			</trkpt>
			<trkpt lat="49.541027" lon="18.601567">
				<ele>671.000000</ele>
			</trkpt>
			<trkpt lat="49.541085" lon="18.601378">
				<ele>671.000000</ele>
			</trkpt>
			<trkpt lat="49.541143" lon="18.601191">
				<ele>671.000000</ele>
			</trkpt>
			<trkpt lat="49.541173" lon="18.601082">
				<ele>671.000000</ele>
			</trkpt>
			<trkpt lat="49.541202" lon="18.600992">
				<ele>670.000000</ele>
			</trkpt>
			<trkpt lat="49.541260" lon="18.600866">
				<ele>670.000000</ele>
			</trkpt>
			<trkpt lat="49.541312" lon="18.600759">
				<ele>669.000000</ele>
			</trkpt>
			<trkpt lat="49.541342" lon="18.600642">
				<ele>668.000000</ele>
			</trkpt>
			<trkpt lat="49.541365" lon="18.600507">
				<ele>668.000000</ele>
			</trkpt>
			<trkpt lat="49.541371" lon="18.600273">
				<ele>666.000000</ele>
			</trkpt>
			<trkpt lat="49.541383" lon="18.600103">
				<ele>666.000000</ele>
			</trkpt>
			<trkpt lat="49.541400" lon="18.599996">
				<ele>666.000000</ele>
			</trkpt>
			<trkpt lat="49.541418" lon="18.599887">
				<ele>665.000000</ele>
			</trkpt>
			<trkpt lat="49.541459" lon="18.599789">
				<ele>665.000000</ele>
			</trkpt>
			<trkpt lat="49.541534" lon="18.599573">
				<ele>665.000000</ele>
			</trkpt>
			<trkpt lat="49.541587" lon="18.599348">
				<ele>665.000000</ele>
			</trkpt>
			<trkpt lat="49.541616" lon="18.599124">
				<ele>663.000000</ele>
			</trkpt>
			<trkpt lat="49.541639" lon="18.598675">
				<ele>663.000000</ele>
			</trkpt>
			<trkpt lat="49.541680" lon="18.598162">
				<ele>662.000000</ele>
			</trkpt>
			<trkpt lat="49.541692" lon="18.598009">
				<ele>662.000000</ele>
			</trkpt>
			<trkpt lat="49.541727" lon="18.597830">
				<ele>660.000000</ele>
			</trkpt>
			<trkpt lat="49.541808" lon="18.597533">
				<ele>660.000000</ele>
			</trkpt>
			<trkpt lat="49.541884" lon="18.597309">
				<ele>659.000000</ele>
			</trkpt>
			<trkpt lat="49.541983" lon="18.597094">
				<ele>659.000000</ele>
			</trkpt>
			<trkpt lat="49.542135" lon="18.596843">
				<ele>658.000000</ele>
			</trkpt>
			<trkpt lat="49.542251" lon="18.596644">
				<ele>657.000000</ele>
			</trkpt>
			<trkpt lat="49.542333" lon="18.596483">
				<ele>657.000000</ele>
			</trkpt>
			<trkpt lat="49.542403" lon="18.596294">
				<ele>656.000000</ele>
			</trkpt>
			<trkpt lat="49.542473" lon="18.596025">
				<ele>656.000000</ele>
			</trkpt>
			<trkpt lat="49.542496" lon="18.595917">
				<ele>656.000000</ele>
			</trkpt>
			<trkpt lat="49.542508" lon="18.595818">
				<ele>655.000000</ele>
			</trkpt>
			<trkpt lat="49.542525" lon="18.595566">
				<ele>656.000000</ele>
			</trkpt>
			<trkpt lat="49.542531" lon="18.595090">
				<ele>653.000000</ele>
			</trkpt>
			<trkpt lat="49.542537" lon="18.594965">
				<ele>652.000000</ele>
			</trkpt>
			<trkpt lat="49.542554" lon="18.594866">
				<ele>652.000000</ele>
			</trkpt>
			<trkpt lat="49.542584" lon="18.594776">
				<ele>652.000000</ele>
			</trkpt>
			<trkpt lat="49.542624" lon="18.594669">
				<ele>653.000000</ele>
			</trkpt>
			<trkpt lat="49.542729" lon="18.594507">
				<ele>652.000000</ele>
			</trkpt>
			<trkpt lat="49.542957" lon="18.594220">
				<ele>650.000000</ele>
			</trkpt>
			<trkpt lat="49.543102" lon="18.594013">
				<ele>649.000000</ele>
			</trkpt>
			<trkpt lat="49.543154" lon="18.593914">
				<ele>649.000000</ele>
			</trkpt>
			<trkpt lat="49.543201" lon="18.593824">
				<ele>649.000000</ele>
			</trkpt>
			<trkpt lat="49.543230" lon="18.593725">
				<ele>649.000000</ele>
			</trkpt>
			<trkpt lat="49.543260" lon="18.593635">
				<ele>649.000000</ele>
			</trkpt>
			<trkpt lat="49.543295" lon="18.593411">
				<ele>648.000000</ele>
			</trkpt>
			<trkpt lat="49.543318" lon="18.593275">
				<ele>648.000000</ele>
			</trkpt>
			<trkpt lat="49.543347" lon="18.593168">
				<ele>647.000000</ele>
			</trkpt>
			<trkpt lat="49.543388" lon="18.593061">
				<ele>646.000000</ele>
			</trkpt>
			<trkpt lat="49.543493" lon="18.592845">
				<ele>646.000000</ele>
			</trkpt>
			<trkpt lat="49.543627" lon="18.592566">
				<ele>644.000000</ele>
			</trkpt>
			<trkpt lat="49.543895" lon="18.592063">
				<ele>643.000000</ele>
			</trkpt>
			<trkpt lat="49.544029" lon="18.591784">
				<ele>641.000000</ele>
			</trkpt>
			<trkpt lat="49.544076" lon="18.591686">
				<ele>641.000000</ele>
			</trkpt>
			<trkpt lat="49.544122" lon="18.591604">
				<ele>641.000000</ele>
			</trkpt>
			<trkpt lat="49.544291" lon="18.591398">
				<ele>640.000000</ele>
			</trkpt>
			<trkpt lat="49.544355" lon="18.591308">
				<ele>640.000000</ele>
			</trkpt>
			<trkpt lat="49.544641" lon="18.590887">
				<ele>637.000000</ele>
			</trkpt>
			<trkpt lat="49.544711" lon="18.590751">
				<ele>637.000000</ele>
			</trkpt>
			<trkpt lat="49.544787" lon="18.590608">
				<ele>636.000000</ele>
			</trkpt>
			<trkpt lat="49.544880" lon="18.590392">
				<ele>635.000000</ele>
			</trkpt>
			<trkpt lat="49.544968" lon="18.590168">
				<ele>635.000000</ele>
			</trkpt>
			<trkpt lat="49.545277" lon="18.589306">
				<ele>630.000000</ele>
			</trkpt>
			<trkpt lat="49.545375" lon="18.589044">
				<ele>630.000000</ele>
			</trkpt>
			<trkpt lat="49.545422" lon="18.588910">
				<ele>630.000000</ele>
			</trkpt>
			<trkpt lat="49.545498" lon="18.588803">
				<ele>629.000000</ele>
			</trkpt>
			<trkpt lat="49.545580" lon="18.588713">
				<ele>628.000000</ele>
			</trkpt>
			<trkpt lat="49.545656" lon="18.588623">
				<ele>627.000000</ele>
			</trkpt>
			<trkpt lat="49.545743" lon="18.588533">
				<ele>627.000000</ele>
			</trkpt>
			<trkpt lat="49.545795" lon="18.588443">
				<ele>626.000000</ele>
			</trkpt>
			<trkpt lat="49.545853" lon="18.588335">
				<ele>625.000000</ele>
			</trkpt>
			<trkpt lat="49.545929" lon="18.588155">
				<ele>624.000000</ele>
			</trkpt>
			<trkpt lat="49.546116" lon="18.587706">
				<ele>622.000000</ele>
			</trkpt>
			<trkpt lat="49.546221" lon="18.587472">
				<ele>622.000000</ele>
			</trkpt>
			<trkpt lat="49.546466" lon="18.586943">
				<ele>621.000000</ele>
			</trkpt>
			<trkpt lat="49.546763" lon="18.586243">
				<ele>616.000000</ele>
			</trkpt>
			<trkpt lat="49.546961" lon="18.585801">
				<ele>614.000000</ele>
			</trkpt>
			<trkpt lat="49.547170" lon="18.585388">
				<ele>613.000000</ele>
			</trkpt>
			<trkpt lat="49.547386" lon="18.585002">
				<ele>612.000000</ele>
			</trkpt>
			<trkpt lat="49.547736" lon="18.584463">
				<ele>610.000000</ele>
			</trkpt>
			<trkpt lat="49.547812" lon="18.584346">
				<ele>610.000000</ele>
			</trkpt>
			<trkpt lat="49.547899" lon="18.584185">
				<ele>609.000000</ele>
			</trkpt>
			<trkpt lat="49.547958" lon="18.584059">
				<ele>608.000000</ele>
			</trkpt>
			<trkpt lat="49.548016" lon="18.583916">
				<ele>607.000000</ele>
			</trkpt>
			<trkpt lat="49.548127" lon="18.583601">
				<ele>606.000000</ele>
			</trkpt>
			<trkpt lat="49.548267" lon="18.583080">
				<ele>606.000000</ele>
			</trkpt>
			<trkpt lat="49.548360" lon="18.582738">
				<ele>605.000000</ele>
			</trkpt>
			<trkpt lat="49.548406" lon="18.582604">
				<ele>604.000000</ele>
			</trkpt>
			<trkpt lat="49.548465" lon="18.582469">
				<ele>603.000000</ele>
			</trkpt>
			<trkpt lat="49.548640" lon="18.582109">
				<ele>600.000000</ele>
			</trkpt>
			<trkpt lat="49.548774" lon="18.581769">
				<ele>599.000000</ele>
			</trkpt>
			<trkpt lat="49.548896" lon="18.581446">
				<ele>598.000000</ele>
			</trkpt>
			<trkpt lat="49.548995" lon="18.581094">
				<ele>597.000000</ele>
			</trkpt>
			<trkpt lat="49.549065" lon="18.580780">
				<ele>595.000000</ele>
			</trkpt>
			<trkpt lat="49.549118" lon="18.580538">
				<ele>593.000000</ele>
			</trkpt>
			<trkpt lat="49.549164" lon="18.580277">
				<ele>593.000000</ele>
			</trkpt>
			<trkpt lat="49.549222" lon="18.579855">
				<ele>591.000000</ele>
			</trkpt>
			<trkpt lat="49.549281" lon="18.579442">
				<ele>589.000000</ele>
			</trkpt>
			<trkpt lat="49.549362" lon="18.579433">
				<ele>589.000000</ele>
			</trkpt>
			<trkpt lat="49.549444" lon="18.579424">
				<ele>589.000000</ele>
			</trkpt>
			<trkpt lat="49.549444" lon="18.579424">
				<ele>589.000000</ele>
			</trkpt>
			<trkpt lat="49.549484" lon="18.579415">
				<ele>589.000000</ele>
			</trkpt>
			<trkpt lat="49.549613" lon="18.579424">
				<ele>589.000000</ele>
			</trkpt>
			<trkpt lat="49.549735" lon="18.579459">
				<ele>589.000000</ele>
			</trkpt>
			<trkpt lat="49.549969" lon="18.579568">
				<ele>588.000000</ele>
			</trkpt>
			<trkpt lat="49.550050" lon="18.579595">
				<ele>588.000000</ele>
			</trkpt>
			<trkpt lat="49.550108" lon="18.579603">
				<ele>588.000000</ele>
			</trkpt>
			<trkpt lat="49.550172" lon="18.579595">
				<ele>588.000000</ele>
			</trkpt>
			<trkpt lat="49.550236" lon="18.579568">
				<ele>587.000000</ele>
			</trkpt>
			<trkpt lat="49.550487" lon="18.579325">
				<ele>585.000000</ele>
			</trkpt>
			<trkpt lat="49.550551" lon="18.579262">
				<ele>583.000000</ele>
			</trkpt>
			<trkpt lat="49.550604" lon="18.579182">
				<ele>586.000000</ele>
			</trkpt>
			<trkpt lat="49.550638" lon="18.579100">
				<ele>586.000000</ele>
			</trkpt>
			<trkpt lat="49.550679" lon="18.579010">
				<ele>586.000000</ele>
			</trkpt>
			<trkpt lat="49.550837" lon="18.578463">
				<ele>586.000000</ele>
			</trkpt>
			<trkpt lat="49.550907" lon="18.578247">
				<ele>586.000000</ele>
			</trkpt>
			<trkpt lat="49.550989" lon="18.578085">
				<ele>587.000000</ele>
			</trkpt>
			<trkpt lat="49.551041" lon="18.577968">
				<ele>586.000000</ele>
			</trkpt>
			<trkpt lat="49.551052" lon="18.577951">
				<ele>586.000000</ele>
			</trkpt>
			<trkpt lat="49.551052" lon="18.577951">
				<ele>586.000000</ele>
			</trkpt>
			<trkpt lat="49.551099" lon="18.577878">
				<ele>586.000000</ele>
			</trkpt>
			<trkpt lat="49.551221" lon="18.577717">
				<ele>585.000000</ele>
			</trkpt>
			<trkpt lat="49.551373" lon="18.577591">
				<ele>584.000000</ele>
			</trkpt>
			<trkpt lat="49.551676" lon="18.577367">
				<ele>583.000000</ele>
			</trkpt>
			<trkpt lat="49.551915" lon="18.577178">
				<ele>581.000000</ele>
			</trkpt>
			<trkpt lat="49.552375" lon="18.576765">
				<ele>577.000000</ele>
			</trkpt>
			<trkpt lat="49.552515" lon="18.576648">
				<ele>575.000000</ele>
			</trkpt>
			<trkpt lat="49.552661" lon="18.576540">
				<ele>575.000000</ele>
			</trkpt>
			<trkpt lat="49.553471" lon="18.576001">
				<ele>573.000000</ele>
			</trkpt>
			<trkpt lat="49.553838" lon="18.575740">
				<ele>572.000000</ele>
			</trkpt>
			<trkpt lat="49.553966" lon="18.575624">
				<ele>571.000000</ele>
			</trkpt>
			<trkpt lat="49.554083" lon="18.575480">
				<ele>571.000000</ele>
			</trkpt>
			<trkpt lat="49.554176" lon="18.575337">
				<ele>571.000000</ele>
			</trkpt>
			<trkpt lat="49.554270" lon="18.575103">
				<ele>571.000000</ele>
			</trkpt>
			<trkpt lat="49.554322" lon="18.575040">
				<ele>571.000000</ele>
			</trkpt>
			<trkpt lat="49.554357" lon="18.574977">
				<ele>571.000000</ele>
			</trkpt>
			<trkpt lat="49.554403" lon="18.574941">
				<ele>570.000000</ele>
			</trkpt>
			<trkpt lat="49.554450" lon="18.574914">
				<ele>569.000000</ele>
			</trkpt>
			<trkpt lat="49.554532" lon="18.574888">
				<ele>570.000000</ele>
			</trkpt>
			<trkpt lat="49.554595" lon="18.574851">
				<ele>571.000000</ele>
			</trkpt>
			<trkpt lat="49.555324" lon="18.573980">
				<ele>568.000000</ele>
			</trkpt>
			<trkpt lat="49.555452" lon="18.573855">
				<ele>568.000000</ele>
			</trkpt>
			<trkpt lat="49.555732" lon="18.573620">
				<ele>567.000000</ele>
			</trkpt>
			<trkpt lat="49.555854" lon="18.573495">
				<ele>567.000000</ele>
			</trkpt>
			<trkpt lat="49.555983" lon="18.573297">
				<ele>567.000000</ele>
			</trkpt>
			<trkpt lat="49.556081" lon="18.573109">
				<ele>566.000000</ele>
			</trkpt>
			<trkpt lat="49.556157" lon="18.572920">
				<ele>565.000000</ele>
			</trkpt>
			<trkpt lat="49.556239" lon="18.572668">
				<ele>565.000000</ele>
			</trkpt>
			<trkpt lat="49.556332" lon="18.572247">
				<ele>566.000000</ele>
			</trkpt>
			<trkpt lat="49.556484" lon="18.571419">
				<ele>566.000000</ele>
			</trkpt>
			<trkpt lat="49.556542" lon="18.571150">
				<ele>565.000000</ele>
			</trkpt>
			<trkpt lat="49.556606" lon="18.570890">
				<ele>563.000000</ele>
			</trkpt>
			<trkpt lat="49.556915" lon="18.569964">
				<ele>562.000000</ele>
			</trkpt>
			<trkpt lat="49.557026" lon="18.569614">
				<ele>561.000000</ele>
			</trkpt>
			<trkpt lat="49.557212" lon="18.569031">
				<ele>559.000000</ele>
			</trkpt>
			<trkpt lat="49.557253" lon="18.568895">
				<ele>558.000000</ele>
			</trkpt>
			<trkpt lat="49.557282" lon="18.568761">
				<ele>557.000000</ele>
			</trkpt>
			<trkpt lat="49.557329" lon="18.568582">
				<ele>557.000000</ele>
			</trkpt>
			<trkpt lat="49.557387" lon="18.568366">
				<ele>557.000000</ele>
			</trkpt>
			<trkpt lat="49.557469" lon="18.568123">
				<ele>557.000000</ele>
			</trkpt>
			<trkpt lat="49.557585" lon="18.567827">
				<ele>556.000000</ele>
			</trkpt>
			<trkpt lat="49.557713" lon="18.567450">
				<ele>556.000000</ele>
			</trkpt>
			<trkpt lat="49.557859" lon="18.567018">
				<ele>555.000000</ele>
			</trkpt>
			<trkpt lat="49.557958" lon="18.566695">
				<ele>554.000000</ele>
			</trkpt>
			<trkpt lat="49.558034" lon="18.566389">
				<ele>554.000000</ele>
			</trkpt>
			<trkpt lat="49.558098" lon="18.565922">
				<ele>553.000000</ele>
			</trkpt>
			<trkpt lat="49.558145" lon="18.565679">
				<ele>552.000000</ele>
			</trkpt>
			<trkpt lat="49.558197" lon="18.565186">
				<ele>552.000000</ele>
			</trkpt>
			<trkpt lat="49.558220" lon="18.565006">
				<ele>552.000000</ele>
			</trkpt>
			<trkpt lat="49.558261" lon="18.564764">
				<ele>552.000000</ele>
			</trkpt>
			<trkpt lat="49.558267" lon="18.564737">
				<ele>552.000000</ele>
			</trkpt>
			<trkpt lat="49.558267" lon="18.564737">
				<ele>552.000000</ele>
			</trkpt>
			<trkpt lat="49.558284" lon="18.564628">
				<ele>552.000000</ele>
			</trkpt>
			<trkpt lat="49.558290" lon="18.564485">
				<ele>552.000000</ele>
			</trkpt>
			<trkpt lat="49.558284" lon="18.564332">
				<ele>552.000000</ele>
			</trkpt>
			<trkpt lat="49.558208" lon="18.563523">
				<ele>550.000000</ele>
			</trkpt>
			<trkpt lat="49.558127" lon="18.562446">
				<ele>546.000000</ele>
			</trkpt>
			<trkpt lat="49.558110" lon="18.562203">
				<ele>546.000000</ele>
			</trkpt>
			<trkpt lat="49.558104" lon="18.562024">
				<ele>546.000000</ele>
			</trkpt>
			<trkpt lat="49.558110" lon="18.561861">
				<ele>546.000000</ele>
			</trkpt>
			<trkpt lat="49.558121" lon="18.561700">
				<ele>546.000000</ele>
			</trkpt>
			<trkpt lat="49.558139" lon="18.561529">
				<ele>546.000000</ele>
			</trkpt>
			<trkpt lat="49.558168" lon="18.561368">
				<ele>545.000000</ele>
			</trkpt>
			<trkpt lat="49.558261" lon="18.560945">
				<ele>545.000000</ele>
			</trkpt>
			<trkpt lat="49.558541" lon="18.559859">
				<ele>544.000000</ele>
			</trkpt>
			<trkpt lat="49.558762" lon="18.558987">
				<ele>543.000000</ele>
			</trkpt>
			<trkpt lat="49.558995" lon="18.558179">
				<ele>542.000000</ele>
			</trkpt>
			<trkpt lat="49.559310" lon="18.557064">
				<ele>540.000000</ele>
			</trkpt>
			<trkpt lat="49.559397" lon="18.556777">
				<ele>540.000000</ele>
			</trkpt>
			<trkpt lat="49.559525" lon="18.556471">
				<ele>539.000000</ele>
			</trkpt>
			<trkpt lat="49.559817" lon="18.555834">
				<ele>538.000000</ele>
			</trkpt>
			<trkpt lat="49.560452" lon="18.554441">
				<ele>534.000000</ele>
			</trkpt>
			<trkpt lat="49.560586" lon="18.554154">
				<ele>534.000000</ele>
			</trkpt>
			<trkpt lat="49.560779" lon="18.553787">
				<ele>533.000000</ele>
			</trkpt>
			<trkpt lat="49.560942" lon="18.553364">
				<ele>533.000000</ele>
			</trkpt>
			<trkpt lat="49.561081" lon="18.552986">
				<ele>532.000000</ele>
			</trkpt>
			<trkpt lat="49.561530" lon="18.551558">
				<ele>529.000000</ele>
			</trkpt>
			<trkpt lat="49.561839" lon="18.550605">
				<ele>527.000000</ele>
			</trkpt>
			<trkpt lat="49.561338" lon="18.550571">
				<ele>527.000000</ele>
			</trkpt>
		</trkseg>
	</trk>
</gpx>

