<?xml version="1.0" encoding="utf-8"?>
<gpx xmlns="http://www.topografix.com/GPX/1/1" version="1.1" creator="https://mapy.cz/">
	<trk>
		<name>04_Visalaje - Staré Hamry</name>
		<trkseg>
			<trkpt lat="49.517810" lon="18.528363">
				<ele>776.000000</ele>
			</trkpt>
			<trkpt lat="49.517460" lon="18.528319">
				<ele>776.000000</ele>
			</trkpt>
			<trkpt lat="49.517016" lon="18.528202">
				<ele>779.000000</ele>
			</trkpt>
			<trkpt lat="49.516853" lon="18.528157">
				<ele>780.000000</ele>
			</trkpt>
			<trkpt lat="49.516731" lon="18.528112">
				<ele>780.000000</ele>
			</trkpt>
			<trkpt lat="49.516603" lon="18.528094">
				<ele>781.000000</ele>
			</trkpt>
			<trkpt lat="49.516497" lon="18.528103">
				<ele>781.000000</ele>
			</trkpt>
			<trkpt lat="49.516398" lon="18.528121">
				<ele>780.000000</ele>
			</trkpt>
			<trkpt lat="49.516300" lon="18.528166">
				<ele>779.000000</ele>
			</trkpt>
			<trkpt lat="49.516188" lon="18.528247">
				<ele>778.000000</ele>
			</trkpt>
			<trkpt lat="49.516101" lon="18.528319">
				<ele>777.000000</ele>
			</trkpt>
			<trkpt lat="49.515815" lon="18.528606">
				<ele>773.000000</ele>
			</trkpt>
			<trkpt lat="49.515628" lon="18.528741">
				<ele>771.000000</ele>
			</trkpt>
			<trkpt lat="49.515459" lon="18.528858">
				<ele>769.000000</ele>
			</trkpt>
			<trkpt lat="49.515238" lon="18.528921">
				<ele>768.000000</ele>
			</trkpt>
			<trkpt lat="49.514893" lon="18.528975">
				<ele>765.000000</ele>
			</trkpt>
			<trkpt lat="49.514707" lon="18.528992">
				<ele>765.000000</ele>
			</trkpt>
			<trkpt lat="49.514544" lon="18.529046">
				<ele>765.000000</ele>
			</trkpt>
			<trkpt lat="49.514398" lon="18.529155">
				<ele>766.000000</ele>
			</trkpt>
			<trkpt lat="49.514275" lon="18.529262">
				<ele>766.000000</ele>
			</trkpt>
			<trkpt lat="49.514147" lon="18.529405">
				<ele>767.000000</ele>
			</trkpt>
			<trkpt lat="49.514002" lon="18.529541">
				<ele>768.000000</ele>
			</trkpt>
			<trkpt lat="49.514002" lon="18.529541">
				<ele>768.000000</ele>
			</trkpt>
			<trkpt lat="49.513995" lon="18.529549">
				<ele>768.000000</ele>
			</trkpt>
			<trkpt lat="49.513792" lon="18.529711">
				<ele>770.000000</ele>
			</trkpt>
			<trkpt lat="49.513418" lon="18.529963">
				<ele>774.000000</ele>
			</trkpt>
			<trkpt lat="49.513226" lon="18.530115">
				<ele>775.000000</ele>
			</trkpt>
			<trkpt lat="49.513097" lon="18.530178">
				<ele>776.000000</ele>
			</trkpt>
			<trkpt lat="49.512969" lon="18.530205">
				<ele>778.000000</ele>
			</trkpt>
			<trkpt lat="49.512823" lon="18.530214">
				<ele>780.000000</ele>
			</trkpt>
			<trkpt lat="49.512683" lon="18.530205">
				<ele>782.000000</ele>
			</trkpt>
			<trkpt lat="49.512555" lon="18.530205">
				<ele>783.000000</ele>
			</trkpt>
			<trkpt lat="49.512409" lon="18.530241">
				<ele>786.000000</ele>
			</trkpt>
			<trkpt lat="49.512246" lon="18.530294">
				<ele>789.000000</ele>
			</trkpt>
			<trkpt lat="49.512082" lon="18.530367">
				<ele>791.000000</ele>
			</trkpt>
			<trkpt lat="49.511873" lon="18.530474">
				<ele>794.000000</ele>
			</trkpt>
			<trkpt lat="49.511377" lon="18.530771">
				<ele>799.000000</ele>
			</trkpt>
			<trkpt lat="49.511295" lon="18.530834">
				<ele>800.000000</ele>
			</trkpt>
			<trkpt lat="49.511213" lon="18.530897">
				<ele>801.000000</ele>
			</trkpt>
			<trkpt lat="49.511144" lon="18.530977">
				<ele>803.000000</ele>
			</trkpt>
			<trkpt lat="49.511079" lon="18.531049">
				<ele>805.000000</ele>
			</trkpt>
			<trkpt lat="49.511032" lon="18.531149">
				<ele>806.000000</ele>
			</trkpt>
			<trkpt lat="49.510974" lon="18.531239">
				<ele>807.000000</ele>
			</trkpt>
			<trkpt lat="49.510846" lon="18.531579">
				<ele>809.000000</ele>
			</trkpt>
			<trkpt lat="49.510788" lon="18.531696">
				<ele>810.000000</ele>
			</trkpt>
			<trkpt lat="49.510735" lon="18.531786">
				<ele>810.000000</ele>
			</trkpt>
			<trkpt lat="49.510660" lon="18.531849">
				<ele>811.000000</ele>
			</trkpt>
			<trkpt lat="49.510548" lon="18.531912">
				<ele>812.000000</ele>
			</trkpt>
			<trkpt lat="49.510467" lon="18.531948">
				<ele>812.000000</ele>
			</trkpt>
			<trkpt lat="49.510239" lon="18.531975">
				<ele>815.000000</ele>
			</trkpt>
			<trkpt lat="49.510169" lon="18.531992">
				<ele>816.000000</ele>
			</trkpt>
			<trkpt lat="49.510134" lon="18.532019">
				<ele>815.000000</ele>
			</trkpt>
			<trkpt lat="49.510111" lon="18.532065">
				<ele>814.000000</ele>
			</trkpt>
			<trkpt lat="49.510105" lon="18.532118">
				<ele>813.000000</ele>
			</trkpt>
			<trkpt lat="49.510100" lon="18.532181">
				<ele>812.000000</ele>
			</trkpt>
			<trkpt lat="49.510105" lon="18.532254">
				<ele>813.000000</ele>
			</trkpt>
			<trkpt lat="49.510134" lon="18.532325">
				<ele>814.000000</ele>
			</trkpt>
			<trkpt lat="49.510228" lon="18.532523">
				<ele>817.000000</ele>
			</trkpt>
			<trkpt lat="49.510269" lon="18.532621">
				<ele>818.000000</ele>
			</trkpt>
			<trkpt lat="49.510309" lon="18.532757">
				<ele>819.000000</ele>
			</trkpt>
			<trkpt lat="49.510332" lon="18.532891">
				<ele>820.000000</ele>
			</trkpt>
			<trkpt lat="49.510344" lon="18.533034">
				<ele>821.000000</ele>
			</trkpt>
			<trkpt lat="49.510338" lon="18.533170">
				<ele>823.000000</ele>
			</trkpt>
			<trkpt lat="49.510321" lon="18.533304">
				<ele>825.000000</ele>
			</trkpt>
			<trkpt lat="49.510280" lon="18.533430">
				<ele>828.000000</ele>
			</trkpt>
			<trkpt lat="49.510228" lon="18.533537">
				<ele>829.000000</ele>
			</trkpt>
			<trkpt lat="49.510175" lon="18.533583">
				<ele>829.000000</ele>
			</trkpt>
			<trkpt lat="49.510128" lon="18.533627">
				<ele>828.000000</ele>
			</trkpt>
			<trkpt lat="49.510000" lon="18.533682">
				<ele>829.000000</ele>
			</trkpt>
			<trkpt lat="49.510000" lon="18.533682">
				<ele>829.000000</ele>
			</trkpt>
			<trkpt lat="49.509930" lon="18.533717">
				<ele>829.000000</ele>
			</trkpt>
			<trkpt lat="49.509335" lon="18.534023">
				<ele>839.000000</ele>
			</trkpt>
			<trkpt lat="49.509067" lon="18.534158">
				<ele>841.000000</ele>
			</trkpt>
			<trkpt lat="49.508938" lon="18.534229">
				<ele>843.000000</ele>
			</trkpt>
			<trkpt lat="49.508874" lon="18.534292">
				<ele>844.000000</ele>
			</trkpt>
			<trkpt lat="49.508828" lon="18.534373">
				<ele>843.000000</ele>
			</trkpt>
			<trkpt lat="49.508804" lon="18.534481">
				<ele>844.000000</ele>
			</trkpt>
			<trkpt lat="49.508787" lon="18.534795">
				<ele>848.000000</ele>
			</trkpt>
			<trkpt lat="49.508758" lon="18.534994">
				<ele>849.000000</ele>
			</trkpt>
			<trkpt lat="49.508734" lon="18.535055">
				<ele>850.000000</ele>
			</trkpt>
			<trkpt lat="49.508717" lon="18.535101">
				<ele>851.000000</ele>
			</trkpt>
			<trkpt lat="49.508699" lon="18.535118">
				<ele>851.000000</ele>
			</trkpt>
			<trkpt lat="49.508670" lon="18.535145">
				<ele>852.000000</ele>
			</trkpt>
			<trkpt lat="49.508641" lon="18.535164">
				<ele>852.000000</ele>
			</trkpt>
			<trkpt lat="49.508606" lon="18.535145">
				<ele>852.000000</ele>
			</trkpt>
			<trkpt lat="49.508518" lon="18.535110">
				<ele>853.000000</ele>
			</trkpt>
			<trkpt lat="49.508402" lon="18.535029">
				<ele>854.000000</ele>
			</trkpt>
			<trkpt lat="49.508262" lon="18.534984">
				<ele>855.000000</ele>
			</trkpt>
			<trkpt lat="49.508127" lon="18.534975">
				<ele>856.000000</ele>
			</trkpt>
			<trkpt lat="49.507877" lon="18.534967">
				<ele>862.000000</ele>
			</trkpt>
			<trkpt lat="49.507731" lon="18.534939">
				<ele>866.000000</ele>
			</trkpt>
			<trkpt lat="49.507643" lon="18.534912">
				<ele>867.000000</ele>
			</trkpt>
			<trkpt lat="49.507562" lon="18.534831">
				<ele>867.000000</ele>
			</trkpt>
			<trkpt lat="49.507474" lon="18.534705">
				<ele>867.000000</ele>
			</trkpt>
			<trkpt lat="49.507422" lon="18.534652">
				<ele>867.000000</ele>
			</trkpt>
			<trkpt lat="49.507422" lon="18.534652">
				<ele>867.000000</ele>
			</trkpt>
			<trkpt lat="49.507293" lon="18.534508">
				<ele>867.000000</ele>
			</trkpt>
			<trkpt lat="49.507206" lon="18.534436">
				<ele>867.000000</ele>
			</trkpt>
			<trkpt lat="49.507118" lon="18.534373">
				<ele>867.000000</ele>
			</trkpt>
			<trkpt lat="49.507020" lon="18.534338">
				<ele>867.000000</ele>
			</trkpt>
			<trkpt lat="49.506938" lon="18.534302">
				<ele>868.000000</ele>
			</trkpt>
			<trkpt lat="49.506833" lon="18.534283">
				<ele>868.000000</ele>
			</trkpt>
			<trkpt lat="49.506733" lon="18.534275">
				<ele>867.000000</ele>
			</trkpt>
			<trkpt lat="49.506296" lon="18.534275">
				<ele>865.000000</ele>
			</trkpt>
			<trkpt lat="49.506150" lon="18.534275">
				<ele>864.000000</ele>
			</trkpt>
			<trkpt lat="49.506016" lon="18.534311">
				<ele>864.000000</ele>
			</trkpt>
			<trkpt lat="49.505876" lon="18.534338">
				<ele>865.000000</ele>
			</trkpt>
			<trkpt lat="49.505765" lon="18.534401">
				<ele>865.000000</ele>
			</trkpt>
			<trkpt lat="49.505631" lon="18.534499">
				<ele>865.000000</ele>
			</trkpt>
			<trkpt lat="49.505508" lon="18.534607">
				<ele>864.000000</ele>
			</trkpt>
			<trkpt lat="49.505270" lon="18.534831">
				<ele>865.000000</ele>
			</trkpt>
			<trkpt lat="49.505176" lon="18.534931">
				<ele>866.000000</ele>
			</trkpt>
			<trkpt lat="49.505176" lon="18.534931">
				<ele>866.000000</ele>
			</trkpt>
			<trkpt lat="49.504890" lon="18.535235">
				<ele>868.000000</ele>
			</trkpt>
			<trkpt lat="49.504598" lon="18.535586">
				<ele>872.000000</ele>
			</trkpt>
			<trkpt lat="49.504476" lon="18.535730">
				<ele>873.000000</ele>
			</trkpt>
			<trkpt lat="49.504435" lon="18.535801">
				<ele>873.000000</ele>
			</trkpt>
			<trkpt lat="49.504435" lon="18.535801">
				<ele>873.000000</ele>
			</trkpt>
			<trkpt lat="49.504354" lon="18.535927">
				<ele>874.000000</ele>
			</trkpt>
			<trkpt lat="49.504237" lon="18.536143">
				<ele>876.000000</ele>
			</trkpt>
			<trkpt lat="49.504114" lon="18.536386">
				<ele>878.000000</ele>
			</trkpt>
			<trkpt lat="49.503980" lon="18.536619">
				<ele>880.000000</ele>
			</trkpt>
			<trkpt lat="49.503823" lon="18.536871">
				<ele>880.000000</ele>
			</trkpt>
			<trkpt lat="49.503426" lon="18.537355">
				<ele>884.000000</ele>
			</trkpt>
			<trkpt lat="49.503310" lon="18.537508">
				<ele>885.000000</ele>
			</trkpt>
			<trkpt lat="49.503163" lon="18.537724">
				<ele>886.000000</ele>
			</trkpt>
			<trkpt lat="49.503041" lon="18.537931">
				<ele>888.000000</ele>
			</trkpt>
			<trkpt lat="49.502965" lon="18.538110">
				<ele>888.000000</ele>
			</trkpt>
			<trkpt lat="49.502825" lon="18.538460">
				<ele>891.000000</ele>
			</trkpt>
			<trkpt lat="49.502744" lon="18.538631">
				<ele>892.000000</ele>
			</trkpt>
			<trkpt lat="49.502772" lon="18.538371">
				<ele>892.000000</ele>
			</trkpt>
			<trkpt lat="49.502772" lon="18.538371">
				<ele>892.000000</ele>
			</trkpt>
			<trkpt lat="49.502779" lon="18.538300">
				<ele>892.000000</ele>
			</trkpt>
			<trkpt lat="49.502796" lon="18.538038">
				<ele>893.000000</ele>
			</trkpt>
			<trkpt lat="49.502785" lon="18.537778">
				<ele>893.000000</ele>
			</trkpt>
			<trkpt lat="49.502755" lon="18.537499">
				<ele>893.000000</ele>
			</trkpt>
			<trkpt lat="49.502610" lon="18.536493">
				<ele>887.000000</ele>
			</trkpt>
			<trkpt lat="49.502597" lon="18.536340">
				<ele>886.000000</ele>
			</trkpt>
			<trkpt lat="49.502569" lon="18.536009">
				<ele>884.000000</ele>
			</trkpt>
			<trkpt lat="49.502539" lon="18.535801">
				<ele>883.000000</ele>
			</trkpt>
			<trkpt lat="49.502435" lon="18.535388">
				<ele>880.000000</ele>
			</trkpt>
			<trkpt lat="49.502422" lon="18.535254">
				<ele>879.000000</ele>
			</trkpt>
			<trkpt lat="49.502411" lon="18.535110">
				<ele>878.000000</ele>
			</trkpt>
			<trkpt lat="49.502399" lon="18.534885">
				<ele>877.000000</ele>
			</trkpt>
			<trkpt lat="49.502329" lon="18.534401">
				<ele>876.000000</ele>
			</trkpt>
			<trkpt lat="49.502323" lon="18.534139">
				<ele>875.000000</ele>
			</trkpt>
			<trkpt lat="49.502323" lon="18.534032">
				<ele>875.000000</ele>
			</trkpt>
			<trkpt lat="49.502312" lon="18.533915">
				<ele>874.000000</ele>
			</trkpt>
			<trkpt lat="49.502277" lon="18.533745">
				<ele>873.000000</ele>
			</trkpt>
			<trkpt lat="49.502213" lon="18.533565">
				<ele>872.000000</ele>
			</trkpt>
			<trkpt lat="49.502061" lon="18.533206">
				<ele>869.000000</ele>
			</trkpt>
			<trkpt lat="49.501997" lon="18.533053">
				<ele>867.000000</ele>
			</trkpt>
			<trkpt lat="49.501962" lon="18.532900">
				<ele>867.000000</ele>
			</trkpt>
			<trkpt lat="49.501950" lon="18.532784">
				<ele>867.000000</ele>
			</trkpt>
			<trkpt lat="49.501927" lon="18.532523">
				<ele>866.000000</ele>
			</trkpt>
			<trkpt lat="49.501915" lon="18.532397">
				<ele>865.000000</ele>
			</trkpt>
			<trkpt lat="49.501892" lon="18.532244">
				<ele>863.000000</ele>
			</trkpt>
			<trkpt lat="49.501851" lon="18.532092">
				<ele>862.000000</ele>
			</trkpt>
			<trkpt lat="49.501822" lon="18.531921">
				<ele>860.000000</ele>
			</trkpt>
			<trkpt lat="49.501816" lon="18.531741">
				<ele>858.000000</ele>
			</trkpt>
			<trkpt lat="49.501834" lon="18.531543">
				<ele>857.000000</ele>
			</trkpt>
			<trkpt lat="49.501880" lon="18.531275">
				<ele>854.000000</ele>
			</trkpt>
			<trkpt lat="49.501915" lon="18.530942">
				<ele>851.000000</ele>
			</trkpt>
			<trkpt lat="49.501956" lon="18.530411">
				<ele>847.000000</ele>
			</trkpt>
			<trkpt lat="49.501979" lon="18.530241">
				<ele>847.000000</ele>
			</trkpt>
			<trkpt lat="49.502014" lon="18.530097">
				<ele>847.000000</ele>
			</trkpt>
			<trkpt lat="49.502044" lon="18.529971">
				<ele>846.000000</ele>
			</trkpt>
			<trkpt lat="49.502090" lon="18.529828">
				<ele>846.000000</ele>
			</trkpt>
			<trkpt lat="49.502528" lon="18.528562">
				<ele>851.000000</ele>
			</trkpt>
			<trkpt lat="49.502557" lon="18.528436">
				<ele>850.000000</ele>
			</trkpt>
			<trkpt lat="49.502580" lon="18.528327">
				<ele>849.000000</ele>
			</trkpt>
			<trkpt lat="49.502592" lon="18.528220">
				<ele>849.000000</ele>
			</trkpt>
			<trkpt lat="49.502597" lon="18.528067">
				<ele>849.000000</ele>
			</trkpt>
			<trkpt lat="49.502621" lon="18.527654">
				<ele>848.000000</ele>
			</trkpt>
			<trkpt lat="49.502638" lon="18.527493">
				<ele>849.000000</ele>
			</trkpt>
			<trkpt lat="49.502673" lon="18.527294">
				<ele>849.000000</ele>
			</trkpt>
			<trkpt lat="49.502685" lon="18.527160">
				<ele>850.000000</ele>
			</trkpt>
			<trkpt lat="49.502703" lon="18.527034">
				<ele>850.000000</ele>
			</trkpt>
			<trkpt lat="49.502714" lon="18.526621">
				<ele>851.000000</ele>
			</trkpt>
			<trkpt lat="49.502726" lon="18.526441">
				<ele>852.000000</ele>
			</trkpt>
			<trkpt lat="49.502749" lon="18.526279">
				<ele>852.000000</ele>
			</trkpt>
			<trkpt lat="49.502785" lon="18.526118">
				<ele>853.000000</ele>
			</trkpt>
			<trkpt lat="49.502860" lon="18.525857">
				<ele>854.000000</ele>
			</trkpt>
			<trkpt lat="49.502884" lon="18.525740">
				<ele>854.000000</ele>
			</trkpt>
			<trkpt lat="49.502895" lon="18.525623">
				<ele>854.000000</ele>
			</trkpt>
			<trkpt lat="49.502901" lon="18.525543">
				<ele>855.000000</ele>
			</trkpt>
			<trkpt lat="49.502895" lon="18.525444">
				<ele>854.000000</ele>
			</trkpt>
			<trkpt lat="49.502866" lon="18.525346">
				<ele>854.000000</ele>
			</trkpt>
			<trkpt lat="49.502837" lon="18.525247">
				<ele>853.000000</ele>
			</trkpt>
			<trkpt lat="49.502825" lon="18.525210">
				<ele>853.000000</ele>
			</trkpt>
			<trkpt lat="49.502825" lon="18.525210">
				<ele>853.000000</ele>
			</trkpt>
			<trkpt lat="49.502802" lon="18.525147">
				<ele>853.000000</ele>
			</trkpt>
			<trkpt lat="49.502749" lon="18.525049">
				<ele>852.000000</ele>
			</trkpt>
			<trkpt lat="49.502691" lon="18.524950">
				<ele>851.000000</ele>
			</trkpt>
			<trkpt lat="49.502615" lon="18.524851">
				<ele>849.000000</ele>
			</trkpt>
			<trkpt lat="49.502563" lon="18.524780">
				<ele>849.000000</ele>
			</trkpt>
			<trkpt lat="49.502528" lon="18.524690">
				<ele>848.000000</ele>
			</trkpt>
			<trkpt lat="49.502504" lon="18.524618">
				<ele>848.000000</ele>
			</trkpt>
			<trkpt lat="49.502487" lon="18.524518">
				<ele>848.000000</ele>
			</trkpt>
			<trkpt lat="49.502475" lon="18.524331">
				<ele>847.000000</ele>
			</trkpt>
			<trkpt lat="49.502498" lon="18.523952">
				<ele>848.000000</ele>
			</trkpt>
			<trkpt lat="49.502498" lon="18.523639">
				<ele>848.000000</ele>
			</trkpt>
			<trkpt lat="49.502487" lon="18.523413">
				<ele>848.000000</ele>
			</trkpt>
			<trkpt lat="49.502457" lon="18.523207">
				<ele>849.000000</ele>
			</trkpt>
			<trkpt lat="49.502394" lon="18.522965">
				<ele>850.000000</ele>
			</trkpt>
			<trkpt lat="49.502219" lon="18.522444">
				<ele>849.000000</ele>
			</trkpt>
			<trkpt lat="49.501997" lon="18.521815">
				<ele>849.000000</ele>
			</trkpt>
			<trkpt lat="49.501822" lon="18.521375">
				<ele>846.000000</ele>
			</trkpt>
			<trkpt lat="49.501717" lon="18.521149">
				<ele>846.000000</ele>
			</trkpt>
			<trkpt lat="49.501612" lon="18.520916">
				<ele>845.000000</ele>
			</trkpt>
			<trkpt lat="49.501466" lon="18.520673">
				<ele>844.000000</ele>
			</trkpt>
			<trkpt lat="49.501390" lon="18.520522">
				<ele>844.000000</ele>
			</trkpt>
			<trkpt lat="49.501273" lon="18.520180">
				<ele>846.000000</ele>
			</trkpt>
			<trkpt lat="49.501238" lon="18.520117">
				<ele>847.000000</ele>
			</trkpt>
			<trkpt lat="49.501203" lon="18.520081">
				<ele>847.000000</ele>
			</trkpt>
			<trkpt lat="49.501169" lon="18.520036">
				<ele>847.000000</ele>
			</trkpt>
			<trkpt lat="49.501116" lon="18.520000">
				<ele>848.000000</ele>
			</trkpt>
			<trkpt lat="49.501063" lon="18.519983">
				<ele>848.000000</ele>
			</trkpt>
			<trkpt lat="49.500743" lon="18.519901">
				<ele>850.000000</ele>
			</trkpt>
			<trkpt lat="49.500597" lon="18.519839">
				<ele>851.000000</ele>
			</trkpt>
			<trkpt lat="49.500544" lon="18.519794">
				<ele>851.000000</ele>
			</trkpt>
			<trkpt lat="49.500509" lon="18.519740">
				<ele>851.000000</ele>
			</trkpt>
			<trkpt lat="49.500480" lon="18.519668">
				<ele>852.000000</ele>
			</trkpt>
			<trkpt lat="49.500462" lon="18.519578">
				<ele>852.000000</ele>
			</trkpt>
			<trkpt lat="49.500462" lon="18.519488">
				<ele>852.000000</ele>
			</trkpt>
			<trkpt lat="49.500468" lon="18.519417">
				<ele>853.000000</ele>
			</trkpt>
			<trkpt lat="49.500468" lon="18.519417">
				<ele>853.000000</ele>
			</trkpt>
			<trkpt lat="49.500468" lon="18.519371">
				<ele>853.000000</ele>
			</trkpt>
			<trkpt lat="49.500515" lon="18.519084">
				<ele>856.000000</ele>
			</trkpt>
			<trkpt lat="49.500527" lon="18.518949">
				<ele>857.000000</ele>
			</trkpt>
			<trkpt lat="49.500521" lon="18.518824">
				<ele>857.000000</ele>
			</trkpt>
			<trkpt lat="49.500497" lon="18.518698">
				<ele>858.000000</ele>
			</trkpt>
			<trkpt lat="49.500445" lon="18.518572">
				<ele>859.000000</ele>
			</trkpt>
			<trkpt lat="49.500381" lon="18.518446">
				<ele>859.000000</ele>
			</trkpt>
			<trkpt lat="49.500287" lon="18.518312">
				<ele>858.000000</ele>
			</trkpt>
			<trkpt lat="49.500118" lon="18.518096">
				<ele>858.000000</ele>
			</trkpt>
			<trkpt lat="49.499628" lon="18.517404">
				<ele>866.000000</ele>
			</trkpt>
			<trkpt lat="49.499570" lon="18.517323">
				<ele>866.000000</ele>
			</trkpt>
			<trkpt lat="49.499523" lon="18.517233">
				<ele>866.000000</ele>
			</trkpt>
			<trkpt lat="49.499482" lon="18.517153">
				<ele>866.000000</ele>
			</trkpt>
			<trkpt lat="49.499453" lon="18.517054">
				<ele>867.000000</ele>
			</trkpt>
			<trkpt lat="49.499424" lon="18.516954">
				<ele>867.000000</ele>
			</trkpt>
			<trkpt lat="49.499412" lon="18.516830">
				<ele>868.000000</ele>
			</trkpt>
			<trkpt lat="49.499401" lon="18.516578">
				<ele>869.000000</ele>
			</trkpt>
			<trkpt lat="49.499418" lon="18.516299">
				<ele>870.000000</ele>
			</trkpt>
			<trkpt lat="49.499430" lon="18.516209">
				<ele>871.000000</ele>
			</trkpt>
			<trkpt lat="49.499453" lon="18.516128">
				<ele>871.000000</ele>
			</trkpt>
			<trkpt lat="49.499499" lon="18.516002">
				<ele>872.000000</ele>
			</trkpt>
			<trkpt lat="49.499628" lon="18.515706">
				<ele>872.000000</ele>
			</trkpt>
			<trkpt lat="49.499646" lon="18.515652">
				<ele>872.000000</ele>
			</trkpt>
			<trkpt lat="49.499669" lon="18.515572">
				<ele>872.000000</ele>
			</trkpt>
			<trkpt lat="49.499669" lon="18.515491">
				<ele>872.000000</ele>
			</trkpt>
			<trkpt lat="49.499669" lon="18.515392">
				<ele>872.000000</ele>
			</trkpt>
			<trkpt lat="49.499657" lon="18.515186">
				<ele>874.000000</ele>
			</trkpt>
			<trkpt lat="49.499616" lon="18.514933">
				<ele>873.000000</ele>
			</trkpt>
			<trkpt lat="49.499581" lon="18.514807">
				<ele>873.000000</ele>
			</trkpt>
			<trkpt lat="49.499581" lon="18.514807">
				<ele>873.000000</ele>
			</trkpt>
			<trkpt lat="49.499576" lon="18.514781">
				<ele>873.000000</ele>
			</trkpt>
			<trkpt lat="49.499518" lon="18.514620">
				<ele>874.000000</ele>
			</trkpt>
			<trkpt lat="49.499447" lon="18.514476">
				<ele>874.000000</ele>
			</trkpt>
			<trkpt lat="49.499371" lon="18.514350">
				<ele>874.000000</ele>
			</trkpt>
			<trkpt lat="49.499231" lon="18.514188">
				<ele>872.000000</ele>
			</trkpt>
			<trkpt lat="49.498911" lon="18.513847">
				<ele>870.000000</ele>
			</trkpt>
			<trkpt lat="49.498771" lon="18.513675">
				<ele>869.000000</ele>
			</trkpt>
			<trkpt lat="49.498683" lon="18.513524">
				<ele>868.000000</ele>
			</trkpt>
			<trkpt lat="49.498619" lon="18.513352">
				<ele>868.000000</ele>
			</trkpt>
			<trkpt lat="49.498561" lon="18.513173">
				<ele>866.000000</ele>
			</trkpt>
			<trkpt lat="49.498490" lon="18.512868">
				<ele>865.000000</ele>
			</trkpt>
			<trkpt lat="49.498415" lon="18.512599">
				<ele>863.000000</ele>
			</trkpt>
			<trkpt lat="49.498339" lon="18.512383">
				<ele>860.000000</ele>
			</trkpt>
			<trkpt lat="49.498257" lon="18.512230">
				<ele>858.000000</ele>
			</trkpt>
			<trkpt lat="49.498170" lon="18.512113">
				<ele>857.000000</ele>
			</trkpt>
			<trkpt lat="49.498012" lon="18.511960">
				<ele>854.000000</ele>
			</trkpt>
			<trkpt lat="49.497890" lon="18.511853">
				<ele>851.000000</ele>
			</trkpt>
			<trkpt lat="49.497773" lon="18.511790">
				<ele>850.000000</ele>
			</trkpt>
			<trkpt lat="49.497551" lon="18.511664">
				<ele>850.000000</ele>
			</trkpt>
			<trkpt lat="49.497411" lon="18.511557">
				<ele>850.000000</ele>
			</trkpt>
			<trkpt lat="49.497271" lon="18.511475">
				<ele>849.000000</ele>
			</trkpt>
			<trkpt lat="49.497189" lon="18.511430">
				<ele>850.000000</ele>
			</trkpt>
			<trkpt lat="49.497137" lon="18.511385">
				<ele>850.000000</ele>
			</trkpt>
			<trkpt lat="49.497084" lon="18.511323">
				<ele>851.000000</ele>
			</trkpt>
			<trkpt lat="49.497038" lon="18.511251">
				<ele>851.000000</ele>
			</trkpt>
			<trkpt lat="49.496915" lon="18.511035">
				<ele>851.000000</ele>
			</trkpt>
			<trkpt lat="49.496705" lon="18.510578">
				<ele>853.000000</ele>
			</trkpt>
			<trkpt lat="49.496594" lon="18.510352">
				<ele>853.000000</ele>
			</trkpt>
			<trkpt lat="49.496483" lon="18.510182">
				<ele>854.000000</ele>
			</trkpt>
			<trkpt lat="49.496361" lon="18.510029">
				<ele>854.000000</ele>
			</trkpt>
			<trkpt lat="49.496203" lon="18.509886">
				<ele>854.000000</ele>
			</trkpt>
			<trkpt lat="49.496116" lon="18.509832">
				<ele>855.000000</ele>
			</trkpt>
			<trkpt lat="49.496034" lon="18.509813">
				<ele>856.000000</ele>
			</trkpt>
			<trkpt lat="49.495982" lon="18.509822">
				<ele>856.000000</ele>
			</trkpt>
			<trkpt lat="49.495947" lon="18.509849">
				<ele>857.000000</ele>
			</trkpt>
			<trkpt lat="49.495877" lon="18.509912">
				<ele>856.000000</ele>
			</trkpt>
			<trkpt lat="49.495783" lon="18.510029">
				<ele>855.000000</ele>
			</trkpt>
			<trkpt lat="49.495742" lon="18.510056">
				<ele>854.000000</ele>
			</trkpt>
			<trkpt lat="49.495695" lon="18.510083">
				<ele>853.000000</ele>
			</trkpt>
			<trkpt lat="49.495661" lon="18.510073">
				<ele>853.000000</ele>
			</trkpt>
			<trkpt lat="49.495626" lon="18.510065">
				<ele>852.000000</ele>
			</trkpt>
			<trkpt lat="49.495579" lon="18.510029">
				<ele>851.000000</ele>
			</trkpt>
			<trkpt lat="49.495544" lon="18.509983">
				<ele>851.000000</ele>
			</trkpt>
			<trkpt lat="49.495416" lon="18.509796">
				<ele>850.000000</ele>
			</trkpt>
			<trkpt lat="49.495311" lon="18.509679">
				<ele>850.000000</ele>
			</trkpt>
			<trkpt lat="49.495206" lon="18.509589">
				<ele>850.000000</ele>
			</trkpt>
			<trkpt lat="49.495013" lon="18.509463">
				<ele>850.000000</ele>
			</trkpt>
			<trkpt lat="49.494855" lon="18.509301">
				<ele>851.000000</ele>
			</trkpt>
			<trkpt lat="49.494669" lon="18.509094">
				<ele>850.000000</ele>
			</trkpt>
			<trkpt lat="49.494523" lon="18.508888">
				<ele>851.000000</ele>
			</trkpt>
			<trkpt lat="49.494360" lon="18.508628">
				<ele>853.000000</ele>
			</trkpt>
			<trkpt lat="49.494226" lon="18.508358">
				<ele>855.000000</ele>
			</trkpt>
			<trkpt lat="49.494126" lon="18.508115">
				<ele>856.000000</ele>
			</trkpt>
			<trkpt lat="49.494051" lon="18.507873">
				<ele>857.000000</ele>
			</trkpt>
			<trkpt lat="49.493998" lon="18.507649">
				<ele>856.000000</ele>
			</trkpt>
			<trkpt lat="49.493957" lon="18.507459">
				<ele>856.000000</ele>
			</trkpt>
			<trkpt lat="49.493898" lon="18.507235">
				<ele>856.000000</ele>
			</trkpt>
			<trkpt lat="49.493835" lon="18.507029">
				<ele>856.000000</ele>
			</trkpt>
			<trkpt lat="49.493770" lon="18.506849">
				<ele>857.000000</ele>
			</trkpt>
			<trkpt lat="49.493607" lon="18.506490">
				<ele>857.000000</ele>
			</trkpt>
			<trkpt lat="49.493163" lon="18.505672">
				<ele>857.000000</ele>
			</trkpt>
			<trkpt lat="49.492988" lon="18.505358">
				<ele>856.000000</ele>
			</trkpt>
			<trkpt lat="49.492988" lon="18.505358">
				<ele>856.000000</ele>
			</trkpt>
			<trkpt lat="49.492919" lon="18.505222">
				<ele>856.000000</ele>
			</trkpt>
			<trkpt lat="49.492708" lon="18.504801">
				<ele>856.000000</ele>
			</trkpt>
			<trkpt lat="49.492539" lon="18.504415">
				<ele>856.000000</ele>
			</trkpt>
			<trkpt lat="49.492142" lon="18.503490">
				<ele>858.000000</ele>
			</trkpt>
			<trkpt lat="49.491915" lon="18.502977">
				<ele>858.000000</ele>
			</trkpt>
			<trkpt lat="49.491816" lon="18.502744">
				<ele>859.000000</ele>
			</trkpt>
			<trkpt lat="49.491746" lon="18.502572">
				<ele>859.000000</ele>
			</trkpt>
			<trkpt lat="49.491699" lon="18.502393">
				<ele>859.000000</ele>
			</trkpt>
			<trkpt lat="49.491641" lon="18.502169">
				<ele>859.000000</ele>
			</trkpt>
			<trkpt lat="49.491559" lon="18.501882">
				<ele>859.000000</ele>
			</trkpt>
			<trkpt lat="49.491454" lon="18.501585">
				<ele>859.000000</ele>
			</trkpt>
			<trkpt lat="49.491220" lon="18.500974">
				<ele>857.000000</ele>
			</trkpt>
			<trkpt lat="49.491040" lon="18.500454">
				<ele>855.000000</ele>
			</trkpt>
			<trkpt lat="49.490859" lon="18.499788">
				<ele>853.000000</ele>
			</trkpt>
			<trkpt lat="49.490730" lon="18.499293">
				<ele>853.000000</ele>
			</trkpt>
			<trkpt lat="49.490707" lon="18.499196">
				<ele>853.000000</ele>
			</trkpt>
			<trkpt lat="49.490591" lon="18.498683">
				<ele>854.000000</ele>
			</trkpt>
			<trkpt lat="49.490520" lon="18.498270">
				<ele>855.000000</ele>
			</trkpt>
			<trkpt lat="49.490468" lon="18.497964">
				<ele>855.000000</ele>
			</trkpt>
			<trkpt lat="49.490403" lon="18.497731">
				<ele>855.000000</ele>
			</trkpt>
			<trkpt lat="49.490328" lon="18.497488">
				<ele>855.000000</ele>
			</trkpt>
			<trkpt lat="49.490263" lon="18.497148">
				<ele>857.000000</ele>
			</trkpt>
			<trkpt lat="49.490228" lon="18.496922">
				<ele>858.000000</ele>
			</trkpt>
			<trkpt lat="49.490170" lon="18.496672">
				<ele>859.000000</ele>
			</trkpt>
			<trkpt lat="49.490100" lon="18.496293">
				<ele>860.000000</ele>
			</trkpt>
			<trkpt lat="49.490047" lon="18.496006">
				<ele>861.000000</ele>
			</trkpt>
			<trkpt lat="49.490019" lon="18.495754">
				<ele>862.000000</ele>
			</trkpt>
			<trkpt lat="49.490001" lon="18.495477">
				<ele>862.000000</ele>
			</trkpt>
			<trkpt lat="49.489989" lon="18.494991">
				<ele>859.000000</ele>
			</trkpt>
			<trkpt lat="49.489972" lon="18.494641">
				<ele>857.000000</ele>
			</trkpt>
			<trkpt lat="49.489943" lon="18.494353">
				<ele>855.000000</ele>
			</trkpt>
			<trkpt lat="49.489890" lon="18.494083">
				<ele>852.000000</ele>
			</trkpt>
			<trkpt lat="49.489826" lon="18.493850">
				<ele>851.000000</ele>
			</trkpt>
			<trkpt lat="49.489773" lon="18.493689">
				<ele>851.000000</ele>
			</trkpt>
			<trkpt lat="49.489744" lon="18.493527">
				<ele>850.000000</ele>
			</trkpt>
			<trkpt lat="49.489703" lon="18.493330">
				<ele>848.000000</ele>
			</trkpt>
			<trkpt lat="49.489616" lon="18.493006">
				<ele>844.000000</ele>
			</trkpt>
			<trkpt lat="49.489575" lon="18.492835">
				<ele>842.000000</ele>
			</trkpt>
			<trkpt lat="49.489546" lon="18.492683">
				<ele>840.000000</ele>
			</trkpt>
			<trkpt lat="49.489505" lon="18.492251">
				<ele>837.000000</ele>
			</trkpt>
			<trkpt lat="49.489464" lon="18.492027">
				<ele>835.000000</ele>
			</trkpt>
			<trkpt lat="49.489394" lon="18.491811">
				<ele>833.000000</ele>
			</trkpt>
			<trkpt lat="49.489359" lon="18.491685">
				<ele>831.000000</ele>
			</trkpt>
			<trkpt lat="49.489336" lon="18.491533">
				<ele>830.000000</ele>
			</trkpt>
			<trkpt lat="49.489336" lon="18.491380">
				<ele>829.000000</ele>
			</trkpt>
			<trkpt lat="49.489341" lon="18.491192">
				<ele>828.000000</ele>
			</trkpt>
			<trkpt lat="49.489347" lon="18.490967">
				<ele>826.000000</ele>
			</trkpt>
			<trkpt lat="49.489376" lon="18.490760">
				<ele>824.000000</ele>
			</trkpt>
			<trkpt lat="49.489423" lon="18.490571">
				<ele>823.000000</ele>
			</trkpt>
			<trkpt lat="49.489511" lon="18.490284">
				<ele>820.000000</ele>
			</trkpt>
			<trkpt lat="49.489552" lon="18.490114">
				<ele>818.000000</ele>
			</trkpt>
			<trkpt lat="49.489575" lon="18.489943">
				<ele>816.000000</ele>
			</trkpt>
			<trkpt lat="49.489581" lon="18.489798">
				<ele>814.000000</ele>
			</trkpt>
			<trkpt lat="49.489575" lon="18.489592">
				<ele>812.000000</ele>
			</trkpt>
			<trkpt lat="49.489540" lon="18.489035">
				<ele>811.000000</ele>
			</trkpt>
			<trkpt lat="49.489505" lon="18.488667">
				<ele>810.000000</ele>
			</trkpt>
			<trkpt lat="49.489441" lon="18.488389">
				<ele>809.000000</ele>
			</trkpt>
			<trkpt lat="49.489423" lon="18.488272">
				<ele>809.000000</ele>
			</trkpt>
			<trkpt lat="49.489423" lon="18.488272">
				<ele>809.000000</ele>
			</trkpt>
			<trkpt lat="49.489382" lon="18.488038">
				<ele>809.000000</ele>
			</trkpt>
			<trkpt lat="49.489336" lon="18.487804">
				<ele>810.000000</ele>
			</trkpt>
			<trkpt lat="49.489295" lon="18.487634">
				<ele>810.000000</ele>
			</trkpt>
			<trkpt lat="49.489254" lon="18.487490">
				<ele>811.000000</ele>
			</trkpt>
			<trkpt lat="49.489213" lon="18.487338">
				<ele>812.000000</ele>
			</trkpt>
			<trkpt lat="49.489178" lon="18.487230">
				<ele>812.000000</ele>
			</trkpt>
			<trkpt lat="49.489143" lon="18.486942">
				<ele>814.000000</ele>
			</trkpt>
			<trkpt lat="49.489114" lon="18.486502">
				<ele>815.000000</ele>
			</trkpt>
			<trkpt lat="49.489079" lon="18.486143">
				<ele>815.000000</ele>
			</trkpt>
			<trkpt lat="49.489044" lon="18.485819">
				<ele>816.000000</ele>
			</trkpt>
			<trkpt lat="49.488869" lon="18.484624">
				<ele>822.000000</ele>
			</trkpt>
			<trkpt lat="49.488764" lon="18.483924">
				<ele>822.000000</ele>
			</trkpt>
			<trkpt lat="49.488706" lon="18.483600">
				<ele>819.000000</ele>
			</trkpt>
			<trkpt lat="49.488624" lon="18.483303">
				<ele>816.000000</ele>
			</trkpt>
			<trkpt lat="49.488507" lon="18.482980">
				<ele>815.000000</ele>
			</trkpt>
			<trkpt lat="49.488356" lon="18.482640">
				<ele>814.000000</ele>
			</trkpt>
			<trkpt lat="49.488209" lon="18.482334">
				<ele>812.000000</ele>
			</trkpt>
			<trkpt lat="49.488093" lon="18.482118">
				<ele>811.000000</ele>
			</trkpt>
			<trkpt lat="49.487970" lon="18.481921">
				<ele>811.000000</ele>
			</trkpt>
			<trkpt lat="49.487825" lon="18.481714">
				<ele>810.000000</ele>
			</trkpt>
			<trkpt lat="49.487772" lon="18.481642">
				<ele>810.000000</ele>
			</trkpt>
			<trkpt lat="49.487626" lon="18.481454">
				<ele>810.000000</ele>
			</trkpt>
			<trkpt lat="49.487556" lon="18.481337">
				<ele>810.000000</ele>
			</trkpt>
			<trkpt lat="49.487515" lon="18.481185">
				<ele>810.000000</ele>
			</trkpt>
			<trkpt lat="49.487428" lon="18.480833">
				<ele>809.000000</ele>
			</trkpt>
			<trkpt lat="49.487357" lon="18.480564">
				<ele>809.000000</ele>
			</trkpt>
			<trkpt lat="49.487281" lon="18.480349">
				<ele>810.000000</ele>
			</trkpt>
			<trkpt lat="49.487200" lon="18.480151">
				<ele>809.000000</ele>
			</trkpt>
			<trkpt lat="49.487095" lon="18.479936">
				<ele>809.000000</ele>
			</trkpt>
			<trkpt lat="49.486984" lon="18.479747">
				<ele>809.000000</ele>
			</trkpt>
			<trkpt lat="49.486856" lon="18.479577">
				<ele>810.000000</ele>
			</trkpt>
			<trkpt lat="49.486762" lon="18.479432">
				<ele>811.000000</ele>
			</trkpt>
			<trkpt lat="49.486471" lon="18.478938">
				<ele>812.000000</ele>
			</trkpt>
			<trkpt lat="49.486266" lon="18.478749">
				<ele>813.000000</ele>
			</trkpt>
			<trkpt lat="49.486225" lon="18.478687">
				<ele>814.000000</ele>
			</trkpt>
			<trkpt lat="49.486190" lon="18.478632">
				<ele>815.000000</ele>
			</trkpt>
			<trkpt lat="49.486167" lon="18.478561">
				<ele>816.000000</ele>
			</trkpt>
			<trkpt lat="49.486143" lon="18.478489">
				<ele>817.000000</ele>
			</trkpt>
			<trkpt lat="49.486138" lon="18.478445">
				<ele>818.000000</ele>
			</trkpt>
			<trkpt lat="49.486138" lon="18.478445">
				<ele>818.000000</ele>
			</trkpt>
			<trkpt lat="49.486120" lon="18.478309">
				<ele>819.000000</ele>
			</trkpt>
			<trkpt lat="49.486120" lon="18.478032">
				<ele>821.000000</ele>
			</trkpt>
			<trkpt lat="49.486120" lon="18.477906">
				<ele>822.000000</ele>
			</trkpt>
			<trkpt lat="49.486109" lon="18.477833">
				<ele>822.000000</ele>
			</trkpt>
			<trkpt lat="49.485986" lon="18.477707">
				<ele>824.000000</ele>
			</trkpt>
			<trkpt lat="49.485974" lon="18.477690">
				<ele>824.000000</ele>
			</trkpt>
		</trkseg>
	</trk>
</gpx>

