<?xml version="1.0" encoding="utf-8"?>
<gpx xmlns="http://www.topografix.com/GPX/1/1" version="1.1" creator="https://mapy.cz/">
	<trk>
		<name>10.Kohútka - Huslenky, Kychová</name>
		<trkseg>
			<trkpt lat="49.294744" lon="18.234507">
				<ele>880.000000</ele>
			</trkpt>
			<trkpt lat="49.294732" lon="18.234417">
				<ele>880.000000</ele>
			</trkpt>
			<trkpt lat="49.294632" lon="18.233905">
				<ele>882.000000</ele>
			</trkpt>
			<trkpt lat="49.294504" lon="18.233402">
				<ele>885.000000</ele>
			</trkpt>
			<trkpt lat="49.294451" lon="18.233259">
				<ele>887.000000</ele>
			</trkpt>
			<trkpt lat="49.294339" lon="18.233033">
				<ele>889.000000</ele>
			</trkpt>
			<trkpt lat="49.294281" lon="18.232890">
				<ele>891.000000</ele>
			</trkpt>
			<trkpt lat="49.294239" lon="18.232746">
				<ele>892.000000</ele>
			</trkpt>
			<trkpt lat="49.294217" lon="18.232611">
				<ele>893.000000</ele>
			</trkpt>
			<trkpt lat="49.294217" lon="18.232450">
				<ele>894.000000</ele>
			</trkpt>
			<trkpt lat="49.294222" lon="18.232171">
				<ele>896.000000</ele>
			</trkpt>
			<trkpt lat="49.294245" lon="18.231982">
				<ele>897.000000</ele>
			</trkpt>
			<trkpt lat="49.294275" lon="18.231802">
				<ele>898.000000</ele>
			</trkpt>
			<trkpt lat="49.294345" lon="18.231632">
				<ele>899.000000</ele>
			</trkpt>
			<trkpt lat="49.294545" lon="18.231165">
				<ele>902.000000</ele>
			</trkpt>
			<trkpt lat="49.294603" lon="18.230985">
				<ele>904.000000</ele>
			</trkpt>
			<trkpt lat="49.294644" lon="18.230850">
				<ele>905.000000</ele>
			</trkpt>
			<trkpt lat="49.294679" lon="18.230716">
				<ele>906.000000</ele>
			</trkpt>
			<trkpt lat="49.294714" lon="18.230374">
				<ele>909.000000</ele>
			</trkpt>
			<trkpt lat="49.294744" lon="18.229988">
				<ele>912.000000</ele>
			</trkpt>
			<trkpt lat="49.294738" lon="18.229827">
				<ele>912.000000</ele>
			</trkpt>
			<trkpt lat="49.294732" lon="18.229754">
				<ele>912.000000</ele>
			</trkpt>
			<trkpt lat="49.294703" lon="18.229701">
				<ele>912.000000</ele>
			</trkpt>
			<trkpt lat="49.294620" lon="18.229450">
				<ele>909.000000</ele>
			</trkpt>
			<trkpt lat="49.294591" lon="18.229351">
				<ele>907.000000</ele>
			</trkpt>
			<trkpt lat="49.294498" lon="18.229135">
				<ele>904.000000</ele>
			</trkpt>
			<trkpt lat="49.294468" lon="18.229081">
				<ele>904.000000</ele>
			</trkpt>
			<trkpt lat="49.294457" lon="18.229009">
				<ele>903.000000</ele>
			</trkpt>
			<trkpt lat="49.294416" lon="18.228722">
				<ele>899.000000</ele>
			</trkpt>
			<trkpt lat="49.294345" lon="18.228398">
				<ele>896.000000</ele>
			</trkpt>
			<trkpt lat="49.294316" lon="18.228246">
				<ele>895.000000</ele>
			</trkpt>
			<trkpt lat="49.294298" lon="18.228093">
				<ele>893.000000</ele>
			</trkpt>
			<trkpt lat="49.294292" lon="18.227949">
				<ele>891.000000</ele>
			</trkpt>
			<trkpt lat="49.294310" lon="18.227787">
				<ele>890.000000</ele>
			</trkpt>
			<trkpt lat="49.294345" lon="18.227446">
				<ele>886.000000</ele>
			</trkpt>
			<trkpt lat="49.294386" lon="18.227158">
				<ele>884.000000</ele>
			</trkpt>
			<trkpt lat="49.294445" lon="18.226844">
				<ele>882.000000</ele>
			</trkpt>
			<trkpt lat="49.294545" lon="18.226412">
				<ele>879.000000</ele>
			</trkpt>
			<trkpt lat="49.294603" lon="18.226224">
				<ele>877.000000</ele>
			</trkpt>
			<trkpt lat="49.294662" lon="18.226062">
				<ele>876.000000</ele>
			</trkpt>
			<trkpt lat="49.294708" lon="18.225955">
				<ele>875.000000</ele>
			</trkpt>
			<trkpt lat="49.294885" lon="18.225506">
				<ele>873.000000</ele>
			</trkpt>
			<trkpt lat="49.294996" lon="18.225192">
				<ele>872.000000</ele>
			</trkpt>
			<trkpt lat="49.295089" lon="18.224859">
				<ele>872.000000</ele>
			</trkpt>
			<trkpt lat="49.295177" lon="18.224490">
				<ele>872.000000</ele>
			</trkpt>
			<trkpt lat="49.295253" lon="18.223915">
				<ele>872.000000</ele>
			</trkpt>
			<trkpt lat="49.295312" lon="18.223672">
				<ele>872.000000</ele>
			</trkpt>
			<trkpt lat="49.295324" lon="18.223548">
				<ele>873.000000</ele>
			</trkpt>
			<trkpt lat="49.295365" lon="18.223116">
				<ele>873.000000</ele>
			</trkpt>
			<trkpt lat="49.295406" lon="18.222739">
				<ele>874.000000</ele>
			</trkpt>
			<trkpt lat="49.295435" lon="18.222496">
				<ele>875.000000</ele>
			</trkpt>
			<trkpt lat="49.295452" lon="18.222334">
				<ele>877.000000</ele>
			</trkpt>
			<trkpt lat="49.295446" lon="18.222164">
				<ele>878.000000</ele>
			</trkpt>
			<trkpt lat="49.295435" lon="18.222003">
				<ele>879.000000</ele>
			</trkpt>
			<trkpt lat="49.295418" lon="18.221930">
				<ele>879.000000</ele>
			</trkpt>
			<trkpt lat="49.295382" lon="18.221796">
				<ele>879.000000</ele>
			</trkpt>
			<trkpt lat="49.295365" lon="18.221760">
				<ele>879.000000</ele>
			</trkpt>
			<trkpt lat="49.295365" lon="18.221760">
				<ele>879.000000</ele>
			</trkpt>
			<trkpt lat="49.295318" lon="18.221661">
				<ele>879.000000</ele>
			</trkpt>
			<trkpt lat="49.295007" lon="18.221167">
				<ele>875.000000</ele>
			</trkpt>
			<trkpt lat="49.294755" lon="18.220798">
				<ele>871.000000</ele>
			</trkpt>
			<trkpt lat="49.294573" lon="18.220485">
				<ele>869.000000</ele>
			</trkpt>
			<trkpt lat="49.294521" lon="18.220412">
				<ele>868.000000</ele>
			</trkpt>
			<trkpt lat="49.294462" lon="18.220358">
				<ele>867.000000</ele>
			</trkpt>
			<trkpt lat="49.294380" lon="18.220286">
				<ele>866.000000</ele>
			</trkpt>
			<trkpt lat="49.294316" lon="18.220196">
				<ele>866.000000</ele>
			</trkpt>
			<trkpt lat="49.294252" lon="18.220106">
				<ele>865.000000</ele>
			</trkpt>
			<trkpt lat="49.294211" lon="18.220026">
				<ele>865.000000</ele>
			</trkpt>
			<trkpt lat="49.294146" lon="18.219890">
				<ele>864.000000</ele>
			</trkpt>
			<trkpt lat="49.294146" lon="18.219890">
				<ele>864.000000</ele>
			</trkpt>
			<trkpt lat="49.294029" lon="18.219666">
				<ele>862.000000</ele>
			</trkpt>
			<trkpt lat="49.293941" lon="18.219460">
				<ele>861.000000</ele>
			</trkpt>
			<trkpt lat="49.293724" lon="18.218957">
				<ele>858.000000</ele>
			</trkpt>
			<trkpt lat="49.293584" lon="18.218598">
				<ele>857.000000</ele>
			</trkpt>
			<trkpt lat="49.293466" lon="18.218282">
				<ele>856.000000</ele>
			</trkpt>
			<trkpt lat="49.293384" lon="18.217986">
				<ele>855.000000</ele>
			</trkpt>
			<trkpt lat="49.293338" lon="18.217708">
				<ele>854.000000</ele>
			</trkpt>
			<trkpt lat="49.293325" lon="18.217546">
				<ele>853.000000</ele>
			</trkpt>
			<trkpt lat="49.293320" lon="18.217403">
				<ele>852.000000</ele>
			</trkpt>
			<trkpt lat="49.293285" lon="18.216666">
				<ele>850.000000</ele>
			</trkpt>
			<trkpt lat="49.293297" lon="18.216343">
				<ele>849.000000</ele>
			</trkpt>
			<trkpt lat="49.293308" lon="18.216181">
				<ele>850.000000</ele>
			</trkpt>
			<trkpt lat="49.293332" lon="18.216001">
				<ele>850.000000</ele>
			</trkpt>
			<trkpt lat="49.293372" lon="18.215831">
				<ele>851.000000</ele>
			</trkpt>
			<trkpt lat="49.293425" lon="18.215642">
				<ele>850.000000</ele>
			</trkpt>
			<trkpt lat="49.293678" lon="18.214843">
				<ele>850.000000</ele>
			</trkpt>
			<trkpt lat="49.293800" lon="18.214456">
				<ele>851.000000</ele>
			</trkpt>
			<trkpt lat="49.293830" lon="18.214322">
				<ele>852.000000</ele>
			</trkpt>
			<trkpt lat="49.293853" lon="18.214204">
				<ele>853.000000</ele>
			</trkpt>
			<trkpt lat="49.293865" lon="18.214097">
				<ele>853.000000</ele>
			</trkpt>
			<trkpt lat="49.293847" lon="18.213990">
				<ele>854.000000</ele>
			</trkpt>
			<trkpt lat="49.293806" lon="18.213630">
				<ele>855.000000</ele>
			</trkpt>
			<trkpt lat="49.293736" lon="18.213235">
				<ele>853.000000</ele>
			</trkpt>
			<trkpt lat="49.293637" lon="18.212821">
				<ele>850.000000</ele>
			</trkpt>
			<trkpt lat="49.293490" lon="18.212246">
				<ele>847.000000</ele>
			</trkpt>
			<trkpt lat="49.293408" lon="18.212003">
				<ele>846.000000</ele>
			</trkpt>
			<trkpt lat="49.293325" lon="18.211824">
				<ele>845.000000</ele>
			</trkpt>
			<trkpt lat="49.293209" lon="18.211653">
				<ele>844.000000</ele>
			</trkpt>
			<trkpt lat="49.293115" lon="18.211492">
				<ele>845.000000</ele>
			</trkpt>
			<trkpt lat="49.293051" lon="18.211321">
				<ele>845.000000</ele>
			</trkpt>
			<trkpt lat="49.292992" lon="18.211114">
				<ele>846.000000</ele>
			</trkpt>
			<trkpt lat="49.292910" lon="18.210774">
				<ele>846.000000</ele>
			</trkpt>
			<trkpt lat="49.292828" lon="18.210495">
				<ele>846.000000</ele>
			</trkpt>
			<trkpt lat="49.292564" lon="18.209740">
				<ele>848.000000</ele>
			</trkpt>
			<trkpt lat="49.292511" lon="18.209579">
				<ele>848.000000</ele>
			</trkpt>
			<trkpt lat="49.292471" lon="18.209416">
				<ele>849.000000</ele>
			</trkpt>
			<trkpt lat="49.292453" lon="18.209237">
				<ele>849.000000</ele>
			</trkpt>
			<trkpt lat="49.292412" lon="18.208914">
				<ele>850.000000</ele>
			</trkpt>
			<trkpt lat="49.292377" lon="18.208546">
				<ele>850.000000</ele>
			</trkpt>
			<trkpt lat="49.292383" lon="18.208187">
				<ele>851.000000</ele>
			</trkpt>
			<trkpt lat="49.292400" lon="18.207818">
				<ele>853.000000</ele>
			</trkpt>
			<trkpt lat="49.292458" lon="18.207324">
				<ele>856.000000</ele>
			</trkpt>
			<trkpt lat="49.292494" lon="18.207063">
				<ele>858.000000</ele>
			</trkpt>
			<trkpt lat="49.292511" lon="18.206955">
				<ele>859.000000</ele>
			</trkpt>
			<trkpt lat="49.292541" lon="18.206848">
				<ele>859.000000</ele>
			</trkpt>
			<trkpt lat="49.292593" lon="18.206740">
				<ele>860.000000</ele>
			</trkpt>
			<trkpt lat="49.293015" lon="18.206040">
				<ele>862.000000</ele>
			</trkpt>
			<trkpt lat="49.293080" lon="18.205923">
				<ele>862.000000</ele>
			</trkpt>
			<trkpt lat="49.293121" lon="18.205814">
				<ele>863.000000</ele>
			</trkpt>
			<trkpt lat="49.293150" lon="18.205716">
				<ele>864.000000</ele>
			</trkpt>
			<trkpt lat="49.293179" lon="18.205608">
				<ele>865.000000</ele>
			</trkpt>
			<trkpt lat="49.293203" lon="18.205474">
				<ele>865.000000</ele>
			</trkpt>
			<trkpt lat="49.293244" lon="18.205338">
				<ele>865.000000</ele>
			</trkpt>
			<trkpt lat="49.293391" lon="18.204925">
				<ele>868.000000</ele>
			</trkpt>
			<trkpt lat="49.293449" lon="18.204674">
				<ele>868.000000</ele>
			</trkpt>
			<trkpt lat="49.293472" lon="18.204556">
				<ele>868.000000</ele>
			</trkpt>
			<trkpt lat="49.293484" lon="18.204458">
				<ele>867.000000</ele>
			</trkpt>
			<trkpt lat="49.293484" lon="18.204332">
				<ele>866.000000</ele>
			</trkpt>
			<trkpt lat="49.293478" lon="18.204225">
				<ele>865.000000</ele>
			</trkpt>
			<trkpt lat="49.293449" lon="18.204000">
				<ele>862.000000</ele>
			</trkpt>
			<trkpt lat="49.293361" lon="18.203569">
				<ele>857.000000</ele>
			</trkpt>
			<trkpt lat="49.293232" lon="18.202751">
				<ele>849.000000</ele>
			</trkpt>
			<trkpt lat="49.293179" lon="18.202455">
				<ele>848.000000</ele>
			</trkpt>
			<trkpt lat="49.293103" lon="18.202221">
				<ele>846.000000</ele>
			</trkpt>
			<trkpt lat="49.293021" lon="18.201969">
				<ele>844.000000</ele>
			</trkpt>
			<trkpt lat="49.292863" lon="18.201583">
				<ele>843.000000</ele>
			</trkpt>
			<trkpt lat="49.292734" lon="18.201287">
				<ele>843.000000</ele>
			</trkpt>
			<trkpt lat="49.292699" lon="18.201179">
				<ele>842.000000</ele>
			</trkpt>
			<trkpt lat="49.292676" lon="18.201053">
				<ele>842.000000</ele>
			</trkpt>
			<trkpt lat="49.292646" lon="18.200910">
				<ele>841.000000</ele>
			</trkpt>
			<trkpt lat="49.292593" lon="18.200811">
				<ele>840.000000</ele>
			</trkpt>
			<trkpt lat="49.292535" lon="18.200739">
				<ele>840.000000</ele>
			</trkpt>
			<trkpt lat="49.292453" lon="18.200676">
				<ele>839.000000</ele>
			</trkpt>
			<trkpt lat="49.292125" lon="18.200506">
				<ele>836.000000</ele>
			</trkpt>
			<trkpt lat="49.291720" lon="18.200245">
				<ele>832.000000</ele>
			</trkpt>
			<trkpt lat="49.291591" lon="18.200191">
				<ele>833.000000</ele>
			</trkpt>
			<trkpt lat="49.291591" lon="18.200191">
				<ele>833.000000</ele>
			</trkpt>
			<trkpt lat="49.291469" lon="18.200137">
				<ele>833.000000</ele>
			</trkpt>
			<trkpt lat="49.291322" lon="18.200057">
				<ele>833.000000</ele>
			</trkpt>
			<trkpt lat="49.291187" lon="18.199940">
				<ele>835.000000</ele>
			</trkpt>
			<trkpt lat="49.291047" lon="18.199787">
				<ele>836.000000</ele>
			</trkpt>
			<trkpt lat="49.290760" lon="18.199409">
				<ele>835.000000</ele>
			</trkpt>
			<trkpt lat="49.290613" lon="18.199221">
				<ele>836.000000</ele>
			</trkpt>
			<trkpt lat="49.290519" lon="18.199077">
				<ele>837.000000</ele>
			</trkpt>
			<trkpt lat="49.290431" lon="18.198925">
				<ele>839.000000</ele>
			</trkpt>
			<trkpt lat="49.290337" lon="18.198700">
				<ele>839.000000</ele>
			</trkpt>
			<trkpt lat="49.290232" lon="18.198439">
				<ele>840.000000</ele>
			</trkpt>
			<trkpt lat="49.290121" lon="18.198233">
				<ele>842.000000</ele>
			</trkpt>
			<trkpt lat="49.289992" lon="18.198026">
				<ele>844.000000</ele>
			</trkpt>
			<trkpt lat="49.289840" lon="18.197837">
				<ele>846.000000</ele>
			</trkpt>
			<trkpt lat="49.289705" lon="18.197640">
				<ele>849.000000</ele>
			</trkpt>
			<trkpt lat="49.289658" lon="18.197568">
				<ele>851.000000</ele>
			</trkpt>
			<trkpt lat="49.289629" lon="18.197487">
				<ele>852.000000</ele>
			</trkpt>
			<trkpt lat="49.289611" lon="18.197415">
				<ele>852.000000</ele>
			</trkpt>
			<trkpt lat="49.289605" lon="18.197334">
				<ele>852.000000</ele>
			</trkpt>
			<trkpt lat="49.289599" lon="18.197082">
				<ele>853.000000</ele>
			</trkpt>
			<trkpt lat="49.289652" lon="18.196256">
				<ele>851.000000</ele>
			</trkpt>
			<trkpt lat="49.289734" lon="18.195197">
				<ele>852.000000</ele>
			</trkpt>
			<trkpt lat="49.289840" lon="18.193992">
				<ele>857.000000</ele>
			</trkpt>
			<trkpt lat="49.289945" lon="18.192744">
				<ele>866.000000</ele>
			</trkpt>
			<trkpt lat="49.290010" lon="18.192223">
				<ele>870.000000</ele>
			</trkpt>
			<trkpt lat="49.290010" lon="18.192115">
				<ele>871.000000</ele>
			</trkpt>
			<trkpt lat="49.290004" lon="18.192017">
				<ele>871.000000</ele>
			</trkpt>
			<trkpt lat="49.289980" lon="18.191891">
				<ele>871.000000</ele>
			</trkpt>
			<trkpt lat="49.289945" lon="18.191782">
				<ele>870.000000</ele>
			</trkpt>
			<trkpt lat="49.289869" lon="18.191621">
				<ele>868.000000</ele>
			</trkpt>
			<trkpt lat="49.289776" lon="18.191442">
				<ele>867.000000</ele>
			</trkpt>
			<trkpt lat="49.288644" lon="18.189402">
				<ele>852.000000</ele>
			</trkpt>
			<trkpt lat="49.288463" lon="18.189071">
				<ele>850.000000</ele>
			</trkpt>
			<trkpt lat="49.288117" lon="18.188379">
				<ele>847.000000</ele>
			</trkpt>
			<trkpt lat="49.287842" lon="18.187893">
				<ele>845.000000</ele>
			</trkpt>
			<trkpt lat="49.287672" lon="18.187560">
				<ele>844.000000</ele>
			</trkpt>
			<trkpt lat="49.287525" lon="18.187255">
				<ele>844.000000</ele>
			</trkpt>
			<trkpt lat="49.287437" lon="18.186941">
				<ele>843.000000</ele>
			</trkpt>
			<trkpt lat="49.287396" lon="18.186788">
				<ele>843.000000</ele>
			</trkpt>
			<trkpt lat="49.287373" lon="18.186654">
				<ele>844.000000</ele>
			</trkpt>
			<trkpt lat="49.287115" lon="18.184821">
				<ele>858.000000</ele>
			</trkpt>
			<trkpt lat="49.286998" lon="18.183985">
				<ele>865.000000</ele>
			</trkpt>
			<trkpt lat="49.286998" lon="18.184057">
				<ele>865.000000</ele>
			</trkpt>
			<trkpt lat="49.286893" lon="18.184129">
				<ele>864.000000</ele>
			</trkpt>
			<trkpt lat="49.286781" lon="18.184165">
				<ele>861.000000</ele>
			</trkpt>
			<trkpt lat="49.286781" lon="18.184165">
				<ele>861.000000</ele>
			</trkpt>
			<trkpt lat="49.286893" lon="18.184129">
				<ele>864.000000</ele>
			</trkpt>
			<trkpt lat="49.286998" lon="18.184057">
				<ele>865.000000</ele>
			</trkpt>
			<trkpt lat="49.286998" lon="18.183985">
				<ele>865.000000</ele>
			</trkpt>
			<trkpt lat="49.286863" lon="18.184111">
				<ele>863.000000</ele>
			</trkpt>
			<trkpt lat="49.286758" lon="18.184201">
				<ele>861.000000</ele>
			</trkpt>
			<trkpt lat="49.286635" lon="18.184291">
				<ele>859.000000</ele>
			</trkpt>
			<trkpt lat="49.286535" lon="18.184336">
				<ele>857.000000</ele>
			</trkpt>
			<trkpt lat="49.286423" lon="18.184390">
				<ele>854.000000</ele>
			</trkpt>
			<trkpt lat="49.286307" lon="18.184408">
				<ele>851.000000</ele>
			</trkpt>
			<trkpt lat="49.286189" lon="18.184417">
				<ele>849.000000</ele>
			</trkpt>
			<trkpt lat="49.286031" lon="18.184408">
				<ele>845.000000</ele>
			</trkpt>
			<trkpt lat="49.285592" lon="18.184371">
				<ele>832.000000</ele>
			</trkpt>
			<trkpt lat="49.285445" lon="18.184381">
				<ele>829.000000</ele>
			</trkpt>
			<trkpt lat="49.285299" lon="18.184398">
				<ele>824.000000</ele>
			</trkpt>
			<trkpt lat="49.285164" lon="18.184434">
				<ele>820.000000</ele>
			</trkpt>
			<trkpt lat="49.285011" lon="18.184480">
				<ele>816.000000</ele>
			</trkpt>
			<trkpt lat="49.284859" lon="18.184551">
				<ele>810.000000</ele>
			</trkpt>
			<trkpt lat="49.284719" lon="18.184623">
				<ele>805.000000</ele>
			</trkpt>
			<trkpt lat="49.284191" lon="18.184902">
				<ele>785.000000</ele>
			</trkpt>
			<trkpt lat="49.283769" lon="18.185109">
				<ele>772.000000</ele>
			</trkpt>
			<trkpt lat="49.283342" lon="18.185279">
				<ele>760.000000</ele>
			</trkpt>
			<trkpt lat="49.282762" lon="18.185486">
				<ele>741.000000</ele>
			</trkpt>
			<trkpt lat="49.282498" lon="18.185576">
				<ele>737.000000</ele>
			</trkpt>
			<trkpt lat="49.282088" lon="18.185782">
				<ele>729.000000</ele>
			</trkpt>
			<trkpt lat="49.281912" lon="18.185845">
				<ele>726.000000</ele>
			</trkpt>
			<trkpt lat="49.281759" lon="18.185889">
				<ele>726.000000</ele>
			</trkpt>
			<trkpt lat="49.281624" lon="18.185908">
				<ele>728.000000</ele>
			</trkpt>
			<trkpt lat="49.281256" lon="18.185926">
				<ele>734.000000</ele>
			</trkpt>
			<trkpt lat="49.281243" lon="18.185926">
				<ele>734.000000</ele>
			</trkpt>
			<trkpt lat="49.281127" lon="18.185944">
				<ele>736.000000</ele>
			</trkpt>
			<trkpt lat="49.280839" lon="18.186006">
				<ele>741.000000</ele>
			</trkpt>
			<trkpt lat="49.280751" lon="18.186015">
				<ele>742.000000</ele>
			</trkpt>
			<trkpt lat="49.280640" lon="18.186006">
				<ele>743.000000</ele>
			</trkpt>
			<trkpt lat="49.280505" lon="18.185971">
				<ele>745.000000</ele>
			</trkpt>
			<trkpt lat="49.280429" lon="18.185944">
				<ele>746.000000</ele>
			</trkpt>
			<trkpt lat="49.280364" lon="18.185899">
				<ele>747.000000</ele>
			</trkpt>
			<trkpt lat="49.280295" lon="18.185818">
				<ele>748.000000</ele>
			</trkpt>
			<trkpt lat="49.279949" lon="18.185289">
				<ele>745.000000</ele>
			</trkpt>
			<trkpt lat="49.279761" lon="18.185027">
				<ele>745.000000</ele>
			</trkpt>
			<trkpt lat="49.279562" lon="18.184794">
				<ele>746.000000</ele>
			</trkpt>
			<trkpt lat="49.279456" lon="18.184713">
				<ele>746.000000</ele>
			</trkpt>
			<trkpt lat="49.279380" lon="18.184660">
				<ele>745.000000</ele>
			</trkpt>
			<trkpt lat="49.279328" lon="18.184650">
				<ele>743.000000</ele>
			</trkpt>
			<trkpt lat="49.279269" lon="18.184633">
				<ele>741.000000</ele>
			</trkpt>
			<trkpt lat="49.279193" lon="18.184623">
				<ele>739.000000</ele>
			</trkpt>
			<trkpt lat="49.278390" lon="18.184694">
				<ele>714.000000</ele>
			</trkpt>
			<trkpt lat="49.278103" lon="18.184686">
				<ele>706.000000</ele>
			</trkpt>
			<trkpt lat="49.277775" lon="18.184668">
				<ele>698.000000</ele>
			</trkpt>
			<trkpt lat="49.277440" lon="18.184597">
				<ele>691.000000</ele>
			</trkpt>
			<trkpt lat="49.277487" lon="18.184308">
				<ele>689.000000</ele>
			</trkpt>
			<trkpt lat="49.277528" lon="18.184129">
				<ele>688.000000</ele>
			</trkpt>
			<trkpt lat="49.277587" lon="18.183949">
				<ele>687.000000</ele>
			</trkpt>
			<trkpt lat="49.277587" lon="18.183949">
				<ele>687.000000</ele>
			</trkpt>
			<trkpt lat="49.277616" lon="18.183851">
				<ele>687.000000</ele>
			</trkpt>
			<trkpt lat="49.277739" lon="18.183249">
				<ele>683.000000</ele>
			</trkpt>
			<trkpt lat="49.277816" lon="18.182880">
				<ele>679.000000</ele>
			</trkpt>
			<trkpt lat="49.277880" lon="18.182503">
				<ele>677.000000</ele>
			</trkpt>
			<trkpt lat="49.278026" lon="18.181318">
				<ele>671.000000</ele>
			</trkpt>
			<trkpt lat="49.278085" lon="18.180878">
				<ele>668.000000</ele>
			</trkpt>
			<trkpt lat="49.278132" lon="18.180482">
				<ele>666.000000</ele>
			</trkpt>
			<trkpt lat="49.278156" lon="18.180339">
				<ele>665.000000</ele>
			</trkpt>
			<trkpt lat="49.278173" lon="18.180257">
				<ele>664.000000</ele>
			</trkpt>
			<trkpt lat="49.278208" lon="18.180186">
				<ele>663.000000</ele>
			</trkpt>
			<trkpt lat="49.278249" lon="18.180123">
				<ele>662.000000</ele>
			</trkpt>
			<trkpt lat="49.278296" lon="18.180050">
				<ele>662.000000</ele>
			</trkpt>
			<trkpt lat="49.278571" lon="18.179773">
				<ele>659.000000</ele>
			</trkpt>
			<trkpt lat="49.279087" lon="18.179323">
				<ele>652.000000</ele>
			</trkpt>
			<trkpt lat="49.279292" lon="18.179144">
				<ele>651.000000</ele>
			</trkpt>
			<trkpt lat="49.279450" lon="18.179044">
				<ele>649.000000</ele>
			</trkpt>
			<trkpt lat="49.279521" lon="18.179018">
				<ele>648.000000</ele>
			</trkpt>
			<trkpt lat="49.279603" lon="18.179000">
				<ele>647.000000</ele>
			</trkpt>
			<trkpt lat="49.279773" lon="18.178991">
				<ele>645.000000</ele>
			</trkpt>
			<trkpt lat="49.279837" lon="18.178981">
				<ele>644.000000</ele>
			</trkpt>
			<trkpt lat="49.279884" lon="18.178964">
				<ele>644.000000</ele>
			</trkpt>
			<trkpt lat="49.279931" lon="18.178918">
				<ele>643.000000</ele>
			</trkpt>
			<trkpt lat="49.279955" lon="18.178857">
				<ele>642.000000</ele>
			</trkpt>
			<trkpt lat="49.279978" lon="18.178775">
				<ele>642.000000</ele>
			</trkpt>
			<trkpt lat="49.279978" lon="18.178721">
				<ele>641.000000</ele>
			</trkpt>
			<trkpt lat="49.279972" lon="18.178649">
				<ele>641.000000</ele>
			</trkpt>
			<trkpt lat="49.279949" lon="18.178578">
				<ele>640.000000</ele>
			</trkpt>
			<trkpt lat="49.279896" lon="18.178470">
				<ele>639.000000</ele>
			</trkpt>
			<trkpt lat="49.279843" lon="18.178371">
				<ele>638.000000</ele>
			</trkpt>
			<trkpt lat="49.279662" lon="18.178119">
				<ele>636.000000</ele>
			</trkpt>
			<trkpt lat="49.279503" lon="18.177922">
				<ele>634.000000</ele>
			</trkpt>
			<trkpt lat="49.279444" lon="18.177832">
				<ele>633.000000</ele>
			</trkpt>
			<trkpt lat="49.279403" lon="18.177733">
				<ele>632.000000</ele>
			</trkpt>
			<trkpt lat="49.279363" lon="18.177616">
				<ele>631.000000</ele>
			</trkpt>
			<trkpt lat="49.279322" lon="18.177509">
				<ele>630.000000</ele>
			</trkpt>
			<trkpt lat="49.279286" lon="18.177383">
				<ele>629.000000</ele>
			</trkpt>
			<trkpt lat="49.279245" lon="18.177203">
				<ele>627.000000</ele>
			</trkpt>
			<trkpt lat="49.279222" lon="18.177060">
				<ele>626.000000</ele>
			</trkpt>
			<trkpt lat="49.279123" lon="18.176394">
				<ele>626.000000</ele>
			</trkpt>
			<trkpt lat="49.279052" lon="18.175775">
				<ele>623.000000</ele>
			</trkpt>
			<trkpt lat="49.278958" lon="18.174634">
				<ele>615.000000</ele>
			</trkpt>
			<trkpt lat="49.278929" lon="18.174347">
				<ele>613.000000</ele>
			</trkpt>
			<trkpt lat="49.278894" lon="18.174086">
				<ele>611.000000</ele>
			</trkpt>
			<trkpt lat="49.278847" lon="18.173834">
				<ele>609.000000</ele>
			</trkpt>
			<trkpt lat="49.278789" lon="18.173591">
				<ele>607.000000</ele>
			</trkpt>
			<trkpt lat="49.278712" lon="18.173368">
				<ele>604.000000</ele>
			</trkpt>
			<trkpt lat="49.278612" lon="18.173107">
				<ele>602.000000</ele>
			</trkpt>
			<trkpt lat="49.278501" lon="18.172838">
				<ele>599.000000</ele>
			</trkpt>
			<trkpt lat="49.278366" lon="18.172541">
				<ele>600.000000</ele>
			</trkpt>
			<trkpt lat="49.278255" lon="18.172280">
				<ele>599.000000</ele>
			</trkpt>
			<trkpt lat="49.278167" lon="18.172002">
				<ele>597.000000</ele>
			</trkpt>
			<trkpt lat="49.278062" lon="18.171633">
				<ele>596.000000</ele>
			</trkpt>
			<trkpt lat="49.277874" lon="18.170897">
				<ele>592.000000</ele>
			</trkpt>
			<trkpt lat="49.277786" lon="18.170528">
				<ele>590.000000</ele>
			</trkpt>
			<trkpt lat="49.277692" lon="18.170188">
				<ele>589.000000</ele>
			</trkpt>
			<trkpt lat="49.277487" lon="18.169423">
				<ele>584.000000</ele>
			</trkpt>
			<trkpt lat="49.277435" lon="18.169181">
				<ele>583.000000</ele>
			</trkpt>
			<trkpt lat="49.277393" lon="18.168912">
				<ele>582.000000</ele>
			</trkpt>
			<trkpt lat="49.277358" lon="18.168633">
				<ele>581.000000</ele>
			</trkpt>
			<trkpt lat="49.277329" lon="18.168373">
				<ele>580.000000</ele>
			</trkpt>
			<trkpt lat="49.277294" lon="18.167699">
				<ele>578.000000</ele>
			</trkpt>
			<trkpt lat="49.277294" lon="18.167465">
				<ele>576.000000</ele>
			</trkpt>
			<trkpt lat="49.277300" lon="18.167268">
				<ele>576.000000</ele>
			</trkpt>
			<trkpt lat="49.277352" lon="18.166666">
				<ele>576.000000</ele>
			</trkpt>
			<trkpt lat="49.277364" lon="18.166433">
				<ele>575.000000</ele>
			</trkpt>
			<trkpt lat="49.277393" lon="18.166064">
				<ele>574.000000</ele>
			</trkpt>
			<trkpt lat="49.277429" lon="18.165723">
				<ele>572.000000</ele>
			</trkpt>
			<trkpt lat="49.277482" lon="18.165399">
				<ele>569.000000</ele>
			</trkpt>
			<trkpt lat="49.277570" lon="18.164896">
				<ele>567.000000</ele>
			</trkpt>
			<trkpt lat="49.277622" lon="18.164609">
				<ele>566.000000</ele>
			</trkpt>
			<trkpt lat="49.277645" lon="18.164447">
				<ele>566.000000</ele>
			</trkpt>
			<trkpt lat="49.277651" lon="18.164295">
				<ele>566.000000</ele>
			</trkpt>
			<trkpt lat="49.277645" lon="18.164133">
				<ele>566.000000</ele>
			</trkpt>
			<trkpt lat="49.277563" lon="18.163163">
				<ele>563.000000</ele>
			</trkpt>
			<trkpt lat="49.277499" lon="18.162515">
				<ele>559.000000</ele>
			</trkpt>
			<trkpt lat="49.277476" lon="18.162399">
				<ele>559.000000</ele>
			</trkpt>
			<trkpt lat="49.277452" lon="18.162291">
				<ele>559.000000</ele>
			</trkpt>
			<trkpt lat="49.277411" lon="18.162192">
				<ele>559.000000</ele>
			</trkpt>
			<trkpt lat="49.277347" lon="18.162093">
				<ele>558.000000</ele>
			</trkpt>
			<trkpt lat="49.277288" lon="18.161986">
				<ele>558.000000</ele>
			</trkpt>
			<trkpt lat="49.277065" lon="18.161617">
				<ele>556.000000</ele>
			</trkpt>
			<trkpt lat="49.276948" lon="18.161375">
				<ele>555.000000</ele>
			</trkpt>
			<trkpt lat="49.276843" lon="18.161159">
				<ele>555.000000</ele>
			</trkpt>
			<trkpt lat="49.276743" lon="18.160907">
				<ele>554.000000</ele>
			</trkpt>
			<trkpt lat="49.276643" lon="18.160611">
				<ele>553.000000</ele>
			</trkpt>
			<trkpt lat="49.276526" lon="18.160333">
				<ele>552.000000</ele>
			</trkpt>
			<trkpt lat="49.276491" lon="18.160217">
				<ele>552.000000</ele>
			</trkpt>
			<trkpt lat="49.276468" lon="18.160091">
				<ele>551.000000</ele>
			</trkpt>
			<trkpt lat="49.276462" lon="18.159947">
				<ele>551.000000</ele>
			</trkpt>
			<trkpt lat="49.276468" lon="18.159794">
				<ele>551.000000</ele>
			</trkpt>
			<trkpt lat="49.276503" lon="18.159569">
				<ele>551.000000</ele>
			</trkpt>
			<trkpt lat="49.276556" lon="18.159299">
				<ele>550.000000</ele>
			</trkpt>
			<trkpt lat="49.276649" lon="18.158823">
				<ele>547.000000</ele>
			</trkpt>
			<trkpt lat="49.276761" lon="18.158267">
				<ele>545.000000</ele>
			</trkpt>
			<trkpt lat="49.276807" lon="18.157917">
				<ele>544.000000</ele>
			</trkpt>
			<trkpt lat="49.276860" lon="18.157261">
				<ele>544.000000</ele>
			</trkpt>
			<trkpt lat="49.276884" lon="18.156848">
				<ele>542.000000</ele>
			</trkpt>
			<trkpt lat="49.276901" lon="18.156407">
				<ele>540.000000</ele>
			</trkpt>
			<trkpt lat="49.276907" lon="18.156309">
				<ele>540.000000</ele>
			</trkpt>
			<trkpt lat="49.276913" lon="18.156246">
				<ele>539.000000</ele>
			</trkpt>
			<trkpt lat="49.276937" lon="18.156165">
				<ele>539.000000</ele>
			</trkpt>
			<trkpt lat="49.276977" lon="18.156039">
				<ele>539.000000</ele>
			</trkpt>
			<trkpt lat="49.277217" lon="18.155483">
				<ele>537.000000</ele>
			</trkpt>
			<trkpt lat="49.277305" lon="18.155213">
				<ele>536.000000</ele>
			</trkpt>
			<trkpt lat="49.277376" lon="18.154970">
				<ele>536.000000</ele>
			</trkpt>
			<trkpt lat="49.277417" lon="18.154781">
				<ele>535.000000</ele>
			</trkpt>
			<trkpt lat="49.277446" lon="18.154584">
				<ele>534.000000</ele>
			</trkpt>
			<trkpt lat="49.277470" lon="18.154368">
				<ele>533.000000</ele>
			</trkpt>
			<trkpt lat="49.277482" lon="18.154233">
				<ele>533.000000</ele>
			</trkpt>
			<trkpt lat="49.277487" lon="18.154125">
				<ele>533.000000</ele>
			</trkpt>
			<trkpt lat="49.277470" lon="18.154009">
				<ele>533.000000</ele>
			</trkpt>
			<trkpt lat="49.277446" lon="18.153875">
				<ele>533.000000</ele>
			</trkpt>
			<trkpt lat="49.277423" lon="18.153730">
				<ele>533.000000</ele>
			</trkpt>
			<trkpt lat="49.277411" lon="18.153605">
				<ele>533.000000</ele>
			</trkpt>
			<trkpt lat="49.277405" lon="18.153209">
				<ele>533.000000</ele>
			</trkpt>
			<trkpt lat="49.277382" lon="18.153011">
				<ele>532.000000</ele>
			</trkpt>
			<trkpt lat="49.277352" lon="18.152859">
				<ele>532.000000</ele>
			</trkpt>
			<trkpt lat="49.277288" lon="18.152733">
				<ele>531.000000</ele>
			</trkpt>
			<trkpt lat="49.277206" lon="18.152607">
				<ele>530.000000</ele>
			</trkpt>
			<trkpt lat="49.277124" lon="18.152500">
				<ele>530.000000</ele>
			</trkpt>
			<trkpt lat="49.276965" lon="18.152347">
				<ele>529.000000</ele>
			</trkpt>
			<trkpt lat="49.276896" lon="18.152284">
				<ele>529.000000</ele>
			</trkpt>
			<trkpt lat="49.276819" lon="18.152221">
				<ele>528.000000</ele>
			</trkpt>
			<trkpt lat="49.276514" lon="18.152104">
				<ele>527.000000</ele>
			</trkpt>
			<trkpt lat="49.276444" lon="18.152032">
				<ele>526.000000</ele>
			</trkpt>
			<trkpt lat="49.276391" lon="18.151961">
				<ele>526.000000</ele>
			</trkpt>
			<trkpt lat="49.276344" lon="18.151879">
				<ele>526.000000</ele>
			</trkpt>
			<trkpt lat="49.276291" lon="18.151781">
				<ele>525.000000</ele>
			</trkpt>
			<trkpt lat="49.276216" lon="18.151592">
				<ele>524.000000</ele>
			</trkpt>
			<trkpt lat="49.276180" lon="18.151493">
				<ele>524.000000</ele>
			</trkpt>
			<trkpt lat="49.276169" lon="18.151368">
				<ele>524.000000</ele>
			</trkpt>
			<trkpt lat="49.276057" lon="18.149688">
				<ele>520.000000</ele>
			</trkpt>
			<trkpt lat="49.276063" lon="18.149491">
				<ele>520.000000</ele>
			</trkpt>
			<trkpt lat="49.276081" lon="18.149319">
				<ele>519.000000</ele>
			</trkpt>
			<trkpt lat="49.276104" lon="18.149139">
				<ele>519.000000</ele>
			</trkpt>
			<trkpt lat="49.276151" lon="18.148898">
				<ele>518.000000</ele>
			</trkpt>
			<trkpt lat="49.276274" lon="18.148422">
				<ele>516.000000</ele>
			</trkpt>
			<trkpt lat="49.276415" lon="18.147999">
				<ele>516.000000</ele>
			</trkpt>
			<trkpt lat="49.276497" lon="18.147783">
				<ele>515.000000</ele>
			</trkpt>
		</trkseg>
	</trk>
</gpx>

