<?xml version="1.0" encoding="utf-8"?>
<gpx xmlns="http://www.topografix.com/GPX/1/1" version="1.1" creator="https://mapy.cz/">
	<trk>
		<name>14.Návojná - Popov v2</name>
		<trkseg>
			<trkpt lat="49.108026" lon="18.047945">
				<ele>364.000000</ele>
			</trkpt>
			<trkpt lat="49.108014" lon="18.047962">
				<ele>364.000000</ele>
			</trkpt>
			<trkpt lat="49.107973" lon="18.047809">
				<ele>364.000000</ele>
			</trkpt>
			<trkpt lat="49.107914" lon="18.047675">
				<ele>363.000000</ele>
			</trkpt>
			<trkpt lat="49.107855" lon="18.047576">
				<ele>363.000000</ele>
			</trkpt>
			<trkpt lat="49.107673" lon="18.047325">
				<ele>363.000000</ele>
			</trkpt>
			<trkpt lat="49.107631" lon="18.047280">
				<ele>363.000000</ele>
			</trkpt>
			<trkpt lat="49.107573" lon="18.047270">
				<ele>362.000000</ele>
			</trkpt>
			<trkpt lat="49.107520" lon="18.047298">
				<ele>362.000000</ele>
			</trkpt>
			<trkpt lat="49.107491" lon="18.047360">
				<ele>362.000000</ele>
			</trkpt>
			<trkpt lat="49.107426" lon="18.047532">
				<ele>362.000000</ele>
			</trkpt>
			<trkpt lat="49.107426" lon="18.047532">
				<ele>362.000000</ele>
			</trkpt>
			<trkpt lat="49.107143" lon="18.048312">
				<ele>364.000000</ele>
			</trkpt>
			<trkpt lat="49.107126" lon="18.048358">
				<ele>364.000000</ele>
			</trkpt>
			<trkpt lat="49.107096" lon="18.048367">
				<ele>364.000000</ele>
			</trkpt>
			<trkpt lat="49.107061" lon="18.048367">
				<ele>364.000000</ele>
			</trkpt>
			<trkpt lat="49.107026" lon="18.048348">
				<ele>364.000000</ele>
			</trkpt>
			<trkpt lat="49.106520" lon="18.047918">
				<ele>362.000000</ele>
			</trkpt>
			<trkpt lat="49.105515" lon="18.047010">
				<ele>360.000000</ele>
			</trkpt>
			<trkpt lat="49.105109" lon="18.046669">
				<ele>359.000000</ele>
			</trkpt>
			<trkpt lat="49.104914" lon="18.046480">
				<ele>359.000000</ele>
			</trkpt>
			<trkpt lat="49.104556" lon="18.046130">
				<ele>358.000000</ele>
			</trkpt>
			<trkpt lat="49.104321" lon="18.045897">
				<ele>357.000000</ele>
			</trkpt>
			<trkpt lat="49.104056" lon="18.045672">
				<ele>357.000000</ele>
			</trkpt>
			<trkpt lat="49.103850" lon="18.045537">
				<ele>357.000000</ele>
			</trkpt>
			<trkpt lat="49.103721" lon="18.045465">
				<ele>357.000000</ele>
			</trkpt>
			<trkpt lat="49.103603" lon="18.045411">
				<ele>356.000000</ele>
			</trkpt>
			<trkpt lat="49.103497" lon="18.045375">
				<ele>357.000000</ele>
			</trkpt>
			<trkpt lat="49.103350" lon="18.045366">
				<ele>357.000000</ele>
			</trkpt>
			<trkpt lat="49.103315" lon="18.045465">
				<ele>358.000000</ele>
			</trkpt>
			<trkpt lat="49.103221" lon="18.045654">
				<ele>360.000000</ele>
			</trkpt>
			<trkpt lat="49.103044" lon="18.045501">
				<ele>360.000000</ele>
			</trkpt>
			<trkpt lat="49.103044" lon="18.045501">
				<ele>360.000000</ele>
			</trkpt>
			<trkpt lat="49.102850" lon="18.045331">
				<ele>361.000000</ele>
			</trkpt>
			<trkpt lat="49.102592" lon="18.045132">
				<ele>361.000000</ele>
			</trkpt>
			<trkpt lat="49.102321" lon="18.044962">
				<ele>360.000000</ele>
			</trkpt>
			<trkpt lat="49.102209" lon="18.044918">
				<ele>360.000000</ele>
			</trkpt>
			<trkpt lat="49.101991" lon="18.044809">
				<ele>359.000000</ele>
			</trkpt>
			<trkpt lat="49.101874" lon="18.044773">
				<ele>359.000000</ele>
			</trkpt>
			<trkpt lat="49.101362" lon="18.044630">
				<ele>359.000000</ele>
			</trkpt>
			<trkpt lat="49.101309" lon="18.044630">
				<ele>359.000000</ele>
			</trkpt>
			<trkpt lat="49.101186" lon="18.044639">
				<ele>359.000000</ele>
			</trkpt>
			<trkpt lat="49.101057" lon="18.044666">
				<ele>358.000000</ele>
			</trkpt>
			<trkpt lat="49.100998" lon="18.044666">
				<ele>358.000000</ele>
			</trkpt>
			<trkpt lat="49.100921" lon="18.044648">
				<ele>359.000000</ele>
			</trkpt>
			<trkpt lat="49.100868" lon="18.044612">
				<ele>359.000000</ele>
			</trkpt>
			<trkpt lat="49.100833" lon="18.044576">
				<ele>359.000000</ele>
			</trkpt>
			<trkpt lat="49.100804" lon="18.044503">
				<ele>358.000000</ele>
			</trkpt>
			<trkpt lat="49.100768" lon="18.044406">
				<ele>358.000000</ele>
			</trkpt>
			<trkpt lat="49.100715" lon="18.044262">
				<ele>358.000000</ele>
			</trkpt>
			<trkpt lat="49.100656" lon="18.044153">
				<ele>358.000000</ele>
			</trkpt>
			<trkpt lat="49.100598" lon="18.044054">
				<ele>358.000000</ele>
			</trkpt>
			<trkpt lat="49.100503" lon="18.043938">
				<ele>358.000000</ele>
			</trkpt>
			<trkpt lat="49.100110" lon="18.043461">
				<ele>356.000000</ele>
			</trkpt>
			<trkpt lat="49.099839" lon="18.043102">
				<ele>354.000000</ele>
			</trkpt>
			<trkpt lat="49.099527" lon="18.042626">
				<ele>353.000000</ele>
			</trkpt>
			<trkpt lat="49.098998" lon="18.041819">
				<ele>351.000000</ele>
			</trkpt>
			<trkpt lat="49.098922" lon="18.041702">
				<ele>351.000000</ele>
			</trkpt>
			<trkpt lat="49.098980" lon="18.041593">
				<ele>351.000000</ele>
			</trkpt>
			<trkpt lat="49.099098" lon="18.041440">
				<ele>349.000000</ele>
			</trkpt>
			<trkpt lat="49.099157" lon="18.041342">
				<ele>347.000000</ele>
			</trkpt>
			<trkpt lat="49.099215" lon="18.041216">
				<ele>345.000000</ele>
			</trkpt>
			<trkpt lat="49.099280" lon="18.041010">
				<ele>346.000000</ele>
			</trkpt>
			<trkpt lat="49.099174" lon="18.040937">
				<ele>346.000000</ele>
			</trkpt>
			<trkpt lat="49.099075" lon="18.040838">
				<ele>346.000000</ele>
			</trkpt>
			<trkpt lat="49.099075" lon="18.040838">
				<ele>346.000000</ele>
			</trkpt>
			<trkpt lat="49.098986" lon="18.040750">
				<ele>346.000000</ele>
			</trkpt>
			<trkpt lat="49.098780" lon="18.040578">
				<ele>346.000000</ele>
			</trkpt>
			<trkpt lat="49.098710" lon="18.040507">
				<ele>346.000000</ele>
			</trkpt>
			<trkpt lat="49.098657" lon="18.040408">
				<ele>345.000000</ele>
			</trkpt>
			<trkpt lat="49.098598" lon="18.040282">
				<ele>345.000000</ele>
			</trkpt>
			<trkpt lat="49.098557" lon="18.040129">
				<ele>345.000000</ele>
			</trkpt>
			<trkpt lat="49.098510" lon="18.039905">
				<ele>345.000000</ele>
			</trkpt>
			<trkpt lat="49.098440" lon="18.039456">
				<ele>345.000000</ele>
			</trkpt>
			<trkpt lat="49.098368" lon="18.039186">
				<ele>344.000000</ele>
			</trkpt>
			<trkpt lat="49.098334" lon="18.039079">
				<ele>344.000000</ele>
			</trkpt>
			<trkpt lat="49.098292" lon="18.038979">
				<ele>344.000000</ele>
			</trkpt>
			<trkpt lat="49.098251" lon="18.038907">
				<ele>344.000000</ele>
			</trkpt>
			<trkpt lat="49.098198" lon="18.038836">
				<ele>344.000000</ele>
			</trkpt>
			<trkpt lat="49.098139" lon="18.038764">
				<ele>344.000000</ele>
			</trkpt>
			<trkpt lat="49.098039" lon="18.038656">
				<ele>345.000000</ele>
			</trkpt>
			<trkpt lat="49.097963" lon="18.038603">
				<ele>345.000000</ele>
			</trkpt>
			<trkpt lat="49.097874" lon="18.038557">
				<ele>344.000000</ele>
			</trkpt>
			<trkpt lat="49.097763" lon="18.038494">
				<ele>344.000000</ele>
			</trkpt>
			<trkpt lat="49.097634" lon="18.038458">
				<ele>343.000000</ele>
			</trkpt>
			<trkpt lat="49.097369" lon="18.038458">
				<ele>343.000000</ele>
			</trkpt>
			<trkpt lat="49.097192" lon="18.038414">
				<ele>343.000000</ele>
			</trkpt>
			<trkpt lat="49.096998" lon="18.038333">
				<ele>343.000000</ele>
			</trkpt>
			<trkpt lat="49.096728" lon="18.038207">
				<ele>342.000000</ele>
			</trkpt>
			<trkpt lat="49.096563" lon="18.038108">
				<ele>342.000000</ele>
			</trkpt>
			<trkpt lat="49.096475" lon="18.038027">
				<ele>342.000000</ele>
			</trkpt>
			<trkpt lat="49.096392" lon="18.037947">
				<ele>342.000000</ele>
			</trkpt>
			<trkpt lat="49.096198" lon="18.037605">
				<ele>341.000000</ele>
			</trkpt>
			<trkpt lat="49.096093" lon="18.037471">
				<ele>341.000000</ele>
			</trkpt>
			<trkpt lat="49.095969" lon="18.037354">
				<ele>341.000000</ele>
			</trkpt>
			<trkpt lat="49.095757" lon="18.037192">
				<ele>340.000000</ele>
			</trkpt>
			<trkpt lat="49.095645" lon="18.037093">
				<ele>340.000000</ele>
			</trkpt>
			<trkpt lat="49.095504" lon="18.036940">
				<ele>340.000000</ele>
			</trkpt>
			<trkpt lat="49.095393" lon="18.036769">
				<ele>341.000000</ele>
			</trkpt>
			<trkpt lat="49.095304" lon="18.036616">
				<ele>341.000000</ele>
			</trkpt>
			<trkpt lat="49.095245" lon="18.036473">
				<ele>340.000000</ele>
			</trkpt>
			<trkpt lat="49.095192" lon="18.036339">
				<ele>340.000000</ele>
			</trkpt>
			<trkpt lat="49.095145" lon="18.036167">
				<ele>339.000000</ele>
			</trkpt>
			<trkpt lat="49.095104" lon="18.035997">
				<ele>339.000000</ele>
			</trkpt>
			<trkpt lat="49.095075" lon="18.035844">
				<ele>339.000000</ele>
			</trkpt>
			<trkpt lat="49.094992" lon="18.035224">
				<ele>338.000000</ele>
			</trkpt>
			<trkpt lat="49.094951" lon="18.035062">
				<ele>338.000000</ele>
			</trkpt>
			<trkpt lat="49.094898" lon="18.034892">
				<ele>338.000000</ele>
			</trkpt>
			<trkpt lat="49.094833" lon="18.034695">
				<ele>338.000000</ele>
			</trkpt>
			<trkpt lat="49.094739" lon="18.034488">
				<ele>338.000000</ele>
			</trkpt>
			<trkpt lat="49.094493" lon="18.033976">
				<ele>337.000000</ele>
			</trkpt>
			<trkpt lat="49.094451" lon="18.033877">
				<ele>337.000000</ele>
			</trkpt>
			<trkpt lat="49.094434" lon="18.033823">
				<ele>337.000000</ele>
			</trkpt>
			<trkpt lat="49.094404" lon="18.033643">
				<ele>337.000000</ele>
			</trkpt>
			<trkpt lat="49.094398" lon="18.033437">
				<ele>337.000000</ele>
			</trkpt>
			<trkpt lat="49.094404" lon="18.033230">
				<ele>337.000000</ele>
			</trkpt>
			<trkpt lat="49.094457" lon="18.032916">
				<ele>337.000000</ele>
			</trkpt>
			<trkpt lat="49.094545" lon="18.032494">
				<ele>336.000000</ele>
			</trkpt>
			<trkpt lat="49.094545" lon="18.032494">
				<ele>336.000000</ele>
			</trkpt>
			<trkpt lat="49.094610" lon="18.032206">
				<ele>335.000000</ele>
			</trkpt>
			<trkpt lat="49.094646" lon="18.031999">
				<ele>335.000000</ele>
			</trkpt>
			<trkpt lat="49.094657" lon="18.031756">
				<ele>334.000000</ele>
			</trkpt>
			<trkpt lat="49.094663" lon="18.031550">
				<ele>334.000000</ele>
			</trkpt>
			<trkpt lat="49.094651" lon="18.031379">
				<ele>334.000000</ele>
			</trkpt>
			<trkpt lat="49.094622" lon="18.031200">
				<ele>334.000000</ele>
			</trkpt>
			<trkpt lat="49.094545" lon="18.030922">
				<ele>334.000000</ele>
			</trkpt>
			<trkpt lat="49.094540" lon="18.030840">
				<ele>334.000000</ele>
			</trkpt>
			<trkpt lat="49.094516" lon="18.030760">
				<ele>334.000000</ele>
			</trkpt>
			<trkpt lat="49.094498" lon="18.030687">
				<ele>334.000000</ele>
			</trkpt>
			<trkpt lat="49.094498" lon="18.030634">
				<ele>334.000000</ele>
			</trkpt>
			<trkpt lat="49.094521" lon="18.030185">
				<ele>334.000000</ele>
			</trkpt>
			<trkpt lat="49.094516" lon="18.030060">
				<ele>334.000000</ele>
			</trkpt>
			<trkpt lat="49.094498" lon="18.029987">
				<ele>334.000000</ele>
			</trkpt>
			<trkpt lat="49.094457" lon="18.029915">
				<ele>334.000000</ele>
			</trkpt>
			<trkpt lat="49.094392" lon="18.029871">
				<ele>333.000000</ele>
			</trkpt>
			<trkpt lat="49.094481" lon="18.029582">
				<ele>333.000000</ele>
			</trkpt>
			<trkpt lat="49.094510" lon="18.029494">
				<ele>333.000000</ele>
			</trkpt>
			<trkpt lat="49.094510" lon="18.029494">
				<ele>333.000000</ele>
			</trkpt>
			<trkpt lat="49.094610" lon="18.029179">
				<ele>332.000000</ele>
			</trkpt>
			<trkpt lat="49.094792" lon="18.028649">
				<ele>332.000000</ele>
			</trkpt>
			<trkpt lat="49.094863" lon="18.028469">
				<ele>332.000000</ele>
			</trkpt>
			<trkpt lat="49.094910" lon="18.028290">
				<ele>332.000000</ele>
			</trkpt>
			<trkpt lat="49.095004" lon="18.027913">
				<ele>332.000000</ele>
			</trkpt>
			<trkpt lat="49.094775" lon="18.027777">
				<ele>332.000000</ele>
			</trkpt>
			<trkpt lat="49.094828" lon="18.027643">
				<ele>332.000000</ele>
			</trkpt>
			<trkpt lat="49.094892" lon="18.027463">
				<ele>332.000000</ele>
			</trkpt>
			<trkpt lat="49.094892" lon="18.027463">
				<ele>332.000000</ele>
			</trkpt>
			<trkpt lat="49.094975" lon="18.027230">
				<ele>331.000000</ele>
			</trkpt>
			<trkpt lat="49.095034" lon="18.027041">
				<ele>330.000000</ele>
			</trkpt>
			<trkpt lat="49.095063" lon="18.026915">
				<ele>330.000000</ele>
			</trkpt>
			<trkpt lat="49.095087" lon="18.026762">
				<ele>330.000000</ele>
			</trkpt>
			<trkpt lat="49.095092" lon="18.026619">
				<ele>330.000000</ele>
			</trkpt>
			<trkpt lat="49.095081" lon="18.026358">
				<ele>329.000000</ele>
			</trkpt>
			<trkpt lat="49.095051" lon="18.026079">
				<ele>330.000000</ele>
			</trkpt>
			<trkpt lat="49.095034" lon="18.025953">
				<ele>330.000000</ele>
			</trkpt>
			<trkpt lat="49.095022" lon="18.025855">
				<ele>329.000000</ele>
			</trkpt>
			<trkpt lat="49.094928" lon="18.025567">
				<ele>330.000000</ele>
			</trkpt>
			<trkpt lat="49.094898" lon="18.025442">
				<ele>329.000000</ele>
			</trkpt>
			<trkpt lat="49.094663" lon="18.024400">
				<ele>330.000000</ele>
			</trkpt>
			<trkpt lat="49.094622" lon="18.024202">
				<ele>330.000000</ele>
			</trkpt>
			<trkpt lat="49.094593" lon="18.023968">
				<ele>330.000000</ele>
			</trkpt>
			<trkpt lat="49.094475" lon="18.023924">
				<ele>330.000000</ele>
			</trkpt>
			<trkpt lat="49.094475" lon="18.023924">
				<ele>330.000000</ele>
			</trkpt>
			<trkpt lat="49.093916" lon="18.023708">
				<ele>329.000000</ele>
			</trkpt>
			<trkpt lat="49.093257" lon="18.023448">
				<ele>329.000000</ele>
			</trkpt>
			<trkpt lat="49.093080" lon="18.023385">
				<ele>328.000000</ele>
			</trkpt>
			<trkpt lat="49.092957" lon="18.023322">
				<ele>328.000000</ele>
			</trkpt>
			<trkpt lat="49.092839" lon="18.023240">
				<ele>328.000000</ele>
			</trkpt>
			<trkpt lat="49.092751" lon="18.023169">
				<ele>328.000000</ele>
			</trkpt>
			<trkpt lat="49.092628" lon="18.023026">
				<ele>328.000000</ele>
			</trkpt>
			<trkpt lat="49.092533" lon="18.022873">
				<ele>328.000000</ele>
			</trkpt>
			<trkpt lat="49.092416" lon="18.022674">
				<ele>328.000000</ele>
			</trkpt>
			<trkpt lat="49.092374" lon="18.022693">
				<ele>328.000000</ele>
			</trkpt>
			<trkpt lat="49.092333" lon="18.022693">
				<ele>328.000000</ele>
			</trkpt>
			<trkpt lat="49.092298" lon="18.022648">
				<ele>328.000000</ele>
			</trkpt>
			<trkpt lat="49.092280" lon="18.022594">
				<ele>328.000000</ele>
			</trkpt>
			<trkpt lat="49.092280" lon="18.022523">
				<ele>328.000000</ele>
			</trkpt>
			<trkpt lat="49.092210" lon="18.022468">
				<ele>328.000000</ele>
			</trkpt>
			<trkpt lat="49.092116" lon="18.022433">
				<ele>328.000000</ele>
			</trkpt>
			<trkpt lat="49.091969" lon="18.022414">
				<ele>328.000000</ele>
			</trkpt>
			<trkpt lat="49.091780" lon="18.022397">
				<ele>327.000000</ele>
			</trkpt>
			<trkpt lat="49.091663" lon="18.022406">
				<ele>328.000000</ele>
			</trkpt>
			<trkpt lat="49.091569" lon="18.022414">
				<ele>328.000000</ele>
			</trkpt>
			<trkpt lat="49.091345" lon="18.022496">
				<ele>328.000000</ele>
			</trkpt>
			<trkpt lat="49.091304" lon="18.022361">
				<ele>328.000000</ele>
			</trkpt>
			<trkpt lat="49.091145" lon="18.022307">
				<ele>327.000000</ele>
			</trkpt>
			<trkpt lat="49.090675" lon="18.022198">
				<ele>327.000000</ele>
			</trkpt>
			<trkpt lat="49.090663" lon="18.021921">
				<ele>327.000000</ele>
			</trkpt>
			<trkpt lat="49.090663" lon="18.021921">
				<ele>327.000000</ele>
			</trkpt>
			<trkpt lat="49.090645" lon="18.021615">
				<ele>326.000000</ele>
			</trkpt>
			<trkpt lat="49.090639" lon="18.021471">
				<ele>325.000000</ele>
			</trkpt>
			<trkpt lat="49.090645" lon="18.021184">
				<ele>326.000000</ele>
			</trkpt>
			<trkpt lat="49.090398" lon="18.021085">
				<ele>325.000000</ele>
			</trkpt>
			<trkpt lat="49.090263" lon="18.021022">
				<ele>325.000000</ele>
			</trkpt>
			<trkpt lat="49.090263" lon="18.020806">
				<ele>325.000000</ele>
			</trkpt>
			<trkpt lat="49.090263" lon="18.020806">
				<ele>325.000000</ele>
			</trkpt>
			<trkpt lat="49.090263" lon="18.020563">
				<ele>326.000000</ele>
			</trkpt>
			<trkpt lat="49.090263" lon="18.020303">
				<ele>327.000000</ele>
			</trkpt>
			<trkpt lat="49.090245" lon="18.020240">
				<ele>327.000000</ele>
			</trkpt>
			<trkpt lat="49.090222" lon="18.020177">
				<ele>327.000000</ele>
			</trkpt>
			<trkpt lat="49.090186" lon="18.020124">
				<ele>327.000000</ele>
			</trkpt>
			<trkpt lat="49.090110" lon="18.020052">
				<ele>327.000000</ele>
			</trkpt>
			<trkpt lat="49.090045" lon="18.019989">
				<ele>328.000000</ele>
			</trkpt>
			<trkpt lat="49.090004" lon="18.019953">
				<ele>328.000000</ele>
			</trkpt>
			<trkpt lat="49.089974" lon="18.019890">
				<ele>328.000000</ele>
			</trkpt>
			<trkpt lat="49.089980" lon="18.019837">
				<ele>328.000000</ele>
			</trkpt>
			<trkpt lat="49.089980" lon="18.019774">
				<ele>329.000000</ele>
			</trkpt>
			<trkpt lat="49.089992" lon="18.019728">
				<ele>329.000000</ele>
			</trkpt>
			<trkpt lat="49.090010" lon="18.019693">
				<ele>330.000000</ele>
			</trkpt>
			<trkpt lat="49.090040" lon="18.019666">
				<ele>330.000000</ele>
			</trkpt>
			<trkpt lat="49.090116" lon="18.019638">
				<ele>331.000000</ele>
			</trkpt>
			<trkpt lat="49.090298" lon="18.019621">
				<ele>333.000000</ele>
			</trkpt>
			<trkpt lat="49.090410" lon="18.019603">
				<ele>334.000000</ele>
			</trkpt>
			<trkpt lat="49.090504" lon="18.019584">
				<ele>334.000000</ele>
			</trkpt>
			<trkpt lat="49.090604" lon="18.019531">
				<ele>334.000000</ele>
			</trkpt>
			<trkpt lat="49.090763" lon="18.019432">
				<ele>335.000000</ele>
			</trkpt>
			<trkpt lat="49.090957" lon="18.019324">
				<ele>336.000000</ele>
			</trkpt>
			<trkpt lat="49.091639" lon="18.018884">
				<ele>338.000000</ele>
			</trkpt>
			<trkpt lat="49.092145" lon="18.018561">
				<ele>339.000000</ele>
			</trkpt>
			<trkpt lat="49.092563" lon="18.018273">
				<ele>339.000000</ele>
			</trkpt>
			<trkpt lat="49.092769" lon="18.018129">
				<ele>341.000000</ele>
			</trkpt>
			<trkpt lat="49.092922" lon="18.017986">
				<ele>342.000000</ele>
			</trkpt>
			<trkpt lat="49.093063" lon="18.017850">
				<ele>344.000000</ele>
			</trkpt>
			<trkpt lat="49.093163" lon="18.017699">
				<ele>344.000000</ele>
			</trkpt>
			<trkpt lat="49.093257" lon="18.017546">
				<ele>346.000000</ele>
			</trkpt>
			<trkpt lat="49.093333" lon="18.017357">
				<ele>346.000000</ele>
			</trkpt>
			<trkpt lat="49.093404" lon="18.017141">
				<ele>347.000000</ele>
			</trkpt>
			<trkpt lat="49.093457" lon="18.016944">
				<ele>347.000000</ele>
			</trkpt>
			<trkpt lat="49.093486" lon="18.016737">
				<ele>347.000000</ele>
			</trkpt>
			<trkpt lat="49.093498" lon="18.016575">
				<ele>347.000000</ele>
			</trkpt>
			<trkpt lat="49.093516" lon="18.016422">
				<ele>347.000000</ele>
			</trkpt>
			<trkpt lat="49.093510" lon="18.016261">
				<ele>347.000000</ele>
			</trkpt>
			<trkpt lat="49.093504" lon="18.016108">
				<ele>347.000000</ele>
			</trkpt>
			<trkpt lat="49.093481" lon="18.015929">
				<ele>347.000000</ele>
			</trkpt>
			<trkpt lat="49.093451" lon="18.015776">
				<ele>346.000000</ele>
			</trkpt>
			<trkpt lat="49.093398" lon="18.015569">
				<ele>346.000000</ele>
			</trkpt>
			<trkpt lat="49.093369" lon="18.015426">
				<ele>346.000000</ele>
			</trkpt>
			<trkpt lat="49.093345" lon="18.015273">
				<ele>346.000000</ele>
			</trkpt>
			<trkpt lat="49.093351" lon="18.015139">
				<ele>346.000000</ele>
			</trkpt>
			<trkpt lat="49.093363" lon="18.014877">
				<ele>346.000000</ele>
			</trkpt>
			<trkpt lat="49.093369" lon="18.014752">
				<ele>346.000000</ele>
			</trkpt>
			<trkpt lat="49.093351" lon="18.014608">
				<ele>346.000000</ele>
			</trkpt>
			<trkpt lat="49.093304" lon="18.014158">
				<ele>346.000000</ele>
			</trkpt>
			<trkpt lat="49.093233" lon="18.013611">
				<ele>347.000000</ele>
			</trkpt>
			<trkpt lat="49.093157" lon="18.013152">
				<ele>348.000000</ele>
			</trkpt>
			<trkpt lat="49.093046" lon="18.012560">
				<ele>350.000000</ele>
			</trkpt>
			<trkpt lat="49.092981" lon="18.012120">
				<ele>350.000000</ele>
			</trkpt>
			<trkpt lat="49.092887" lon="18.011428">
				<ele>352.000000</ele>
			</trkpt>
			<trkpt lat="49.092875" lon="18.011284">
				<ele>352.000000</ele>
			</trkpt>
			<trkpt lat="49.092869" lon="18.011131">
				<ele>352.000000</ele>
			</trkpt>
			<trkpt lat="49.092875" lon="18.010988">
				<ele>353.000000</ele>
			</trkpt>
			<trkpt lat="49.092892" lon="18.010835">
				<ele>353.000000</ele>
			</trkpt>
			<trkpt lat="49.092928" lon="18.010665">
				<ele>354.000000</ele>
			</trkpt>
			<trkpt lat="49.092968" lon="18.010485">
				<ele>355.000000</ele>
			</trkpt>
			<trkpt lat="49.093027" lon="18.010296">
				<ele>356.000000</ele>
			</trkpt>
			<trkpt lat="49.093093" lon="18.010152">
				<ele>357.000000</ele>
			</trkpt>
			<trkpt lat="49.093174" lon="18.010018">
				<ele>359.000000</ele>
			</trkpt>
			<trkpt lat="49.093375" lon="18.009766">
				<ele>360.000000</ele>
			</trkpt>
			<trkpt lat="49.093587" lon="18.009497">
				<ele>362.000000</ele>
			</trkpt>
			<trkpt lat="49.093692" lon="18.009334">
				<ele>363.000000</ele>
			</trkpt>
			<trkpt lat="49.093793" lon="18.009164">
				<ele>364.000000</ele>
			</trkpt>
			<trkpt lat="49.093863" lon="18.008994">
				<ele>365.000000</ele>
			</trkpt>
			<trkpt lat="49.094057" lon="18.008437">
				<ele>367.000000</ele>
			</trkpt>
			<trkpt lat="49.094104" lon="18.008302">
				<ele>368.000000</ele>
			</trkpt>
			<trkpt lat="49.094163" lon="18.008202">
				<ele>368.000000</ele>
			</trkpt>
			<trkpt lat="49.094228" lon="18.008095">
				<ele>368.000000</ele>
			</trkpt>
			<trkpt lat="49.094310" lon="18.008015">
				<ele>368.000000</ele>
			</trkpt>
			<trkpt lat="49.094457" lon="18.007862">
				<ele>367.000000</ele>
			</trkpt>
			<trkpt lat="49.094551" lon="18.007745">
				<ele>367.000000</ele>
			</trkpt>
			<trkpt lat="49.094633" lon="18.007602">
				<ele>367.000000</ele>
			</trkpt>
			<trkpt lat="49.094751" lon="18.007376">
				<ele>367.000000</ele>
			</trkpt>
			<trkpt lat="49.094981" lon="18.006856">
				<ele>367.000000</ele>
			</trkpt>
			<trkpt lat="49.095034" lon="18.006747">
				<ele>367.000000</ele>
			</trkpt>
			<trkpt lat="49.095098" lon="18.006667">
				<ele>367.000000</ele>
			</trkpt>
			<trkpt lat="49.095175" lon="18.006586">
				<ele>366.000000</ele>
			</trkpt>
			<trkpt lat="49.095263" lon="18.006523">
				<ele>366.000000</ele>
			</trkpt>
			<trkpt lat="49.095457" lon="18.006397">
				<ele>365.000000</ele>
			</trkpt>
			<trkpt lat="49.095604" lon="18.006271">
				<ele>364.000000</ele>
			</trkpt>
			<trkpt lat="49.095716" lon="18.006155">
				<ele>364.000000</ele>
			</trkpt>
			<trkpt lat="49.095828" lon="18.006002">
				<ele>364.000000</ele>
			</trkpt>
			<trkpt lat="49.095939" lon="18.005814">
				<ele>364.000000</ele>
			</trkpt>
			<trkpt lat="49.096034" lon="18.005615">
				<ele>364.000000</ele>
			</trkpt>
			<trkpt lat="49.096369" lon="18.004843">
				<ele>365.000000</ele>
			</trkpt>
			<trkpt lat="49.096475" lon="18.004682">
				<ele>366.000000</ele>
			</trkpt>
			<trkpt lat="49.096575" lon="18.004547">
				<ele>366.000000</ele>
			</trkpt>
			<trkpt lat="49.096669" lon="18.004476">
				<ele>366.000000</ele>
			</trkpt>
			<trkpt lat="49.096969" lon="18.004250">
				<ele>367.000000</ele>
			</trkpt>
			<trkpt lat="49.097422" lon="18.003891">
				<ele>370.000000</ele>
			</trkpt>
			<trkpt lat="49.097428" lon="18.003891">
				<ele>370.000000</ele>
			</trkpt>
			<trkpt lat="49.097428" lon="18.003891">
				<ele>370.000000</ele>
			</trkpt>
			<trkpt lat="49.097821" lon="18.003631">
				<ele>371.000000</ele>
			</trkpt>
			<trkpt lat="49.098169" lon="18.003442">
				<ele>371.000000</ele>
			</trkpt>
			<trkpt lat="49.098368" lon="18.003361">
				<ele>371.000000</ele>
			</trkpt>
			<trkpt lat="49.098527" lon="18.003317">
				<ele>371.000000</ele>
			</trkpt>
			<trkpt lat="49.098869" lon="18.003200">
				<ele>371.000000</ele>
			</trkpt>
			<trkpt lat="49.099168" lon="18.003074">
				<ele>371.000000</ele>
			</trkpt>
			<trkpt lat="49.099427" lon="18.002957">
				<ele>371.000000</ele>
			</trkpt>
			<trkpt lat="49.099663" lon="18.002822">
				<ele>371.000000</ele>
			</trkpt>
			<trkpt lat="49.099874" lon="18.002669">
				<ele>371.000000</ele>
			</trkpt>
			<trkpt lat="49.100115" lon="18.002445">
				<ele>372.000000</ele>
			</trkpt>
			<trkpt lat="49.100351" lon="18.002202">
				<ele>373.000000</ele>
			</trkpt>
			<trkpt lat="49.100603" lon="18.001915">
				<ele>373.000000</ele>
			</trkpt>
			<trkpt lat="49.100680" lon="18.001826">
				<ele>373.000000</ele>
			</trkpt>
			<trkpt lat="49.101063" lon="18.001340">
				<ele>375.000000</ele>
			</trkpt>
			<trkpt lat="49.102239" lon="17.999929">
				<ele>381.000000</ele>
			</trkpt>
			<trkpt lat="49.102685" lon="17.999373">
				<ele>384.000000</ele>
			</trkpt>
			<trkpt lat="49.103197" lon="17.998717">
				<ele>386.000000</ele>
			</trkpt>
			<trkpt lat="49.103680" lon="17.998061">
				<ele>387.000000</ele>
			</trkpt>
			<trkpt lat="49.103803" lon="17.997962">
				<ele>387.000000</ele>
			</trkpt>
			<trkpt lat="49.103897" lon="17.997828">
				<ele>387.000000</ele>
			</trkpt>
			<trkpt lat="49.103980" lon="17.997692">
				<ele>387.000000</ele>
			</trkpt>
			<trkpt lat="49.104073" lon="17.997478">
				<ele>387.000000</ele>
			</trkpt>
			<trkpt lat="49.104120" lon="17.997352">
				<ele>387.000000</ele>
			</trkpt>
			<trkpt lat="49.104162" lon="17.997226">
				<ele>387.000000</ele>
			</trkpt>
			<trkpt lat="49.104192" lon="17.997109">
				<ele>387.000000</ele>
			</trkpt>
			<trkpt lat="49.104215" lon="17.996956">
				<ele>389.000000</ele>
			</trkpt>
			<trkpt lat="49.104232" lon="17.996678">
				<ele>389.000000</ele>
			</trkpt>
			<trkpt lat="49.104232" lon="17.996247">
				<ele>390.000000</ele>
			</trkpt>
			<trkpt lat="49.104103" lon="17.996013">
				<ele>390.000000</ele>
			</trkpt>
			<trkpt lat="49.104039" lon="17.995824">
				<ele>391.000000</ele>
			</trkpt>
			<trkpt lat="49.103956" lon="17.995528">
				<ele>392.000000</ele>
			</trkpt>
			<trkpt lat="49.103927" lon="17.995384">
				<ele>393.000000</ele>
			</trkpt>
			<trkpt lat="49.103927" lon="17.995384">
				<ele>393.000000</ele>
			</trkpt>
			<trkpt lat="49.103874" lon="17.995088">
				<ele>394.000000</ele>
			</trkpt>
			<trkpt lat="49.103838" lon="17.994836">
				<ele>396.000000</ele>
			</trkpt>
			<trkpt lat="49.103809" lon="17.994612">
				<ele>397.000000</ele>
			</trkpt>
			<trkpt lat="49.103785" lon="17.994423">
				<ele>399.000000</ele>
			</trkpt>
			<trkpt lat="49.103785" lon="17.994189">
				<ele>400.000000</ele>
			</trkpt>
			<trkpt lat="49.103785" lon="17.993820">
				<ele>403.000000</ele>
			</trkpt>
			<trkpt lat="49.103844" lon="17.992958">
				<ele>407.000000</ele>
			</trkpt>
			<trkpt lat="49.103844" lon="17.992807">
				<ele>407.000000</ele>
			</trkpt>
			<trkpt lat="49.103880" lon="17.992644">
				<ele>407.000000</ele>
			</trkpt>
			<trkpt lat="49.103909" lon="17.992482">
				<ele>407.000000</ele>
			</trkpt>
			<trkpt lat="49.103950" lon="17.992339">
				<ele>407.000000</ele>
			</trkpt>
			<trkpt lat="49.103997" lon="17.992186">
				<ele>406.000000</ele>
			</trkpt>
			<trkpt lat="49.104062" lon="17.992025">
				<ele>405.000000</ele>
			</trkpt>
			<trkpt lat="49.104226" lon="17.991710">
				<ele>406.000000</ele>
			</trkpt>
			<trkpt lat="49.104527" lon="17.991207">
				<ele>407.000000</ele>
			</trkpt>
			<trkpt lat="49.104668" lon="17.991010">
				<ele>407.000000</ele>
			</trkpt>
			<trkpt lat="49.104785" lon="17.990866">
				<ele>408.000000</ele>
			</trkpt>
			<trkpt lat="49.104914" lon="17.990757">
				<ele>409.000000</ele>
			</trkpt>
			<trkpt lat="49.105115" lon="17.990641">
				<ele>410.000000</ele>
			</trkpt>
			<trkpt lat="49.105238" lon="17.990560">
				<ele>412.000000</ele>
			</trkpt>
			<trkpt lat="49.105326" lon="17.990488">
				<ele>413.000000</ele>
			</trkpt>
			<trkpt lat="49.105421" lon="17.990398">
				<ele>414.000000</ele>
			</trkpt>
			<trkpt lat="49.105515" lon="17.990281">
				<ele>415.000000</ele>
			</trkpt>
			<trkpt lat="49.105655" lon="17.990067">
				<ele>418.000000</ele>
			</trkpt>
			<trkpt lat="49.105944" lon="17.989518">
				<ele>421.000000</ele>
			</trkpt>
			<trkpt lat="49.106115" lon="17.989258">
				<ele>422.000000</ele>
			</trkpt>
			<trkpt lat="49.106238" lon="17.989078">
				<ele>423.000000</ele>
			</trkpt>
			<trkpt lat="49.106338" lon="17.988889">
				<ele>425.000000</ele>
			</trkpt>
			<trkpt lat="49.106426" lon="17.988673">
				<ele>426.000000</ele>
			</trkpt>
			<trkpt lat="49.106544" lon="17.988350">
				<ele>429.000000</ele>
			</trkpt>
			<trkpt lat="49.106591" lon="17.988216">
				<ele>430.000000</ele>
			</trkpt>
			<trkpt lat="49.106650" lon="17.988099">
				<ele>431.000000</ele>
			</trkpt>
			<trkpt lat="49.106703" lon="17.988009">
				<ele>432.000000</ele>
			</trkpt>
			<trkpt lat="49.106773" lon="17.987910">
				<ele>433.000000</ele>
			</trkpt>
			<trkpt lat="49.106890" lon="17.987767">
				<ele>434.000000</ele>
			</trkpt>
			<trkpt lat="49.107249" lon="17.987452">
				<ele>435.000000</ele>
			</trkpt>
			<trkpt lat="49.107373" lon="17.987317">
				<ele>435.000000</ele>
			</trkpt>
			<trkpt lat="49.107491" lon="17.987174">
				<ele>436.000000</ele>
			</trkpt>
			<trkpt lat="49.107585" lon="17.987048">
				<ele>437.000000</ele>
			</trkpt>
			<trkpt lat="49.107678" lon="17.986895">
				<ele>438.000000</ele>
			</trkpt>
			<trkpt lat="49.107861" lon="17.986572">
				<ele>440.000000</ele>
			</trkpt>
			<trkpt lat="49.108114" lon="17.986023">
				<ele>444.000000</ele>
			</trkpt>
			<trkpt lat="49.108173" lon="17.985899">
				<ele>445.000000</ele>
			</trkpt>
			<trkpt lat="49.108249" lon="17.985809">
				<ele>445.000000</ele>
			</trkpt>
			<trkpt lat="49.108314" lon="17.985763">
				<ele>446.000000</ele>
			</trkpt>
			<trkpt lat="49.108402" lon="17.985709">
				<ele>446.000000</ele>
			</trkpt>
			<trkpt lat="49.108502" lon="17.985700">
				<ele>447.000000</ele>
			</trkpt>
			<trkpt lat="49.108602" lon="17.985691">
				<ele>447.000000</ele>
			</trkpt>
			<trkpt lat="49.108914" lon="17.985754">
				<ele>451.000000</ele>
			</trkpt>
			<trkpt lat="49.108967" lon="17.985754">
				<ele>452.000000</ele>
			</trkpt>
			<trkpt lat="49.109002" lon="17.985736">
				<ele>452.000000</ele>
			</trkpt>
			<trkpt lat="49.109031" lon="17.985683">
				<ele>452.000000</ele>
			</trkpt>
			<trkpt lat="49.109060" lon="17.985601">
				<ele>452.000000</ele>
			</trkpt>
			<trkpt lat="49.109072" lon="17.985503">
				<ele>453.000000</ele>
			</trkpt>
			<trkpt lat="49.109078" lon="17.985404">
				<ele>454.000000</ele>
			</trkpt>
			<trkpt lat="49.109060" lon="17.985314">
				<ele>455.000000</ele>
			</trkpt>
			<trkpt lat="49.109037" lon="17.985215">
				<ele>455.000000</ele>
			</trkpt>
			<trkpt lat="49.109026" lon="17.985197">
				<ele>455.000000</ele>
			</trkpt>
			<trkpt lat="49.108896" lon="17.985107">
				<ele>455.000000</ele>
			</trkpt>
			<trkpt lat="49.108814" lon="17.985036">
				<ele>456.000000</ele>
			</trkpt>
			<trkpt lat="49.108808" lon="17.985036">
				<ele>456.000000</ele>
			</trkpt>
			<trkpt lat="49.108808" lon="17.985036">
				<ele>456.000000</ele>
			</trkpt>
			<trkpt lat="49.108743" lon="17.984964">
				<ele>457.000000</ele>
			</trkpt>
			<trkpt lat="49.108696" lon="17.984874">
				<ele>459.000000</ele>
			</trkpt>
			<trkpt lat="49.108649" lon="17.984793">
				<ele>459.000000</ele>
			</trkpt>
			<trkpt lat="49.108625" lon="17.984694">
				<ele>459.000000</ele>
			</trkpt>
			<trkpt lat="49.108620" lon="17.984614">
				<ele>460.000000</ele>
			</trkpt>
			<trkpt lat="49.108631" lon="17.984505">
				<ele>461.000000</ele>
			</trkpt>
			<trkpt lat="49.108667" lon="17.983904">
				<ele>465.000000</ele>
			</trkpt>
			<trkpt lat="49.108673" lon="17.983589">
				<ele>467.000000</ele>
			</trkpt>
			<trkpt lat="49.108667" lon="17.983409">
				<ele>469.000000</ele>
			</trkpt>
			<trkpt lat="49.108661" lon="17.983275">
				<ele>470.000000</ele>
			</trkpt>
			<trkpt lat="49.108649" lon="17.983149">
				<ele>470.000000</ele>
			</trkpt>
			<trkpt lat="49.108625" lon="17.983050">
				<ele>471.000000</ele>
			</trkpt>
			<trkpt lat="49.108590" lon="17.982970">
				<ele>471.000000</ele>
			</trkpt>
			<trkpt lat="49.108549" lon="17.982907">
				<ele>471.000000</ele>
			</trkpt>
			<trkpt lat="49.108496" lon="17.982880">
				<ele>471.000000</ele>
			</trkpt>
			<trkpt lat="49.108437" lon="17.982862">
				<ele>471.000000</ele>
			</trkpt>
			<trkpt lat="49.108361" lon="17.982870">
				<ele>471.000000</ele>
			</trkpt>
			<trkpt lat="49.108285" lon="17.982907">
				<ele>471.000000</ele>
			</trkpt>
			<trkpt lat="49.108232" lon="17.982970">
				<ele>471.000000</ele>
			</trkpt>
			<trkpt lat="49.108185" lon="17.983050">
				<ele>472.000000</ele>
			</trkpt>
			<trkpt lat="49.108067" lon="17.983329">
				<ele>474.000000</ele>
			</trkpt>
			<trkpt lat="49.107984" lon="17.983490">
				<ele>475.000000</ele>
			</trkpt>
			<trkpt lat="49.107926" lon="17.983553">
				<ele>476.000000</ele>
			</trkpt>
			<trkpt lat="49.107873" lon="17.983625">
				<ele>477.000000</ele>
			</trkpt>
			<trkpt lat="49.107731" lon="17.983725">
				<ele>478.000000</ele>
			</trkpt>
			<trkpt lat="49.107320" lon="17.983958">
				<ele>482.000000</ele>
			</trkpt>
			<trkpt lat="49.107202" lon="17.984021">
				<ele>484.000000</ele>
			</trkpt>
			<trkpt lat="49.107102" lon="17.984056">
				<ele>486.000000</ele>
			</trkpt>
			<trkpt lat="49.106985" lon="17.984075">
				<ele>487.000000</ele>
			</trkpt>
			<trkpt lat="49.106879" lon="17.984083">
				<ele>489.000000</ele>
			</trkpt>
			<trkpt lat="49.106761" lon="17.984075">
				<ele>490.000000</ele>
			</trkpt>
			<trkpt lat="49.106638" lon="17.984056">
				<ele>491.000000</ele>
			</trkpt>
			<trkpt lat="49.106585" lon="17.984038">
				<ele>492.000000</ele>
			</trkpt>
			<trkpt lat="49.106532" lon="17.983993">
				<ele>493.000000</ele>
			</trkpt>
			<trkpt lat="49.106449" lon="17.983904">
				<ele>494.000000</ele>
			</trkpt>
			<trkpt lat="49.106385" lon="17.983778">
				<ele>495.000000</ele>
			</trkpt>
			<trkpt lat="49.106279" lon="17.983553">
				<ele>496.000000</ele>
			</trkpt>
			<trkpt lat="49.106179" lon="17.983310">
				<ele>498.000000</ele>
			</trkpt>
			<trkpt lat="49.106067" lon="17.983104">
				<ele>500.000000</ele>
			</trkpt>
			<trkpt lat="49.105962" lon="17.982916">
				<ele>502.000000</ele>
			</trkpt>
			<trkpt lat="49.105655" lon="17.982404">
				<ele>508.000000</ele>
			</trkpt>
			<trkpt lat="49.105479" lon="17.982080">
				<ele>510.000000</ele>
			</trkpt>
			<trkpt lat="49.105421" lon="17.981964">
				<ele>511.000000</ele>
			</trkpt>
			<trkpt lat="49.105350" lon="17.981882">
				<ele>512.000000</ele>
			</trkpt>
			<trkpt lat="49.105291" lon="17.981811">
				<ele>512.000000</ele>
			</trkpt>
			<trkpt lat="49.105220" lon="17.981738">
				<ele>514.000000</ele>
			</trkpt>
			<trkpt lat="49.105085" lon="17.981658">
				<ele>515.000000</ele>
			</trkpt>
			<trkpt lat="49.104709" lon="17.981469">
				<ele>518.000000</ele>
			</trkpt>
			<trkpt lat="49.104627" lon="17.981425">
				<ele>519.000000</ele>
			</trkpt>
			<trkpt lat="49.104562" lon="17.981406">
				<ele>520.000000</ele>
			</trkpt>
			<trkpt lat="49.104409" lon="17.981388">
				<ele>521.000000</ele>
			</trkpt>
			<trkpt lat="49.104338" lon="17.981398">
				<ele>522.000000</ele>
			</trkpt>
			<trkpt lat="49.104250" lon="17.981415">
				<ele>522.000000</ele>
			</trkpt>
			<trkpt lat="49.104086" lon="17.981461">
				<ele>523.000000</ele>
			</trkpt>
			<trkpt lat="49.103968" lon="17.981469">
				<ele>525.000000</ele>
			</trkpt>
			<trkpt lat="49.103927" lon="17.981451">
				<ele>525.000000</ele>
			</trkpt>
			<trkpt lat="49.103891" lon="17.981425">
				<ele>526.000000</ele>
			</trkpt>
			<trkpt lat="49.103874" lon="17.981398">
				<ele>526.000000</ele>
			</trkpt>
			<trkpt lat="49.103856" lon="17.981352">
				<ele>527.000000</ele>
			</trkpt>
			<trkpt lat="49.103844" lon="17.981281">
				<ele>527.000000</ele>
			</trkpt>
			<trkpt lat="49.103838" lon="17.981199">
				<ele>528.000000</ele>
			</trkpt>
			<trkpt lat="49.103850" lon="17.981136">
				<ele>528.000000</ele>
			</trkpt>
			<trkpt lat="49.103868" lon="17.981065">
				<ele>529.000000</ele>
			</trkpt>
			<trkpt lat="49.103891" lon="17.981012">
				<ele>529.000000</ele>
			</trkpt>
			<trkpt lat="49.103921" lon="17.980975">
				<ele>529.000000</ele>
			</trkpt>
			<trkpt lat="49.103956" lon="17.980930">
				<ele>530.000000</ele>
			</trkpt>
			<trkpt lat="49.104003" lon="17.980922">
				<ele>530.000000</ele>
			</trkpt>
			<trkpt lat="49.104338" lon="17.980796">
				<ele>532.000000</ele>
			</trkpt>
			<trkpt lat="49.104527" lon="17.980679">
				<ele>534.000000</ele>
			</trkpt>
			<trkpt lat="49.104621" lon="17.980616">
				<ele>534.000000</ele>
			</trkpt>
			<trkpt lat="49.104685" lon="17.980553">
				<ele>535.000000</ele>
			</trkpt>
			<trkpt lat="49.104750" lon="17.980472">
				<ele>536.000000</ele>
			</trkpt>
			<trkpt lat="49.104803" lon="17.980400">
				<ele>537.000000</ele>
			</trkpt>
			<trkpt lat="49.104873" lon="17.980220">
				<ele>538.000000</ele>
			</trkpt>
			<trkpt lat="49.104932" lon="17.980077">
				<ele>539.000000</ele>
			</trkpt>
			<trkpt lat="49.104962" lon="17.979924">
				<ele>540.000000</ele>
			</trkpt>
			<trkpt lat="49.104991" lon="17.979754">
				<ele>541.000000</ele>
			</trkpt>
			<trkpt lat="49.105132" lon="17.978855">
				<ele>544.000000</ele>
			</trkpt>
			<trkpt lat="49.104973" lon="17.978819">
				<ele>542.000000</ele>
			</trkpt>
			<trkpt lat="49.104844" lon="17.978811">
				<ele>540.000000</ele>
			</trkpt>
			<trkpt lat="49.104820" lon="17.978811">
				<ele>540.000000</ele>
			</trkpt>
			<trkpt lat="49.104820" lon="17.978811">
				<ele>540.000000</ele>
			</trkpt>
			<trkpt lat="49.104721" lon="17.978819">
				<ele>539.000000</ele>
			</trkpt>
			<trkpt lat="49.104585" lon="17.978864">
				<ele>538.000000</ele>
			</trkpt>
			<trkpt lat="49.104303" lon="17.978999">
				<ele>537.000000</ele>
			</trkpt>
			<trkpt lat="49.104185" lon="17.979025">
				<ele>537.000000</ele>
			</trkpt>
			<trkpt lat="49.104050" lon="17.979062">
				<ele>538.000000</ele>
			</trkpt>
			<trkpt lat="49.103939" lon="17.979125">
				<ele>539.000000</ele>
			</trkpt>
			<trkpt lat="49.103827" lon="17.979214">
				<ele>539.000000</ele>
			</trkpt>
			<trkpt lat="49.103727" lon="17.979341">
				<ele>539.000000</ele>
			</trkpt>
			<trkpt lat="49.103615" lon="17.979520">
				<ele>539.000000</ele>
			</trkpt>
			<trkpt lat="49.103392" lon="17.979870">
				<ele>540.000000</ele>
			</trkpt>
			<trkpt lat="49.103268" lon="17.979924">
				<ele>541.000000</ele>
			</trkpt>
			<trkpt lat="49.102962" lon="17.980077">
				<ele>542.000000</ele>
			</trkpt>
			<trkpt lat="49.102850" lon="17.980130">
				<ele>542.000000</ele>
			</trkpt>
			<trkpt lat="49.102645" lon="17.980167">
				<ele>542.000000</ele>
			</trkpt>
			<trkpt lat="49.102474" lon="17.980176">
				<ele>543.000000</ele>
			</trkpt>
			<trkpt lat="49.102286" lon="17.980130">
				<ele>544.000000</ele>
			</trkpt>
			<trkpt lat="49.101938" lon="17.980033">
				<ele>546.000000</ele>
			</trkpt>
			<trkpt lat="49.101704" lon="17.979987">
				<ele>548.000000</ele>
			</trkpt>
			<trkpt lat="49.101615" lon="17.979987">
				<ele>549.000000</ele>
			</trkpt>
			<trkpt lat="49.101539" lon="17.980004">
				<ele>549.000000</ele>
			</trkpt>
			<trkpt lat="49.101468" lon="17.980033">
				<ele>549.000000</ele>
			</trkpt>
			<trkpt lat="49.101397" lon="17.980086">
				<ele>550.000000</ele>
			</trkpt>
			<trkpt lat="49.101309" lon="17.980157">
				<ele>550.000000</ele>
			</trkpt>
			<trkpt lat="49.101244" lon="17.980239">
				<ele>550.000000</ele>
			</trkpt>
			<trkpt lat="49.101145" lon="17.980383">
				<ele>550.000000</ele>
			</trkpt>
			<trkpt lat="49.101033" lon="17.980499">
				<ele>550.000000</ele>
			</trkpt>
			<trkpt lat="49.100921" lon="17.980599">
				<ele>549.000000</ele>
			</trkpt>
			<trkpt lat="49.100668" lon="17.980805">
				<ele>546.000000</ele>
			</trkpt>
			<trkpt lat="49.100575" lon="17.980895">
				<ele>545.000000</ele>
			</trkpt>
			<trkpt lat="49.100045" lon="17.981496">
				<ele>536.000000</ele>
			</trkpt>
			<trkpt lat="49.099751" lon="17.981775">
				<ele>534.000000</ele>
			</trkpt>
			<trkpt lat="49.099686" lon="17.981828">
				<ele>534.000000</ele>
			</trkpt>
			<trkpt lat="49.099592" lon="17.981855">
				<ele>533.000000</ele>
			</trkpt>
			<trkpt lat="49.099504" lon="17.981855">
				<ele>533.000000</ele>
			</trkpt>
			<trkpt lat="49.099398" lon="17.981838">
				<ele>532.000000</ele>
			</trkpt>
			<trkpt lat="49.099045" lon="17.981828">
				<ele>529.000000</ele>
			</trkpt>
			<trkpt lat="49.098568" lon="17.981775">
				<ele>527.000000</ele>
			</trkpt>
			<trkpt lat="49.098463" lon="17.981757">
				<ele>527.000000</ele>
			</trkpt>
			<trkpt lat="49.098362" lon="17.981721">
				<ele>526.000000</ele>
			</trkpt>
			<trkpt lat="49.098092" lon="17.981568">
				<ele>523.000000</ele>
			</trkpt>
			<trkpt lat="49.097933" lon="17.981461">
				<ele>522.000000</ele>
			</trkpt>
			<trkpt lat="49.097845" lon="17.981362">
				<ele>521.000000</ele>
			</trkpt>
			<trkpt lat="49.097774" lon="17.981236">
				<ele>520.000000</ele>
			</trkpt>
			<trkpt lat="49.097680" lon="17.981012">
				<ele>517.000000</ele>
			</trkpt>
			<trkpt lat="49.097515" lon="17.980562">
				<ele>513.000000</ele>
			</trkpt>
			<trkpt lat="49.097333" lon="17.980157">
				<ele>512.000000</ele>
			</trkpt>
			<trkpt lat="49.097157" lon="17.979771">
				<ele>510.000000</ele>
			</trkpt>
			<trkpt lat="49.096933" lon="17.979377">
				<ele>507.000000</ele>
			</trkpt>
			<trkpt lat="49.096745" lon="17.979008">
				<ele>504.000000</ele>
			</trkpt>
			<trkpt lat="49.096692" lon="17.978936">
				<ele>504.000000</ele>
			</trkpt>
			<trkpt lat="49.096639" lon="17.978882">
				<ele>504.000000</ele>
			</trkpt>
			<trkpt lat="49.096569" lon="17.978846">
				<ele>503.000000</ele>
			</trkpt>
			<trkpt lat="49.096486" lon="17.978828">
				<ele>503.000000</ele>
			</trkpt>
			<trkpt lat="49.096210" lon="17.978828">
				<ele>503.000000</ele>
			</trkpt>
			<trkpt lat="49.096127" lon="17.978811">
				<ele>502.000000</ele>
			</trkpt>
			<trkpt lat="49.096004" lon="17.978801">
				<ele>501.000000</ele>
			</trkpt>
			<trkpt lat="49.095898" lon="17.978756">
				<ele>499.000000</ele>
			</trkpt>
			<trkpt lat="49.095798" lon="17.978693">
				<ele>497.000000</ele>
			</trkpt>
			<trkpt lat="49.095692" lon="17.978586">
				<ele>494.000000</ele>
			</trkpt>
			<trkpt lat="49.095616" lon="17.978486">
				<ele>491.000000</ele>
			</trkpt>
			<trkpt lat="49.095527" lon="17.978335">
				<ele>489.000000</ele>
			</trkpt>
			<trkpt lat="49.095469" lon="17.978190">
				<ele>486.000000</ele>
			</trkpt>
			<trkpt lat="49.095404" lon="17.977993">
				<ele>483.000000</ele>
			</trkpt>
			<trkpt lat="49.095374" lon="17.977930">
				<ele>482.000000</ele>
			</trkpt>
			<trkpt lat="49.095345" lon="17.977867">
				<ele>481.000000</ele>
			</trkpt>
			<trkpt lat="49.095310" lon="17.977822">
				<ele>480.000000</ele>
			</trkpt>
			<trkpt lat="49.095263" lon="17.977796">
				<ele>479.000000</ele>
			</trkpt>
			<trkpt lat="49.095157" lon="17.977759">
				<ele>477.000000</ele>
			</trkpt>
			<trkpt lat="49.094951" lon="17.977750">
				<ele>476.000000</ele>
			</trkpt>
			<trkpt lat="49.094851" lon="17.977769">
				<ele>475.000000</ele>
			</trkpt>
			<trkpt lat="49.094757" lon="17.977822">
				<ele>474.000000</ele>
			</trkpt>
			<trkpt lat="49.094504" lon="17.977966">
				<ele>469.000000</ele>
			</trkpt>
			<trkpt lat="49.094392" lon="17.978029">
				<ele>465.000000</ele>
			</trkpt>
			<trkpt lat="49.094292" lon="17.978056">
				<ele>464.000000</ele>
			</trkpt>
			<trkpt lat="49.094186" lon="17.978038">
				<ele>463.000000</ele>
			</trkpt>
			<trkpt lat="49.094051" lon="17.978002">
				<ele>463.000000</ele>
			</trkpt>
			<trkpt lat="49.093687" lon="17.977840">
				<ele>464.000000</ele>
			</trkpt>
			<trkpt lat="49.093557" lon="17.977777">
				<ele>464.000000</ele>
			</trkpt>
			<trkpt lat="49.093416" lon="17.977670">
				<ele>465.000000</ele>
			</trkpt>
			<trkpt lat="49.093363" lon="17.977643">
				<ele>466.000000</ele>
			</trkpt>
			<trkpt lat="49.093304" lon="17.977624">
				<ele>467.000000</ele>
			</trkpt>
			<trkpt lat="49.093251" lon="17.977624">
				<ele>467.000000</ele>
			</trkpt>
			<trkpt lat="49.093210" lon="17.977633">
				<ele>467.000000</ele>
			</trkpt>
			<trkpt lat="49.093163" lon="17.977643">
				<ele>468.000000</ele>
			</trkpt>
			<trkpt lat="49.093110" lon="17.977679">
				<ele>468.000000</ele>
			</trkpt>
			<trkpt lat="49.093016" lon="17.977796">
				<ele>468.000000</ele>
			</trkpt>
			<trkpt lat="49.092968" lon="17.977849">
				<ele>468.000000</ele>
			</trkpt>
			<trkpt lat="49.092922" lon="17.977885">
				<ele>468.000000</ele>
			</trkpt>
			<trkpt lat="49.092875" lon="17.977912">
				<ele>468.000000</ele>
			</trkpt>
			<trkpt lat="49.092816" lon="17.977912">
				<ele>468.000000</ele>
			</trkpt>
			<trkpt lat="49.092751" lon="17.977903">
				<ele>467.000000</ele>
			</trkpt>
			<trkpt lat="49.092686" lon="17.977876">
				<ele>467.000000</ele>
			</trkpt>
			<trkpt lat="49.092522" lon="17.977786">
				<ele>467.000000</ele>
			</trkpt>
			<trkpt lat="49.092245" lon="17.977616">
				<ele>465.000000</ele>
			</trkpt>
			<trkpt lat="49.092122" lon="17.977526">
				<ele>463.000000</ele>
			</trkpt>
			<trkpt lat="49.091998" lon="17.977427">
				<ele>463.000000</ele>
			</trkpt>
			<trkpt lat="49.091892" lon="17.977337">
				<ele>463.000000</ele>
			</trkpt>
			<trkpt lat="49.091493" lon="17.976870">
				<ele>465.000000</ele>
			</trkpt>
			<trkpt lat="49.091375" lon="17.976771">
				<ele>465.000000</ele>
			</trkpt>
			<trkpt lat="49.091245" lon="17.976654">
				<ele>465.000000</ele>
			</trkpt>
			<trkpt lat="49.091122" lon="17.976547">
				<ele>464.000000</ele>
			</trkpt>
			<trkpt lat="49.091004" lon="17.976484">
				<ele>463.000000</ele>
			</trkpt>
			<trkpt lat="49.090857" lon="17.976421">
				<ele>463.000000</ele>
			</trkpt>
			<trkpt lat="49.090721" lon="17.976402">
				<ele>462.000000</ele>
			</trkpt>
			<trkpt lat="49.090557" lon="17.976402">
				<ele>462.000000</ele>
			</trkpt>
			<trkpt lat="49.090298" lon="17.976457">
				<ele>461.000000</ele>
			</trkpt>
			<trkpt lat="49.089580" lon="17.976618">
				<ele>455.000000</ele>
			</trkpt>
			<trkpt lat="49.089427" lon="17.976654">
				<ele>454.000000</ele>
			</trkpt>
			<trkpt lat="49.089357" lon="17.976645">
				<ele>453.000000</ele>
			</trkpt>
			<trkpt lat="49.089251" lon="17.976618">
				<ele>453.000000</ele>
			</trkpt>
			<trkpt lat="49.089157" lon="17.976564">
				<ele>452.000000</ele>
			</trkpt>
			<trkpt lat="49.089086" lon="17.976591">
				<ele>453.000000</ele>
			</trkpt>
			<trkpt lat="49.089033" lon="17.976627">
				<ele>453.000000</ele>
			</trkpt>
			<trkpt lat="49.088975" lon="17.976681">
				<ele>453.000000</ele>
			</trkpt>
			<trkpt lat="49.088927" lon="17.976762">
				<ele>454.000000</ele>
			</trkpt>
			<trkpt lat="49.088874" lon="17.976754">
				<ele>453.000000</ele>
			</trkpt>
			<trkpt lat="49.088810" lon="17.976762">
				<ele>453.000000</ele>
			</trkpt>
			<trkpt lat="49.088757" lon="17.976788">
				<ele>453.000000</ele>
			</trkpt>
			<trkpt lat="49.088704" lon="17.976817">
				<ele>453.000000</ele>
			</trkpt>
			<trkpt lat="49.088592" lon="17.976861">
				<ele>452.000000</ele>
			</trkpt>
			<trkpt lat="49.088474" lon="17.976870">
				<ele>451.000000</ele>
			</trkpt>
			<trkpt lat="49.088333" lon="17.976888">
				<ele>451.000000</ele>
			</trkpt>
			<trkpt lat="49.088098" lon="17.976914">
				<ele>449.000000</ele>
			</trkpt>
			<trkpt lat="49.087951" lon="17.976951">
				<ele>448.000000</ele>
			</trkpt>
			<trkpt lat="49.087851" lon="17.976987">
				<ele>448.000000</ele>
			</trkpt>
			<trkpt lat="49.087751" lon="17.977031">
				<ele>447.000000</ele>
			</trkpt>
			<trkpt lat="49.087662" lon="17.977094">
				<ele>447.000000</ele>
			</trkpt>
			<trkpt lat="49.087569" lon="17.977157">
				<ele>447.000000</ele>
			</trkpt>
			<trkpt lat="49.087469" lon="17.977265">
				<ele>446.000000</ele>
			</trkpt>
			<trkpt lat="49.087392" lon="17.977364">
				<ele>445.000000</ele>
			</trkpt>
			<trkpt lat="49.087292" lon="17.977499">
				<ele>445.000000</ele>
			</trkpt>
			<trkpt lat="49.087092" lon="17.977526">
				<ele>444.000000</ele>
			</trkpt>
			<trkpt lat="49.087009" lon="17.977507">
				<ele>443.000000</ele>
			</trkpt>
			<trkpt lat="49.086951" lon="17.977490">
				<ele>442.000000</ele>
			</trkpt>
			<trkpt lat="49.086850" lon="17.977444">
				<ele>441.000000</ele>
			</trkpt>
			<trkpt lat="49.086756" lon="17.977373">
				<ele>439.000000</ele>
			</trkpt>
			<trkpt lat="49.086557" lon="17.977175">
				<ele>435.000000</ele>
			</trkpt>
			<trkpt lat="49.086557" lon="17.977175">
				<ele>435.000000</ele>
			</trkpt>
			<trkpt lat="49.086415" lon="17.977031">
				<ele>433.000000</ele>
			</trkpt>
			<trkpt lat="49.086174" lon="17.976788">
				<ele>429.000000</ele>
			</trkpt>
			<trkpt lat="49.085957" lon="17.976501">
				<ele>424.000000</ele>
			</trkpt>
			<trkpt lat="49.085715" lon="17.976161">
				<ele>419.000000</ele>
			</trkpt>
			<trkpt lat="49.085586" lon="17.975981">
				<ele>416.000000</ele>
			</trkpt>
			<trkpt lat="49.085286" lon="17.975702">
				<ele>409.000000</ele>
			</trkpt>
			<trkpt lat="49.085210" lon="17.975622">
				<ele>408.000000</ele>
			</trkpt>
			<trkpt lat="49.085127" lon="17.975522">
				<ele>406.000000</ele>
			</trkpt>
			<trkpt lat="49.084374" lon="17.974337">
				<ele>385.000000</ele>
			</trkpt>
			<trkpt lat="49.084309" lon="17.974220">
				<ele>383.000000</ele>
			</trkpt>
			<trkpt lat="49.084239" lon="17.974067">
				<ele>381.000000</ele>
			</trkpt>
			<trkpt lat="49.084144" lon="17.973888">
				<ele>378.000000</ele>
			</trkpt>
			<trkpt lat="49.083974" lon="17.973601">
				<ele>374.000000</ele>
			</trkpt>
			<trkpt lat="49.083609" lon="17.973035">
				<ele>363.000000</ele>
			</trkpt>
			<trkpt lat="49.083520" lon="17.972899">
				<ele>361.000000</ele>
			</trkpt>
			<trkpt lat="49.083409" lon="17.972800">
				<ele>359.000000</ele>
			</trkpt>
			<trkpt lat="49.083168" lon="17.972620">
				<ele>354.000000</ele>
			</trkpt>
			<trkpt lat="49.083056" lon="17.972504">
				<ele>351.000000</ele>
			</trkpt>
			<trkpt lat="49.082944" lon="17.972379">
				<ele>348.000000</ele>
			</trkpt>
			<trkpt lat="49.082873" lon="17.972289">
				<ele>347.000000</ele>
			</trkpt>
			<trkpt lat="49.082638" lon="17.971974">
				<ele>342.000000</ele>
			</trkpt>
			<trkpt lat="49.082368" lon="17.971543">
				<ele>337.000000</ele>
			</trkpt>
			<trkpt lat="49.082338" lon="17.971327">
				<ele>336.000000</ele>
			</trkpt>
			<trkpt lat="49.082303" lon="17.971121">
				<ele>335.000000</ele>
			</trkpt>
			<trkpt lat="49.082244" lon="17.970922">
				<ele>333.000000</ele>
			</trkpt>
			<trkpt lat="49.082144" lon="17.970645">
				<ele>330.000000</ele>
			</trkpt>
			<trkpt lat="49.082097" lon="17.970546">
				<ele>329.000000</ele>
			</trkpt>
			<trkpt lat="49.082056" lon="17.970456">
				<ele>328.000000</ele>
			</trkpt>
			<trkpt lat="49.082003" lon="17.970385">
				<ele>327.000000</ele>
			</trkpt>
			<trkpt lat="49.081944" lon="17.970312">
				<ele>326.000000</ele>
			</trkpt>
			<trkpt lat="49.082191" lon="17.970375">
				<ele>327.000000</ele>
			</trkpt>
		</trkseg>
	</trk>
</gpx>

