<?xml version="1.0" encoding="utf-8"?>
<gpx xmlns="http://www.topografix.com/GPX/1/1" version="1.1" creator="https://mapy.cz/">
	<trk>
		<name>15.Popov - Rokytnice</name>
		<trkseg>
			<trkpt lat="49.082226" lon="17.970385">
				<ele>326.000000</ele>
			</trkpt>
			<trkpt lat="49.081944" lon="17.970312">
				<ele>326.000000</ele>
			</trkpt>
			<trkpt lat="49.081620" lon="17.970025">
				<ele>323.000000</ele>
			</trkpt>
			<trkpt lat="49.081408" lon="17.969800">
				<ele>321.000000</ele>
			</trkpt>
			<trkpt lat="49.081302" lon="17.969647">
				<ele>320.000000</ele>
			</trkpt>
			<trkpt lat="49.081202" lon="17.969432">
				<ele>319.000000</ele>
			</trkpt>
			<trkpt lat="49.081026" lon="17.969154">
				<ele>318.000000</ele>
			</trkpt>
			<trkpt lat="49.080761" lon="17.968749">
				<ele>317.000000</ele>
			</trkpt>
			<trkpt lat="49.080644" lon="17.968803">
				<ele>317.000000</ele>
			</trkpt>
			<trkpt lat="49.080561" lon="17.968867">
				<ele>317.000000</ele>
			</trkpt>
			<trkpt lat="49.080496" lon="17.968938">
				<ele>317.000000</ele>
			</trkpt>
			<trkpt lat="49.080426" lon="17.969073">
				<ele>317.000000</ele>
			</trkpt>
			<trkpt lat="49.080390" lon="17.969144">
				<ele>317.000000</ele>
			</trkpt>
			<trkpt lat="49.080390" lon="17.969144">
				<ele>317.000000</ele>
			</trkpt>
			<trkpt lat="49.080125" lon="17.969710">
				<ele>317.000000</ele>
			</trkpt>
			<trkpt lat="49.079991" lon="17.969953">
				<ele>317.000000</ele>
			</trkpt>
			<trkpt lat="49.079861" lon="17.970177">
				<ele>316.000000</ele>
			</trkpt>
			<trkpt lat="49.079720" lon="17.970385">
				<ele>316.000000</ele>
			</trkpt>
			<trkpt lat="49.079578" lon="17.970599">
				<ele>316.000000</ele>
			</trkpt>
			<trkpt lat="49.079160" lon="17.971148">
				<ele>316.000000</ele>
			</trkpt>
			<trkpt lat="49.078984" lon="17.971372">
				<ele>316.000000</ele>
			</trkpt>
			<trkpt lat="49.078861" lon="17.971488">
				<ele>316.000000</ele>
			</trkpt>
			<trkpt lat="49.078755" lon="17.971578">
				<ele>316.000000</ele>
			</trkpt>
			<trkpt lat="49.078631" lon="17.971641">
				<ele>316.000000</ele>
			</trkpt>
			<trkpt lat="49.078543" lon="17.971660">
				<ele>317.000000</ele>
			</trkpt>
			<trkpt lat="49.078454" lon="17.971668">
				<ele>317.000000</ele>
			</trkpt>
			<trkpt lat="49.078367" lon="17.971651">
				<ele>317.000000</ele>
			</trkpt>
			<trkpt lat="49.078290" lon="17.971614">
				<ele>317.000000</ele>
			</trkpt>
			<trkpt lat="49.078214" lon="17.971570">
				<ele>317.000000</ele>
			</trkpt>
			<trkpt lat="49.078143" lon="17.971517">
				<ele>317.000000</ele>
			</trkpt>
			<trkpt lat="49.078084" lon="17.971444">
				<ele>317.000000</ele>
			</trkpt>
			<trkpt lat="49.078019" lon="17.971345">
				<ele>317.000000</ele>
			</trkpt>
			<trkpt lat="49.077737" lon="17.970788">
				<ele>318.000000</ele>
			</trkpt>
			<trkpt lat="49.077508" lon="17.970366">
				<ele>312.000000</ele>
			</trkpt>
			<trkpt lat="49.077419" lon="17.970222">
				<ele>315.000000</ele>
			</trkpt>
			<trkpt lat="49.077331" lon="17.970106">
				<ele>319.000000</ele>
			</trkpt>
			<trkpt lat="49.077237" lon="17.970006">
				<ele>319.000000</ele>
			</trkpt>
			<trkpt lat="49.077160" lon="17.969935">
				<ele>319.000000</ele>
			</trkpt>
			<trkpt lat="49.077060" lon="17.969890">
				<ele>319.000000</ele>
			</trkpt>
			<trkpt lat="49.076954" lon="17.969836">
				<ele>319.000000</ele>
			</trkpt>
			<trkpt lat="49.076836" lon="17.969809">
				<ele>319.000000</ele>
			</trkpt>
			<trkpt lat="49.076701" lon="17.969783">
				<ele>319.000000</ele>
			</trkpt>
			<trkpt lat="49.076348" lon="17.969773">
				<ele>319.000000</ele>
			</trkpt>
			<trkpt lat="49.076348" lon="17.969773">
				<ele>319.000000</ele>
			</trkpt>
			<trkpt lat="49.075901" lon="17.969764">
				<ele>319.000000</ele>
			</trkpt>
			<trkpt lat="49.075371" lon="17.969756">
				<ele>318.000000</ele>
			</trkpt>
			<trkpt lat="49.074812" lon="17.969764">
				<ele>317.000000</ele>
			</trkpt>
			<trkpt lat="49.074230" lon="17.969800">
				<ele>316.000000</ele>
			</trkpt>
			<trkpt lat="49.074000" lon="17.969827">
				<ele>316.000000</ele>
			</trkpt>
			<trkpt lat="49.073788" lon="17.969854">
				<ele>316.000000</ele>
			</trkpt>
			<trkpt lat="49.073588" lon="17.969899">
				<ele>316.000000</ele>
			</trkpt>
			<trkpt lat="49.073270" lon="17.969989">
				<ele>315.000000</ele>
			</trkpt>
			<trkpt lat="49.072388" lon="17.970240">
				<ele>314.000000</ele>
			</trkpt>
			<trkpt lat="49.072217" lon="17.970285">
				<ele>314.000000</ele>
			</trkpt>
			<trkpt lat="49.071982" lon="17.970285">
				<ele>314.000000</ele>
			</trkpt>
			<trkpt lat="49.071770" lon="17.970295">
				<ele>314.000000</ele>
			</trkpt>
			<trkpt lat="49.071693" lon="17.970322">
				<ele>314.000000</ele>
			</trkpt>
			<trkpt lat="49.071605" lon="17.970356">
				<ele>314.000000</ele>
			</trkpt>
			<trkpt lat="49.071381" lon="17.970591">
				<ele>315.000000</ele>
			</trkpt>
			<trkpt lat="49.071134" lon="17.970888">
				<ele>316.000000</ele>
			</trkpt>
			<trkpt lat="49.071046" lon="17.971004">
				<ele>316.000000</ele>
			</trkpt>
			<trkpt lat="49.070970" lon="17.971157">
				<ele>316.000000</ele>
			</trkpt>
			<trkpt lat="49.070905" lon="17.971327">
				<ele>316.000000</ele>
			</trkpt>
			<trkpt lat="49.070864" lon="17.971488">
				<ele>316.000000</ele>
			</trkpt>
			<trkpt lat="49.070781" lon="17.971857">
				<ele>316.000000</ele>
			</trkpt>
			<trkpt lat="49.070722" lon="17.972028">
				<ele>316.000000</ele>
			</trkpt>
			<trkpt lat="49.070657" lon="17.972190">
				<ele>316.000000</ele>
			</trkpt>
			<trkpt lat="49.070534" lon="17.972360">
				<ele>316.000000</ele>
			</trkpt>
			<trkpt lat="49.070557" lon="17.972630">
				<ele>316.000000</ele>
			</trkpt>
			<trkpt lat="49.070557" lon="17.972630">
				<ele>316.000000</ele>
			</trkpt>
			<trkpt lat="49.070569" lon="17.972729">
				<ele>316.000000</ele>
			</trkpt>
			<trkpt lat="49.070575" lon="17.972953">
				<ele>316.000000</ele>
			</trkpt>
			<trkpt lat="49.070569" lon="17.973169">
				<ele>315.000000</ele>
			</trkpt>
			<trkpt lat="49.070546" lon="17.973358">
				<ele>315.000000</ele>
			</trkpt>
			<trkpt lat="49.070410" lon="17.973842">
				<ele>316.000000</ele>
			</trkpt>
			<trkpt lat="49.070369" lon="17.974022">
				<ele>316.000000</ele>
			</trkpt>
			<trkpt lat="49.070334" lon="17.974220">
				<ele>316.000000</ele>
			</trkpt>
			<trkpt lat="49.070292" lon="17.974471">
				<ele>316.000000</ele>
			</trkpt>
			<trkpt lat="49.070245" lon="17.974643">
				<ele>317.000000</ele>
			</trkpt>
			<trkpt lat="49.070205" lon="17.974750">
				<ele>317.000000</ele>
			</trkpt>
			<trkpt lat="49.070157" lon="17.974840">
				<ele>317.000000</ele>
			</trkpt>
			<trkpt lat="49.070004" lon="17.975083">
				<ele>317.000000</ele>
			</trkpt>
			<trkpt lat="49.069910" lon="17.975073">
				<ele>317.000000</ele>
			</trkpt>
			<trkpt lat="49.069798" lon="17.975091">
				<ele>317.000000</ele>
			</trkpt>
			<trkpt lat="49.069757" lon="17.975109">
				<ele>317.000000</ele>
			</trkpt>
			<trkpt lat="49.069757" lon="17.975109">
				<ele>317.000000</ele>
			</trkpt>
			<trkpt lat="49.069563" lon="17.975180">
				<ele>317.000000</ele>
			</trkpt>
			<trkpt lat="49.069257" lon="17.975226">
				<ele>317.000000</ele>
			</trkpt>
			<trkpt lat="49.068986" lon="17.975262">
				<ele>318.000000</ele>
			</trkpt>
			<trkpt lat="49.068774" lon="17.975352">
				<ele>318.000000</ele>
			</trkpt>
			<trkpt lat="49.068639" lon="17.975406">
				<ele>318.000000</ele>
			</trkpt>
			<trkpt lat="49.068521" lon="17.975522">
				<ele>319.000000</ele>
			</trkpt>
			<trkpt lat="49.068380" lon="17.975685">
				<ele>319.000000</ele>
			</trkpt>
			<trkpt lat="49.068192" lon="17.975945">
				<ele>321.000000</ele>
			</trkpt>
			<trkpt lat="49.067968" lon="17.976312">
				<ele>322.000000</ele>
			</trkpt>
			<trkpt lat="49.067874" lon="17.976430">
				<ele>323.000000</ele>
			</trkpt>
			<trkpt lat="49.067803" lon="17.976538">
				<ele>324.000000</ele>
			</trkpt>
			<trkpt lat="49.067744" lon="17.976601">
				<ele>325.000000</ele>
			</trkpt>
			<trkpt lat="49.067744" lon="17.976601">
				<ele>325.000000</ele>
			</trkpt>
			<trkpt lat="49.067709" lon="17.976627">
				<ele>325.000000</ele>
			</trkpt>
			<trkpt lat="49.067626" lon="17.976691">
				<ele>326.000000</ele>
			</trkpt>
			<trkpt lat="49.067526" lon="17.976754">
				<ele>327.000000</ele>
			</trkpt>
			<trkpt lat="49.067433" lon="17.976788">
				<ele>328.000000</ele>
			</trkpt>
			<trkpt lat="49.067332" lon="17.976807">
				<ele>329.000000</ele>
			</trkpt>
			<trkpt lat="49.067221" lon="17.976817">
				<ele>329.000000</ele>
			</trkpt>
			<trkpt lat="49.067056" lon="17.976825">
				<ele>331.000000</ele>
			</trkpt>
			<trkpt lat="49.066903" lon="17.976878">
				<ele>332.000000</ele>
			</trkpt>
			<trkpt lat="49.066755" lon="17.976978">
				<ele>334.000000</ele>
			</trkpt>
			<trkpt lat="49.066555" lon="17.977148">
				<ele>335.000000</ele>
			</trkpt>
			<trkpt lat="49.066350" lon="17.977310">
				<ele>336.000000</ele>
			</trkpt>
			<trkpt lat="49.066202" lon="17.977417">
				<ele>336.000000</ele>
			</trkpt>
			<trkpt lat="49.066055" lon="17.977499">
				<ele>336.000000</ele>
			</trkpt>
			<trkpt lat="49.065879" lon="17.977570">
				<ele>337.000000</ele>
			</trkpt>
			<trkpt lat="49.065678" lon="17.977643">
				<ele>336.000000</ele>
			</trkpt>
			<trkpt lat="49.065513" lon="17.977741">
				<ele>336.000000</ele>
			</trkpt>
			<trkpt lat="49.065354" lon="17.977840">
				<ele>336.000000</ele>
			</trkpt>
			<trkpt lat="49.065125" lon="17.978010">
				<ele>337.000000</ele>
			</trkpt>
			<trkpt lat="49.065037" lon="17.978083">
				<ele>337.000000</ele>
			</trkpt>
			<trkpt lat="49.064707" lon="17.978335">
				<ele>338.000000</ele>
			</trkpt>
			<trkpt lat="49.064449" lon="17.978496">
				<ele>338.000000</ele>
			</trkpt>
			<trkpt lat="49.064195" lon="17.978649">
				<ele>338.000000</ele>
			</trkpt>
			<trkpt lat="49.063983" lon="17.978783">
				<ele>338.000000</ele>
			</trkpt>
			<trkpt lat="49.063795" lon="17.978954">
				<ele>340.000000</ele>
			</trkpt>
			<trkpt lat="49.063577" lon="17.979188">
				<ele>342.000000</ele>
			</trkpt>
			<trkpt lat="49.063466" lon="17.979278">
				<ele>343.000000</ele>
			</trkpt>
			<trkpt lat="49.063371" lon="17.979341">
				<ele>345.000000</ele>
			</trkpt>
			<trkpt lat="49.063265" lon="17.979385">
				<ele>346.000000</ele>
			</trkpt>
			<trkpt lat="49.063130" lon="17.979421">
				<ele>347.000000</ele>
			</trkpt>
			<trkpt lat="49.062794" lon="17.979430">
				<ele>349.000000</ele>
			</trkpt>
			<trkpt lat="49.062794" lon="17.979430">
				<ele>349.000000</ele>
			</trkpt>
			<trkpt lat="49.062159" lon="17.979457">
				<ele>354.000000</ele>
			</trkpt>
			<trkpt lat="49.061434" lon="17.979484">
				<ele>359.000000</ele>
			</trkpt>
			<trkpt lat="49.060934" lon="17.979484">
				<ele>361.000000</ele>
			</trkpt>
			<trkpt lat="49.060663" lon="17.979475">
				<ele>362.000000</ele>
			</trkpt>
			<trkpt lat="49.060463" lon="17.979484">
				<ele>363.000000</ele>
			</trkpt>
			<trkpt lat="49.060328" lon="17.979475">
				<ele>364.000000</ele>
			</trkpt>
			<trkpt lat="49.060193" lon="17.979448">
				<ele>364.000000</ele>
			</trkpt>
			<trkpt lat="49.060069" lon="17.979412">
				<ele>364.000000</ele>
			</trkpt>
			<trkpt lat="49.059269" lon="17.978811">
				<ele>370.000000</ele>
			</trkpt>
			<trkpt lat="49.058957" lon="17.978568">
				<ele>372.000000</ele>
			</trkpt>
			<trkpt lat="49.058633" lon="17.978289">
				<ele>374.000000</ele>
			</trkpt>
			<trkpt lat="49.058438" lon="17.978100">
				<ele>376.000000</ele>
			</trkpt>
			<trkpt lat="49.058279" lon="17.977939">
				<ele>377.000000</ele>
			</trkpt>
			<trkpt lat="49.057897" lon="17.977480">
				<ele>376.000000</ele>
			</trkpt>
			<trkpt lat="49.057626" lon="17.977094">
				<ele>374.000000</ele>
			</trkpt>
			<trkpt lat="49.057355" lon="17.976637">
				<ele>374.000000</ele>
			</trkpt>
			<trkpt lat="49.056543" lon="17.975289">
				<ele>373.000000</ele>
			</trkpt>
			<trkpt lat="49.055878" lon="17.974211">
				<ele>373.000000</ele>
			</trkpt>
			<trkpt lat="49.055566" lon="17.973681">
				<ele>376.000000</ele>
			</trkpt>
			<trkpt lat="49.055324" lon="17.973276">
				<ele>378.000000</ele>
			</trkpt>
			<trkpt lat="49.055106" lon="17.972935">
				<ele>379.000000</ele>
			</trkpt>
			<trkpt lat="49.054912" lon="17.972630">
				<ele>379.000000</ele>
			</trkpt>
			<trkpt lat="49.054712" lon="17.972360">
				<ele>380.000000</ele>
			</trkpt>
			<trkpt lat="49.054536" lon="17.972127">
				<ele>382.000000</ele>
			</trkpt>
			<trkpt lat="49.054135" lon="17.971668">
				<ele>385.000000</ele>
			</trkpt>
			<trkpt lat="49.053935" lon="17.971427">
				<ele>388.000000</ele>
			</trkpt>
			<trkpt lat="49.053664" lon="17.971067">
				<ele>393.000000</ele>
			</trkpt>
			<trkpt lat="49.053535" lon="17.970878">
				<ele>395.000000</ele>
			</trkpt>
			<trkpt lat="49.053411" lon="17.970635">
				<ele>398.000000</ele>
			</trkpt>
			<trkpt lat="49.053311" lon="17.970385">
				<ele>400.000000</ele>
			</trkpt>
			<trkpt lat="49.053211" lon="17.970096">
				<ele>401.000000</ele>
			</trkpt>
			<trkpt lat="49.052940" lon="17.969377">
				<ele>403.000000</ele>
			</trkpt>
			<trkpt lat="49.052869" lon="17.969144">
				<ele>404.000000</ele>
			</trkpt>
			<trkpt lat="49.052793" lon="17.968867">
				<ele>404.000000</ele>
			</trkpt>
			<trkpt lat="49.052652" lon="17.968335">
				<ele>406.000000</ele>
			</trkpt>
			<trkpt lat="49.052505" lon="17.967824">
				<ele>408.000000</ele>
			</trkpt>
			<trkpt lat="49.052122" lon="17.966540">
				<ele>412.000000</ele>
			</trkpt>
			<trkpt lat="49.052075" lon="17.966341">
				<ele>411.000000</ele>
			</trkpt>
			<trkpt lat="49.052045" lon="17.966188">
				<ele>411.000000</ele>
			</trkpt>
			<trkpt lat="49.052022" lon="17.966009">
				<ele>411.000000</ele>
			</trkpt>
			<trkpt lat="49.052004" lon="17.965875">
				<ele>411.000000</ele>
			</trkpt>
			<trkpt lat="49.052010" lon="17.965722">
				<ele>411.000000</ele>
			</trkpt>
			<trkpt lat="49.052016" lon="17.965569">
				<ele>410.000000</ele>
			</trkpt>
			<trkpt lat="49.052039" lon="17.965408">
				<ele>408.000000</ele>
			</trkpt>
			<trkpt lat="49.052075" lon="17.965219">
				<ele>406.000000</ele>
			</trkpt>
			<trkpt lat="49.052122" lon="17.964976">
				<ele>404.000000</ele>
			</trkpt>
			<trkpt lat="49.052134" lon="17.964850">
				<ele>403.000000</ele>
			</trkpt>
			<trkpt lat="49.052128" lon="17.964743">
				<ele>402.000000</ele>
			</trkpt>
			<trkpt lat="49.052104" lon="17.964536">
				<ele>402.000000</ele>
			</trkpt>
			<trkpt lat="49.052045" lon="17.964303">
				<ele>402.000000</ele>
			</trkpt>
			<trkpt lat="49.052004" lon="17.964177">
				<ele>403.000000</ele>
			</trkpt>
			<trkpt lat="49.051939" lon="17.964024">
				<ele>404.000000</ele>
			</trkpt>
			<trkpt lat="49.051868" lon="17.963907">
				<ele>405.000000</ele>
			</trkpt>
			<trkpt lat="49.051792" lon="17.963808">
				<ele>405.000000</ele>
			</trkpt>
			<trkpt lat="49.051704" lon="17.963718">
				<ele>405.000000</ele>
			</trkpt>
			<trkpt lat="49.051603" lon="17.963655">
				<ele>403.000000</ele>
			</trkpt>
			<trkpt lat="49.051492" lon="17.963584">
				<ele>402.000000</ele>
			</trkpt>
			<trkpt lat="49.051309" lon="17.963494">
				<ele>402.000000</ele>
			</trkpt>
			<trkpt lat="49.051097" lon="17.963387">
				<ele>404.000000</ele>
			</trkpt>
			<trkpt lat="49.050644" lon="17.963234">
				<ele>405.000000</ele>
			</trkpt>
			<trkpt lat="49.050609" lon="17.963125">
				<ele>405.000000</ele>
			</trkpt>
			<trkpt lat="49.050550" lon="17.963054">
				<ele>405.000000</ele>
			</trkpt>
			<trkpt lat="49.050479" lon="17.962964">
				<ele>404.000000</ele>
			</trkpt>
			<trkpt lat="49.050438" lon="17.962883">
				<ele>405.000000</ele>
			</trkpt>
			<trkpt lat="49.050396" lon="17.962793">
				<ele>405.000000</ele>
			</trkpt>
			<trkpt lat="49.050362" lon="17.962668">
				<ele>405.000000</ele>
			</trkpt>
			<trkpt lat="49.050338" lon="17.962569">
				<ele>406.000000</ele>
			</trkpt>
			<trkpt lat="49.050338" lon="17.962569">
				<ele>406.000000</ele>
			</trkpt>
			<trkpt lat="49.050291" lon="17.962326">
				<ele>408.000000</ele>
			</trkpt>
			<trkpt lat="49.050226" lon="17.962003">
				<ele>409.000000</ele>
			</trkpt>
			<trkpt lat="49.050173" lon="17.961670">
				<ele>408.000000</ele>
			</trkpt>
			<trkpt lat="49.050097" lon="17.961131">
				<ele>409.000000</ele>
			</trkpt>
			<trkpt lat="49.050073" lon="17.960916">
				<ele>410.000000</ele>
			</trkpt>
			<trkpt lat="49.050079" lon="17.960737">
				<ele>411.000000</ele>
			</trkpt>
			<trkpt lat="49.050102" lon="17.960584">
				<ele>412.000000</ele>
			</trkpt>
			<trkpt lat="49.050150" lon="17.960412">
				<ele>412.000000</ele>
			</trkpt>
			<trkpt lat="49.050208" lon="17.960278">
				<ele>413.000000</ele>
			</trkpt>
			<trkpt lat="49.050273" lon="17.960135">
				<ele>413.000000</ele>
			</trkpt>
			<trkpt lat="49.050338" lon="17.960035">
				<ele>414.000000</ele>
			</trkpt>
			<trkpt lat="49.050415" lon="17.959945">
				<ele>415.000000</ele>
			</trkpt>
			<trkpt lat="49.050497" lon="17.959856">
				<ele>415.000000</ele>
			</trkpt>
			<trkpt lat="49.050597" lon="17.959785">
				<ele>416.000000</ele>
			</trkpt>
			<trkpt lat="49.050944" lon="17.959559">
				<ele>419.000000</ele>
			</trkpt>
			<trkpt lat="49.051015" lon="17.959290">
				<ele>418.000000</ele>
			</trkpt>
			<trkpt lat="49.051233" lon="17.958598">
				<ele>418.000000</ele>
			</trkpt>
			<trkpt lat="49.051357" lon="17.958221">
				<ele>418.000000</ele>
			</trkpt>
			<trkpt lat="49.051386" lon="17.958131">
				<ele>418.000000</ele>
			</trkpt>
			<trkpt lat="49.051392" lon="17.958051">
				<ele>418.000000</ele>
			</trkpt>
			<trkpt lat="49.051362" lon="17.957969">
				<ele>418.000000</ele>
			</trkpt>
			<trkpt lat="49.051321" lon="17.957879">
				<ele>419.000000</ele>
			</trkpt>
			<trkpt lat="49.051127" lon="17.957672">
				<ele>419.000000</ele>
			</trkpt>
			<trkpt lat="49.050779" lon="17.957368">
				<ele>420.000000</ele>
			</trkpt>
			<trkpt lat="49.050514" lon="17.957135">
				<ele>420.000000</ele>
			</trkpt>
			<trkpt lat="49.050444" lon="17.957045">
				<ele>421.000000</ele>
			</trkpt>
			<trkpt lat="49.050402" lon="17.956963">
				<ele>421.000000</ele>
			</trkpt>
			<trkpt lat="49.050350" lon="17.956837">
				<ele>422.000000</ele>
			</trkpt>
			<trkpt lat="49.050320" lon="17.956666">
				<ele>422.000000</ele>
			</trkpt>
			<trkpt lat="49.050315" lon="17.956469">
				<ele>424.000000</ele>
			</trkpt>
			<trkpt lat="49.050320" lon="17.956217">
				<ele>425.000000</ele>
			</trkpt>
			<trkpt lat="49.050343" lon="17.955921">
				<ele>426.000000</ele>
			</trkpt>
			<trkpt lat="49.050332" lon="17.955714">
				<ele>426.000000</ele>
			</trkpt>
			<trkpt lat="49.050297" lon="17.955437">
				<ele>426.000000</ele>
			</trkpt>
			<trkpt lat="49.050226" lon="17.955095">
				<ele>427.000000</ele>
			</trkpt>
			<trkpt lat="49.050155" lon="17.954843">
				<ele>428.000000</ele>
			</trkpt>
			<trkpt lat="49.050108" lon="17.954691">
				<ele>428.000000</ele>
			</trkpt>
			<trkpt lat="49.050049" lon="17.954546">
				<ele>428.000000</ele>
			</trkpt>
			<trkpt lat="49.049961" lon="17.954421">
				<ele>428.000000</ele>
			</trkpt>
			<trkpt lat="49.049796" lon="17.954187">
				<ele>429.000000</ele>
			</trkpt>
			<trkpt lat="49.049631" lon="17.953990">
				<ele>430.000000</ele>
			</trkpt>
			<trkpt lat="49.049455" lon="17.953783">
				<ele>433.000000</ele>
			</trkpt>
			<trkpt lat="49.049290" lon="17.953613">
				<ele>435.000000</ele>
			</trkpt>
			<trkpt lat="49.049149" lon="17.953469">
				<ele>436.000000</ele>
			</trkpt>
			<trkpt lat="49.049060" lon="17.953370">
				<ele>437.000000</ele>
			</trkpt>
			<trkpt lat="49.048996" lon="17.953235">
				<ele>438.000000</ele>
			</trkpt>
			<trkpt lat="49.048925" lon="17.953074">
				<ele>440.000000</ele>
			</trkpt>
			<trkpt lat="49.048878" lon="17.952921">
				<ele>441.000000</ele>
			</trkpt>
			<trkpt lat="49.048842" lon="17.952724">
				<ele>442.000000</ele>
			</trkpt>
			<trkpt lat="49.048813" lon="17.952472">
				<ele>443.000000</ele>
			</trkpt>
			<trkpt lat="49.048784" lon="17.952022">
				<ele>444.000000</ele>
			</trkpt>
			<trkpt lat="49.048784" lon="17.951833">
				<ele>444.000000</ele>
			</trkpt>
			<trkpt lat="49.048789" lon="17.951663">
				<ele>444.000000</ele>
			</trkpt>
			<trkpt lat="49.048813" lon="17.951493">
				<ele>444.000000</ele>
			</trkpt>
			<trkpt lat="49.048854" lon="17.951313">
				<ele>444.000000</ele>
			</trkpt>
			<trkpt lat="49.048937" lon="17.950909">
				<ele>445.000000</ele>
			</trkpt>
			<trkpt lat="49.048978" lon="17.950703">
				<ele>447.000000</ele>
			</trkpt>
			<trkpt lat="49.048990" lon="17.950487">
				<ele>448.000000</ele>
			</trkpt>
			<trkpt lat="49.048996" lon="17.950271">
				<ele>448.000000</ele>
			</trkpt>
			<trkpt lat="49.048984" lon="17.950118">
				<ele>448.000000</ele>
			</trkpt>
			<trkpt lat="49.048949" lon="17.949974">
				<ele>449.000000</ele>
			</trkpt>
			<trkpt lat="49.048925" lon="17.949867">
				<ele>450.000000</ele>
			</trkpt>
			<trkpt lat="49.048890" lon="17.949795">
				<ele>450.000000</ele>
			</trkpt>
			<trkpt lat="49.048742" lon="17.949598">
				<ele>448.000000</ele>
			</trkpt>
			<trkpt lat="49.048572" lon="17.949382">
				<ele>446.000000</ele>
			</trkpt>
			<trkpt lat="49.048519" lon="17.949292">
				<ele>446.000000</ele>
			</trkpt>
			<trkpt lat="49.048483" lon="17.949229">
				<ele>446.000000</ele>
			</trkpt>
			<trkpt lat="49.048460" lon="17.949139">
				<ele>446.000000</ele>
			</trkpt>
			<trkpt lat="49.048442" lon="17.949049">
				<ele>446.000000</ele>
			</trkpt>
			<trkpt lat="49.048436" lon="17.948950">
				<ele>446.000000</ele>
			</trkpt>
			<trkpt lat="49.048448" lon="17.948842">
				<ele>447.000000</ele>
			</trkpt>
			<trkpt lat="49.048471" lon="17.948716">
				<ele>447.000000</ele>
			</trkpt>
			<trkpt lat="49.048507" lon="17.948609">
				<ele>447.000000</ele>
			</trkpt>
			<trkpt lat="49.048560" lon="17.948439">
				<ele>448.000000</ele>
			</trkpt>
			<trkpt lat="49.048613" lon="17.948313">
				<ele>448.000000</ele>
			</trkpt>
			<trkpt lat="49.048683" lon="17.948187">
				<ele>449.000000</ele>
			</trkpt>
			<trkpt lat="49.048754" lon="17.948061">
				<ele>450.000000</ele>
			</trkpt>
			<trkpt lat="49.048943" lon="17.947800">
				<ele>452.000000</ele>
			</trkpt>
			<trkpt lat="49.049007" lon="17.947711">
				<ele>453.000000</ele>
			</trkpt>
			<trkpt lat="49.049072" lon="17.947575">
				<ele>455.000000</ele>
			</trkpt>
			<trkpt lat="49.049131" lon="17.947432">
				<ele>456.000000</ele>
			</trkpt>
			<trkpt lat="49.049172" lon="17.947279">
				<ele>456.000000</ele>
			</trkpt>
			<trkpt lat="49.049202" lon="17.947162">
				<ele>457.000000</ele>
			</trkpt>
			<trkpt lat="49.049208" lon="17.947037">
				<ele>457.000000</ele>
			</trkpt>
			<trkpt lat="49.049202" lon="17.946929">
				<ele>457.000000</ele>
			</trkpt>
			<trkpt lat="49.049202" lon="17.946929">
				<ele>457.000000</ele>
			</trkpt>
			<trkpt lat="49.049202" lon="17.946929">
				<ele>457.000000</ele>
			</trkpt>
			<trkpt lat="49.049143" lon="17.946651">
				<ele>455.000000</ele>
			</trkpt>
			<trkpt lat="49.049113" lon="17.946525">
				<ele>455.000000</ele>
			</trkpt>
			<trkpt lat="49.049066" lon="17.946426">
				<ele>454.000000</ele>
			</trkpt>
			<trkpt lat="49.048996" lon="17.946355">
				<ele>454.000000</ele>
			</trkpt>
			<trkpt lat="49.048878" lon="17.946219">
				<ele>455.000000</ele>
			</trkpt>
			<trkpt lat="49.048789" lon="17.946112">
				<ele>456.000000</ele>
			</trkpt>
			<trkpt lat="49.048648" lon="17.945879">
				<ele>458.000000</ele>
			</trkpt>
			<trkpt lat="49.048519" lon="17.945707">
				<ele>459.000000</ele>
			</trkpt>
			<trkpt lat="49.048389" lon="17.945590">
				<ele>459.000000</ele>
			</trkpt>
			<trkpt lat="49.048230" lon="17.945474">
				<ele>460.000000</ele>
			</trkpt>
			<trkpt lat="49.048054" lon="17.945340">
				<ele>461.000000</ele>
			</trkpt>
			<trkpt lat="49.047971" lon="17.945267">
				<ele>461.000000</ele>
			</trkpt>
			<trkpt lat="49.047906" lon="17.945177">
				<ele>462.000000</ele>
			</trkpt>
			<trkpt lat="49.047842" lon="17.945097">
				<ele>463.000000</ele>
			</trkpt>
			<trkpt lat="49.047771" lon="17.944980">
				<ele>465.000000</ele>
			</trkpt>
			<trkpt lat="49.047630" lon="17.944701">
				<ele>465.000000</ele>
			</trkpt>
			<trkpt lat="49.047577" lon="17.944584">
				<ele>465.000000</ele>
			</trkpt>
			<trkpt lat="49.047512" lon="17.944351">
				<ele>465.000000</ele>
			</trkpt>
			<trkpt lat="49.047476" lon="17.944297">
				<ele>465.000000</ele>
			</trkpt>
			<trkpt lat="49.047441" lon="17.944234">
				<ele>464.000000</ele>
			</trkpt>
			<trkpt lat="49.047429" lon="17.943919">
				<ele>464.000000</ele>
			</trkpt>
			<trkpt lat="49.047418" lon="17.943659">
				<ele>464.000000</ele>
			</trkpt>
			<trkpt lat="49.047418" lon="17.943632">
				<ele>464.000000</ele>
			</trkpt>
			<trkpt lat="49.047418" lon="17.943632">
				<ele>464.000000</ele>
			</trkpt>
			<trkpt lat="49.047376" lon="17.943219">
				<ele>463.000000</ele>
			</trkpt>
			<trkpt lat="49.047365" lon="17.942977">
				<ele>463.000000</ele>
			</trkpt>
			<trkpt lat="49.047365" lon="17.942751">
				<ele>464.000000</ele>
			</trkpt>
			<trkpt lat="49.047365" lon="17.942626">
				<ele>464.000000</ele>
			</trkpt>
			<trkpt lat="49.047341" lon="17.942491">
				<ele>464.000000</ele>
			</trkpt>
			<trkpt lat="49.047247" lon="17.942034">
				<ele>466.000000</ele>
			</trkpt>
			<trkpt lat="49.047229" lon="17.941988">
				<ele>466.000000</ele>
			</trkpt>
			<trkpt lat="49.047205" lon="17.941934">
				<ele>466.000000</ele>
			</trkpt>
			<trkpt lat="49.047141" lon="17.941862">
				<ele>468.000000</ele>
			</trkpt>
			<trkpt lat="49.047052" lon="17.941808">
				<ele>469.000000</ele>
			</trkpt>
			<trkpt lat="49.046976" lon="17.941782">
				<ele>470.000000</ele>
			</trkpt>
			<trkpt lat="49.046882" lon="17.941764">
				<ele>471.000000</ele>
			</trkpt>
			<trkpt lat="49.046811" lon="17.941709">
				<ele>472.000000</ele>
			</trkpt>
			<trkpt lat="49.046752" lon="17.941638">
				<ele>473.000000</ele>
			</trkpt>
			<trkpt lat="49.046641" lon="17.941468">
				<ele>474.000000</ele>
			</trkpt>
			<trkpt lat="49.046499" lon="17.941261">
				<ele>474.000000</ele>
			</trkpt>
			<trkpt lat="49.046387" lon="17.941126">
				<ele>475.000000</ele>
			</trkpt>
			<trkpt lat="49.046205" lon="17.940919">
				<ele>476.000000</ele>
			</trkpt>
			<trkpt lat="49.046057" lon="17.940757">
				<ele>477.000000</ele>
			</trkpt>
			<trkpt lat="49.045904" lon="17.940640">
				<ele>478.000000</ele>
			</trkpt>
			<trkpt lat="49.045757" lon="17.940533">
				<ele>479.000000</ele>
			</trkpt>
			<trkpt lat="49.045516" lon="17.940399">
				<ele>480.000000</ele>
			</trkpt>
			<trkpt lat="49.045286" lon="17.940290">
				<ele>479.000000</ele>
			</trkpt>
			<trkpt lat="49.045186" lon="17.940254">
				<ele>479.000000</ele>
			</trkpt>
			<trkpt lat="49.045080" lon="17.940237">
				<ele>479.000000</ele>
			</trkpt>
			<trkpt lat="49.044933" lon="17.940227">
				<ele>480.000000</ele>
			</trkpt>
			<trkpt lat="49.044862" lon="17.940200">
				<ele>480.000000</ele>
			</trkpt>
			<trkpt lat="49.044803" lon="17.940156">
				<ele>480.000000</ele>
			</trkpt>
			<trkpt lat="49.044756" lon="17.940066">
				<ele>480.000000</ele>
			</trkpt>
			<trkpt lat="49.044650" lon="17.939761">
				<ele>481.000000</ele>
			</trkpt>
			<trkpt lat="49.044591" lon="17.939608">
				<ele>481.000000</ele>
			</trkpt>
			<trkpt lat="49.044503" lon="17.939491">
				<ele>482.000000</ele>
			</trkpt>
			<trkpt lat="49.044397" lon="17.939392">
				<ele>483.000000</ele>
			</trkpt>
			<trkpt lat="49.044274" lon="17.939329">
				<ele>484.000000</ele>
			</trkpt>
			<trkpt lat="49.044050" lon="17.939248">
				<ele>485.000000</ele>
			</trkpt>
			<trkpt lat="49.043720" lon="17.939114">
				<ele>484.000000</ele>
			</trkpt>
			<trkpt lat="49.043090" lon="17.938916">
				<ele>486.000000</ele>
			</trkpt>
			<trkpt lat="49.042760" lon="17.938791">
				<ele>486.000000</ele>
			</trkpt>
			<trkpt lat="49.042560" lon="17.938709">
				<ele>486.000000</ele>
			</trkpt>
			<trkpt lat="49.042354" lon="17.938682">
				<ele>487.000000</ele>
			</trkpt>
			<trkpt lat="49.041618" lon="17.938592">
				<ele>489.000000</ele>
			</trkpt>
			<trkpt lat="49.041164" lon="17.938529">
				<ele>490.000000</ele>
			</trkpt>
			<trkpt lat="49.040940" lon="17.938503">
				<ele>489.000000</ele>
			</trkpt>
			<trkpt lat="49.040828" lon="17.938493">
				<ele>489.000000</ele>
			</trkpt>
			<trkpt lat="49.040775" lon="17.938476">
				<ele>488.000000</ele>
			</trkpt>
			<trkpt lat="49.040734" lon="17.938432">
				<ele>488.000000</ele>
			</trkpt>
			<trkpt lat="49.040693" lon="17.938377">
				<ele>487.000000</ele>
			</trkpt>
			<trkpt lat="49.040752" lon="17.938135">
				<ele>487.000000</ele>
			</trkpt>
			<trkpt lat="49.040858" lon="17.937803">
				<ele>489.000000</ele>
			</trkpt>
			<trkpt lat="49.040887" lon="17.937721">
				<ele>489.000000</ele>
			</trkpt>
			<trkpt lat="49.040899" lon="17.937640">
				<ele>489.000000</ele>
			</trkpt>
			<trkpt lat="49.040899" lon="17.937569">
				<ele>490.000000</ele>
			</trkpt>
			<trkpt lat="49.040893" lon="17.937487">
				<ele>490.000000</ele>
			</trkpt>
			<trkpt lat="49.041099" lon="17.937424">
				<ele>491.000000</ele>
			</trkpt>
			<trkpt lat="49.041129" lon="17.937416">
				<ele>491.000000</ele>
			</trkpt>
			<trkpt lat="49.041129" lon="17.937416">
				<ele>491.000000</ele>
			</trkpt>
			<trkpt lat="49.041329" lon="17.937334">
				<ele>491.000000</ele>
			</trkpt>
			<trkpt lat="49.041742" lon="17.937128">
				<ele>495.000000</ele>
			</trkpt>
			<trkpt lat="49.042218" lon="17.936931">
				<ele>499.000000</ele>
			</trkpt>
			<trkpt lat="49.042519" lon="17.936841">
				<ele>502.000000</ele>
			</trkpt>
			<trkpt lat="49.042754" lon="17.936787">
				<ele>503.000000</ele>
			</trkpt>
			<trkpt lat="49.042872" lon="17.936769">
				<ele>504.000000</ele>
			</trkpt>
			<trkpt lat="49.043008" lon="17.936760">
				<ele>504.000000</ele>
			</trkpt>
			<trkpt lat="49.043172" lon="17.936769">
				<ele>505.000000</ele>
			</trkpt>
			<trkpt lat="49.043950" lon="17.936841">
				<ele>507.000000</ele>
			</trkpt>
			<trkpt lat="49.044361" lon="17.936858">
				<ele>509.000000</ele>
			</trkpt>
			<trkpt lat="49.044903" lon="17.936805">
				<ele>511.000000</ele>
			</trkpt>
			<trkpt lat="49.045386" lon="17.936734">
				<ele>514.000000</ele>
			</trkpt>
			<trkpt lat="49.046705" lon="17.936527">
				<ele>518.000000</ele>
			</trkpt>
			<trkpt lat="49.046876" lon="17.936508">
				<ele>518.000000</ele>
			</trkpt>
			<trkpt lat="49.047012" lon="17.936518">
				<ele>519.000000</ele>
			</trkpt>
			<trkpt lat="49.047117" lon="17.936554">
				<ele>519.000000</ele>
			</trkpt>
			<trkpt lat="49.047223" lon="17.936589">
				<ele>519.000000</ele>
			</trkpt>
			<trkpt lat="49.047347" lon="17.936644">
				<ele>519.000000</ele>
			</trkpt>
			<trkpt lat="49.047482" lon="17.936734">
				<ele>519.000000</ele>
			</trkpt>
			<trkpt lat="49.047641" lon="17.936858">
				<ele>518.000000</ele>
			</trkpt>
			<trkpt lat="49.047730" lon="17.936931">
				<ele>518.000000</ele>
			</trkpt>
			<trkpt lat="49.047812" lon="17.937030">
				<ele>517.000000</ele>
			</trkpt>
			<trkpt lat="49.047912" lon="17.937164">
				<ele>517.000000</ele>
			</trkpt>
			<trkpt lat="49.047971" lon="17.937263">
				<ele>517.000000</ele>
			</trkpt>
			<trkpt lat="49.048083" lon="17.937443">
				<ele>516.000000</ele>
			</trkpt>
			<trkpt lat="49.048159" lon="17.937541">
				<ele>516.000000</ele>
			</trkpt>
			<trkpt lat="49.048225" lon="17.937613">
				<ele>516.000000</ele>
			</trkpt>
			<trkpt lat="49.048283" lon="17.937659">
				<ele>516.000000</ele>
			</trkpt>
			<trkpt lat="49.048389" lon="17.937713">
				<ele>516.000000</ele>
			</trkpt>
			<trkpt lat="49.048507" lon="17.937739">
				<ele>516.000000</ele>
			</trkpt>
			<trkpt lat="49.048607" lon="17.937749">
				<ele>516.000000</ele>
			</trkpt>
			<trkpt lat="49.048607" lon="17.937749">
				<ele>516.000000</ele>
			</trkpt>
			<trkpt lat="49.048613" lon="17.937749">
				<ele>516.000000</ele>
			</trkpt>
			<trkpt lat="49.048713" lon="17.937730">
				<ele>516.000000</ele>
			</trkpt>
			<trkpt lat="49.048813" lon="17.937694">
				<ele>516.000000</ele>
			</trkpt>
			<trkpt lat="49.048895" lon="17.937640">
				<ele>515.000000</ele>
			</trkpt>
			<trkpt lat="49.048990" lon="17.937577">
				<ele>515.000000</ele>
			</trkpt>
			<trkpt lat="49.049102" lon="17.937479">
				<ele>514.000000</ele>
			</trkpt>
			<trkpt lat="49.049231" lon="17.937334">
				<ele>513.000000</ele>
			</trkpt>
			<trkpt lat="49.049578" lon="17.936904">
				<ele>507.000000</ele>
			</trkpt>
			<trkpt lat="49.050179" lon="17.936132">
				<ele>495.000000</ele>
			</trkpt>
			<trkpt lat="49.050297" lon="17.935969">
				<ele>494.000000</ele>
			</trkpt>
			<trkpt lat="49.050409" lon="17.935826">
				<ele>492.000000</ele>
			</trkpt>
			<trkpt lat="49.050521" lon="17.935726">
				<ele>489.000000</ele>
			</trkpt>
			<trkpt lat="49.050656" lon="17.935602">
				<ele>488.000000</ele>
			</trkpt>
			<trkpt lat="49.050897" lon="17.935430">
				<ele>484.000000</ele>
			</trkpt>
			<trkpt lat="49.051315" lon="17.935197">
				<ele>477.000000</ele>
			</trkpt>
			<trkpt lat="49.051527" lon="17.935071">
				<ele>472.000000</ele>
			</trkpt>
			<trkpt lat="49.051757" lon="17.934883">
				<ele>468.000000</ele>
			</trkpt>
			<trkpt lat="49.051886" lon="17.934766">
				<ele>465.000000</ele>
			</trkpt>
			<trkpt lat="49.052016" lon="17.934640">
				<ele>463.000000</ele>
			</trkpt>
			<trkpt lat="49.052487" lon="17.934101">
				<ele>456.000000</ele>
			</trkpt>
			<trkpt lat="49.052764" lon="17.933751">
				<ele>452.000000</ele>
			</trkpt>
			<trkpt lat="49.052899" lon="17.933562">
				<ele>450.000000</ele>
			</trkpt>
			<trkpt lat="49.053011" lon="17.933409">
				<ele>448.000000</ele>
			</trkpt>
			<trkpt lat="49.053111" lon="17.933221">
				<ele>446.000000</ele>
			</trkpt>
			<trkpt lat="49.053205" lon="17.933042">
				<ele>445.000000</ele>
			</trkpt>
			<trkpt lat="49.053358" lon="17.932726">
				<ele>442.000000</ele>
			</trkpt>
			<trkpt lat="49.053494" lon="17.932421">
				<ele>440.000000</ele>
			</trkpt>
			<trkpt lat="49.053617" lon="17.932107">
				<ele>439.000000</ele>
			</trkpt>
			<trkpt lat="49.053770" lon="17.931648">
				<ele>437.000000</ele>
			</trkpt>
			<trkpt lat="49.053899" lon="17.931254">
				<ele>435.000000</ele>
			</trkpt>
			<trkpt lat="49.053947" lon="17.931065">
				<ele>434.000000</ele>
			</trkpt>
			<trkpt lat="49.053982" lon="17.930903">
				<ele>433.000000</ele>
			</trkpt>
			<trkpt lat="49.054035" lon="17.930571">
				<ele>431.000000</ele>
			</trkpt>
			<trkpt lat="49.054053" lon="17.930202">
				<ele>429.000000</ele>
			</trkpt>
			<trkpt lat="49.054058" lon="17.929564">
				<ele>424.000000</ele>
			</trkpt>
			<trkpt lat="49.054030" lon="17.928558">
				<ele>417.000000</ele>
			</trkpt>
			<trkpt lat="49.054030" lon="17.928235">
				<ele>415.000000</ele>
			</trkpt>
			<trkpt lat="49.054041" lon="17.928118">
				<ele>414.000000</ele>
			</trkpt>
			<trkpt lat="49.054053" lon="17.928011">
				<ele>413.000000</ele>
			</trkpt>
			<trkpt lat="49.054082" lon="17.927912">
				<ele>412.000000</ele>
			</trkpt>
			<trkpt lat="49.054123" lon="17.927822">
				<ele>411.000000</ele>
			</trkpt>
			<trkpt lat="49.054170" lon="17.927723">
				<ele>410.000000</ele>
			</trkpt>
			<trkpt lat="49.054223" lon="17.927652">
				<ele>409.000000</ele>
			</trkpt>
			<trkpt lat="49.055136" lon="17.926411">
				<ele>397.000000</ele>
			</trkpt>
			<trkpt lat="49.055259" lon="17.926241">
				<ele>396.000000</ele>
			</trkpt>
			<trkpt lat="49.055336" lon="17.926115">
				<ele>396.000000</ele>
			</trkpt>
			<trkpt lat="49.055395" lon="17.925981">
				<ele>395.000000</ele>
			</trkpt>
			<trkpt lat="49.055460" lon="17.925747">
				<ele>394.000000</ele>
			</trkpt>
			<trkpt lat="49.055530" lon="17.925451">
				<ele>393.000000</ele>
			</trkpt>
			<trkpt lat="49.055684" lon="17.924795">
				<ele>391.000000</ele>
			</trkpt>
			<trkpt lat="49.055843" lon="17.924229">
				<ele>389.000000</ele>
			</trkpt>
			<trkpt lat="49.056025" lon="17.923671">
				<ele>387.000000</ele>
			</trkpt>
			<trkpt lat="49.056325" lon="17.922845">
				<ele>382.000000</ele>
			</trkpt>
			<trkpt lat="49.056425" lon="17.922602">
				<ele>380.000000</ele>
			</trkpt>
			<trkpt lat="49.056472" lon="17.922522">
				<ele>379.000000</ele>
			</trkpt>
			<trkpt lat="49.056525" lon="17.922442">
				<ele>379.000000</ele>
			</trkpt>
			<trkpt lat="49.056578" lon="17.922396">
				<ele>378.000000</ele>
			</trkpt>
			<trkpt lat="49.056643" lon="17.922342">
				<ele>378.000000</ele>
			</trkpt>
			<trkpt lat="49.056843" lon="17.922235">
				<ele>376.000000</ele>
			</trkpt>
			<trkpt lat="49.057138" lon="17.922082">
				<ele>375.000000</ele>
			</trkpt>
			<trkpt lat="49.057231" lon="17.922019">
				<ele>375.000000</ele>
			</trkpt>
			<trkpt lat="49.057320" lon="17.921947">
				<ele>374.000000</ele>
			</trkpt>
			<trkpt lat="49.057420" lon="17.921857">
				<ele>374.000000</ele>
			</trkpt>
			<trkpt lat="49.057532" lon="17.921767">
				<ele>373.000000</ele>
			</trkpt>
			<trkpt lat="49.057644" lon="17.921704">
				<ele>373.000000</ele>
			</trkpt>
			<trkpt lat="49.057850" lon="17.921606">
				<ele>372.000000</ele>
			</trkpt>
			<trkpt lat="49.058474" lon="17.921281">
				<ele>370.000000</ele>
			</trkpt>
			<trkpt lat="49.058591" lon="17.921210">
				<ele>370.000000</ele>
			</trkpt>
			<trkpt lat="49.058774" lon="17.921067">
				<ele>369.000000</ele>
			</trkpt>
			<trkpt lat="49.058839" lon="17.921048">
				<ele>369.000000</ele>
			</trkpt>
			<trkpt lat="49.058909" lon="17.921040">
				<ele>369.000000</ele>
			</trkpt>
			<trkpt lat="49.058974" lon="17.921031">
				<ele>369.000000</ele>
			</trkpt>
			<trkpt lat="49.059045" lon="17.921031">
				<ele>368.000000</ele>
			</trkpt>
			<trkpt lat="49.059116" lon="17.921048">
				<ele>368.000000</ele>
			</trkpt>
			<trkpt lat="49.059203" lon="17.921084">
				<ele>367.000000</ele>
			</trkpt>
			<trkpt lat="49.059286" lon="17.921138">
				<ele>367.000000</ele>
			</trkpt>
			<trkpt lat="49.059362" lon="17.921184">
				<ele>366.000000</ele>
			</trkpt>
			<trkpt lat="49.059486" lon="17.921273">
				<ele>366.000000</ele>
			</trkpt>
			<trkpt lat="49.059622" lon="17.921310">
				<ele>366.000000</ele>
			</trkpt>
			<trkpt lat="49.059775" lon="17.921318">
				<ele>366.000000</ele>
			</trkpt>
			<trkpt lat="49.059963" lon="17.921291">
				<ele>365.000000</ele>
			</trkpt>
			<trkpt lat="49.060934" lon="17.921048">
				<ele>363.000000</ele>
			</trkpt>
			<trkpt lat="49.061411" lon="17.920968">
				<ele>361.000000</ele>
			</trkpt>
			<trkpt lat="49.061558" lon="17.920950">
				<ele>361.000000</ele>
			</trkpt>
			<trkpt lat="49.061764" lon="17.920931">
				<ele>360.000000</ele>
			</trkpt>
			<trkpt lat="49.061847" lon="17.920923">
				<ele>360.000000</ele>
			</trkpt>
			<trkpt lat="49.061911" lon="17.920895">
				<ele>360.000000</ele>
			</trkpt>
			<trkpt lat="49.061970" lon="17.920878">
				<ele>360.000000</ele>
			</trkpt>
			<trkpt lat="49.062035" lon="17.920805">
				<ele>360.000000</ele>
			</trkpt>
			<trkpt lat="49.062288" lon="17.920635">
				<ele>360.000000</ele>
			</trkpt>
			<trkpt lat="49.062288" lon="17.920635">
				<ele>360.000000</ele>
			</trkpt>
			<trkpt lat="49.062570" lon="17.920447">
				<ele>359.000000</ele>
			</trkpt>
			<trkpt lat="49.063030" lon="17.920088">
				<ele>358.000000</ele>
			</trkpt>
			<trkpt lat="49.063130" lon="17.920025">
				<ele>358.000000</ele>
			</trkpt>
			<trkpt lat="49.063218" lon="17.920006">
				<ele>358.000000</ele>
			</trkpt>
			<trkpt lat="49.063324" lon="17.920006">
				<ele>358.000000</ele>
			</trkpt>
			<trkpt lat="49.063489" lon="17.920033">
				<ele>358.000000</ele>
			</trkpt>
			<trkpt lat="49.063954" lon="17.920142">
				<ele>359.000000</ele>
			</trkpt>
			<trkpt lat="49.064184" lon="17.920195">
				<ele>359.000000</ele>
			</trkpt>
			<trkpt lat="49.064384" lon="17.920205">
				<ele>359.000000</ele>
			</trkpt>
			<trkpt lat="49.064583" lon="17.920178">
				<ele>359.000000</ele>
			</trkpt>
			<trkpt lat="49.064860" lon="17.920115">
				<ele>359.000000</ele>
			</trkpt>
			<trkpt lat="49.065096" lon="17.920069">
				<ele>359.000000</ele>
			</trkpt>
			<trkpt lat="49.065431" lon="17.920006">
				<ele>359.000000</ele>
			</trkpt>
			<trkpt lat="49.065655" lon="17.919952">
				<ele>358.000000</ele>
			</trkpt>
			<trkpt lat="49.065884" lon="17.919872">
				<ele>358.000000</ele>
			</trkpt>
			<trkpt lat="49.066196" lon="17.919710">
				<ele>358.000000</ele>
			</trkpt>
			<trkpt lat="49.066403" lon="17.919576">
				<ele>357.000000</ele>
			</trkpt>
			<trkpt lat="49.066485" lon="17.919513">
				<ele>357.000000</ele>
			</trkpt>
			<trkpt lat="49.066561" lon="17.919450">
				<ele>357.000000</ele>
			</trkpt>
			<trkpt lat="49.066620" lon="17.919369">
				<ele>357.000000</ele>
			</trkpt>
			<trkpt lat="49.066673" lon="17.919279">
				<ele>357.000000</ele>
			</trkpt>
			<trkpt lat="49.066732" lon="17.919180">
				<ele>356.000000</ele>
			</trkpt>
			<trkpt lat="49.066767" lon="17.919073">
				<ele>356.000000</ele>
			</trkpt>
			<trkpt lat="49.066791" lon="17.918991">
				<ele>356.000000</ele>
			</trkpt>
			<trkpt lat="49.066808" lon="17.918874">
				<ele>356.000000</ele>
			</trkpt>
			<trkpt lat="49.066826" lon="17.918668">
				<ele>355.000000</ele>
			</trkpt>
			<trkpt lat="49.066820" lon="17.918631">
				<ele>355.000000</ele>
			</trkpt>
			<trkpt lat="49.066820" lon="17.918631">
				<ele>355.000000</ele>
			</trkpt>
			<trkpt lat="49.066803" lon="17.918417">
				<ele>354.000000</ele>
			</trkpt>
			<trkpt lat="49.066750" lon="17.917994">
				<ele>352.000000</ele>
			</trkpt>
			<trkpt lat="49.066691" lon="17.917438">
				<ele>351.000000</ele>
			</trkpt>
			<trkpt lat="49.066638" lon="17.916863">
				<ele>350.000000</ele>
			</trkpt>
			<trkpt lat="49.066585" lon="17.916234">
				<ele>350.000000</ele>
			</trkpt>
		</trkseg>
	</trk>
</gpx>

