<?xml version="1.0" encoding="utf-8"?>
<gpx xmlns="http://www.topografix.com/GPX/1/1" version="1.1" creator="https://mapy.cz/">
	<trk>
		<name>16.Rokytnice - Bojkovice</name>
		<trkseg>
			<trkpt lat="49.066573" lon="17.915533">
				<ele>350.000000</ele>
			</trkpt>
			<trkpt lat="49.066591" lon="17.915488">
				<ele>350.000000</ele>
			</trkpt>
			<trkpt lat="49.066526" lon="17.914733">
				<ele>350.000000</ele>
			</trkpt>
			<trkpt lat="49.066514" lon="17.914608">
				<ele>350.000000</ele>
			</trkpt>
			<trkpt lat="49.066479" lon="17.914499">
				<ele>350.000000</ele>
			</trkpt>
			<trkpt lat="49.066414" lon="17.914302">
				<ele>350.000000</ele>
			</trkpt>
			<trkpt lat="49.066361" lon="17.914176">
				<ele>350.000000</ele>
			</trkpt>
			<trkpt lat="49.066291" lon="17.914060">
				<ele>350.000000</ele>
			</trkpt>
			<trkpt lat="49.066043" lon="17.913710">
				<ele>351.000000</ele>
			</trkpt>
			<trkpt lat="49.065955" lon="17.913566">
				<ele>351.000000</ele>
			</trkpt>
			<trkpt lat="49.065884" lon="17.913413">
				<ele>351.000000</ele>
			</trkpt>
			<trkpt lat="49.065808" lon="17.913215">
				<ele>351.000000</ele>
			</trkpt>
			<trkpt lat="49.065755" lon="17.913008">
				<ele>351.000000</ele>
			</trkpt>
			<trkpt lat="49.065549" lon="17.912155">
				<ele>352.000000</ele>
			</trkpt>
			<trkpt lat="49.065655" lon="17.911966">
				<ele>353.000000</ele>
			</trkpt>
			<trkpt lat="49.065655" lon="17.911966">
				<ele>353.000000</ele>
			</trkpt>
			<trkpt lat="49.065690" lon="17.911895">
				<ele>353.000000</ele>
			</trkpt>
			<trkpt lat="49.065737" lon="17.911786">
				<ele>353.000000</ele>
			</trkpt>
			<trkpt lat="49.065778" lon="17.911679">
				<ele>353.000000</ele>
			</trkpt>
			<trkpt lat="49.065826" lon="17.911580">
				<ele>354.000000</ele>
			</trkpt>
			<trkpt lat="49.065973" lon="17.911373">
				<ele>355.000000</ele>
			</trkpt>
			<trkpt lat="49.066020" lon="17.911266">
				<ele>355.000000</ele>
			</trkpt>
			<trkpt lat="49.066043" lon="17.911203">
				<ele>355.000000</ele>
			</trkpt>
			<trkpt lat="49.066049" lon="17.911123">
				<ele>355.000000</ele>
			</trkpt>
			<trkpt lat="49.066055" lon="17.910916">
				<ele>356.000000</ele>
			</trkpt>
			<trkpt lat="49.066043" lon="17.909568">
				<ele>359.000000</ele>
			</trkpt>
			<trkpt lat="49.066043" lon="17.909281">
				<ele>360.000000</ele>
			</trkpt>
			<trkpt lat="49.066026" lon="17.909065">
				<ele>361.000000</ele>
			</trkpt>
			<trkpt lat="49.065984" lon="17.908886">
				<ele>361.000000</ele>
			</trkpt>
			<trkpt lat="49.065926" lon="17.908733">
				<ele>362.000000</ele>
			</trkpt>
			<trkpt lat="49.065643" lon="17.908113">
				<ele>365.000000</ele>
			</trkpt>
			<trkpt lat="49.065343" lon="17.907394">
				<ele>367.000000</ele>
			</trkpt>
			<trkpt lat="49.065066" lon="17.906666">
				<ele>371.000000</ele>
			</trkpt>
			<trkpt lat="49.064925" lon="17.906272">
				<ele>373.000000</ele>
			</trkpt>
			<trkpt lat="49.064925" lon="17.906272">
				<ele>373.000000</ele>
			</trkpt>
			<trkpt lat="49.064807" lon="17.905939">
				<ele>375.000000</ele>
			</trkpt>
			<trkpt lat="49.064430" lon="17.904834">
				<ele>379.000000</ele>
			</trkpt>
			<trkpt lat="49.064278" lon="17.904429">
				<ele>379.000000</ele>
			</trkpt>
			<trkpt lat="49.064119" lon="17.904025">
				<ele>380.000000</ele>
			</trkpt>
			<trkpt lat="49.063565" lon="17.902741">
				<ele>384.000000</ele>
			</trkpt>
			<trkpt lat="49.063506" lon="17.902580">
				<ele>384.000000</ele>
			</trkpt>
			<trkpt lat="49.063471" lon="17.902435">
				<ele>385.000000</ele>
			</trkpt>
			<trkpt lat="49.063466" lon="17.902328">
				<ele>385.000000</ele>
			</trkpt>
			<trkpt lat="49.063459" lon="17.901995">
				<ele>386.000000</ele>
			</trkpt>
			<trkpt lat="49.063436" lon="17.901815">
				<ele>386.000000</ele>
			</trkpt>
			<trkpt lat="49.063400" lon="17.901699">
				<ele>386.000000</ele>
			</trkpt>
			<trkpt lat="49.063341" lon="17.901582">
				<ele>387.000000</ele>
			</trkpt>
			<trkpt lat="49.063265" lon="17.901483">
				<ele>388.000000</ele>
			</trkpt>
			<trkpt lat="49.063095" lon="17.901295">
				<ele>390.000000</ele>
			</trkpt>
			<trkpt lat="49.062977" lon="17.901133">
				<ele>391.000000</ele>
			</trkpt>
			<trkpt lat="49.062859" lon="17.900980">
				<ele>392.000000</ele>
			</trkpt>
			<trkpt lat="49.062765" lon="17.900783">
				<ele>393.000000</ele>
			</trkpt>
			<trkpt lat="49.062659" lon="17.900531">
				<ele>395.000000</ele>
			</trkpt>
			<trkpt lat="49.062059" lon="17.899031">
				<ele>404.000000</ele>
			</trkpt>
			<trkpt lat="49.061923" lon="17.898689">
				<ele>405.000000</ele>
			</trkpt>
			<trkpt lat="49.061817" lon="17.898465">
				<ele>407.000000</ele>
			</trkpt>
			<trkpt lat="49.061723" lon="17.898232">
				<ele>408.000000</ele>
			</trkpt>
			<trkpt lat="49.061629" lon="17.898033">
				<ele>409.000000</ele>
			</trkpt>
			<trkpt lat="49.061511" lon="17.897809">
				<ele>410.000000</ele>
			</trkpt>
			<trkpt lat="49.061453" lon="17.897701">
				<ele>410.000000</ele>
			</trkpt>
			<trkpt lat="49.061453" lon="17.897701">
				<ele>410.000000</ele>
			</trkpt>
			<trkpt lat="49.061387" lon="17.897594">
				<ele>411.000000</ele>
			</trkpt>
			<trkpt lat="49.061270" lon="17.897404">
				<ele>411.000000</ele>
			</trkpt>
			<trkpt lat="49.061076" lon="17.897135">
				<ele>413.000000</ele>
			</trkpt>
			<trkpt lat="49.060599" lon="17.896525">
				<ele>417.000000</ele>
			</trkpt>
			<trkpt lat="49.060375" lon="17.896210">
				<ele>419.000000</ele>
			</trkpt>
			<trkpt lat="49.059121" lon="17.894450">
				<ele>430.000000</ele>
			</trkpt>
			<trkpt lat="49.058650" lon="17.893775">
				<ele>435.000000</ele>
			</trkpt>
			<trkpt lat="49.058156" lon="17.893039">
				<ele>442.000000</ele>
			</trkpt>
			<trkpt lat="49.057862" lon="17.892635">
				<ele>445.000000</ele>
			</trkpt>
			<trkpt lat="49.057355" lon="17.891988">
				<ele>448.000000</ele>
			</trkpt>
			<trkpt lat="49.057190" lon="17.891764">
				<ele>449.000000</ele>
			</trkpt>
			<trkpt lat="49.057061" lon="17.891565">
				<ele>449.000000</ele>
			</trkpt>
			<trkpt lat="49.056890" lon="17.891099">
				<ele>448.000000</ele>
			</trkpt>
			<trkpt lat="49.056814" lon="17.890848">
				<ele>448.000000</ele>
			</trkpt>
			<trkpt lat="49.056814" lon="17.890848">
				<ele>448.000000</ele>
			</trkpt>
			<trkpt lat="49.056790" lon="17.890766">
				<ele>448.000000</ele>
			</trkpt>
			<trkpt lat="49.056637" lon="17.890200">
				<ele>447.000000</ele>
			</trkpt>
			<trkpt lat="49.056496" lon="17.889751">
				<ele>446.000000</ele>
			</trkpt>
			<trkpt lat="49.056407" lon="17.889544">
				<ele>445.000000</ele>
			</trkpt>
			<trkpt lat="49.056307" lon="17.889301">
				<ele>444.000000</ele>
			</trkpt>
			<trkpt lat="49.056066" lon="17.888799">
				<ele>441.000000</ele>
			</trkpt>
			<trkpt lat="49.055972" lon="17.888611">
				<ele>440.000000</ele>
			</trkpt>
			<trkpt lat="49.055872" lon="17.888431">
				<ele>440.000000</ele>
			</trkpt>
			<trkpt lat="49.055548" lon="17.887955">
				<ele>437.000000</ele>
			</trkpt>
			<trkpt lat="49.055436" lon="17.887757">
				<ele>435.000000</ele>
			</trkpt>
			<trkpt lat="49.055307" lon="17.887533">
				<ele>434.000000</ele>
			</trkpt>
			<trkpt lat="49.055171" lon="17.887236">
				<ele>433.000000</ele>
			</trkpt>
			<trkpt lat="49.055000" lon="17.886859">
				<ele>430.000000</ele>
			</trkpt>
			<trkpt lat="49.054812" lon="17.886508">
				<ele>428.000000</ele>
			</trkpt>
			<trkpt lat="49.054624" lon="17.886204">
				<ele>426.000000</ele>
			</trkpt>
			<trkpt lat="49.054441" lon="17.885988">
				<ele>425.000000</ele>
			</trkpt>
			<trkpt lat="49.054318" lon="17.885862">
				<ele>424.000000</ele>
			</trkpt>
			<trkpt lat="49.054176" lon="17.885772">
				<ele>423.000000</ele>
			</trkpt>
			<trkpt lat="49.054017" lon="17.885664">
				<ele>422.000000</ele>
			</trkpt>
			<trkpt lat="49.053747" lon="17.885538">
				<ele>420.000000</ele>
			</trkpt>
			<trkpt lat="49.053582" lon="17.885448">
				<ele>419.000000</ele>
			</trkpt>
			<trkpt lat="49.053441" lon="17.885340">
				<ele>418.000000</ele>
			</trkpt>
			<trkpt lat="49.053299" lon="17.885215">
				<ele>417.000000</ele>
			</trkpt>
			<trkpt lat="49.053128" lon="17.885009">
				<ele>415.000000</ele>
			</trkpt>
			<trkpt lat="49.052981" lon="17.884864">
				<ele>414.000000</ele>
			</trkpt>
			<trkpt lat="49.052823" lon="17.884730">
				<ele>413.000000</ele>
			</trkpt>
			<trkpt lat="49.052616" lon="17.884622">
				<ele>411.000000</ele>
			</trkpt>
			<trkpt lat="49.052293" lon="17.884469">
				<ele>409.000000</ele>
			</trkpt>
			<trkpt lat="49.052192" lon="17.884406">
				<ele>409.000000</ele>
			</trkpt>
			<trkpt lat="49.051974" lon="17.884244">
				<ele>407.000000</ele>
			</trkpt>
			<trkpt lat="49.051874" lon="17.884200">
				<ele>407.000000</ele>
			</trkpt>
			<trkpt lat="49.051739" lon="17.884181">
				<ele>407.000000</ele>
			</trkpt>
			<trkpt lat="49.051633" lon="17.884146">
				<ele>406.000000</ele>
			</trkpt>
			<trkpt lat="49.051563" lon="17.884101">
				<ele>405.000000</ele>
			</trkpt>
			<trkpt lat="49.051510" lon="17.884038">
				<ele>404.000000</ele>
			</trkpt>
			<trkpt lat="49.051486" lon="17.884001">
				<ele>404.000000</ele>
			</trkpt>
			<trkpt lat="49.051468" lon="17.883940">
				<ele>404.000000</ele>
			</trkpt>
			<trkpt lat="49.051468" lon="17.883904">
				<ele>403.000000</ele>
			</trkpt>
			<trkpt lat="49.051480" lon="17.883877">
				<ele>403.000000</ele>
			</trkpt>
			<trkpt lat="49.051498" lon="17.883850">
				<ele>403.000000</ele>
			</trkpt>
			<trkpt lat="49.051521" lon="17.883822">
				<ele>403.000000</ele>
			</trkpt>
			<trkpt lat="49.051622" lon="17.883787">
				<ele>402.000000</ele>
			</trkpt>
			<trkpt lat="49.051739" lon="17.883751">
				<ele>402.000000</ele>
			</trkpt>
			<trkpt lat="49.051833" lon="17.883732">
				<ele>402.000000</ele>
			</trkpt>
			<trkpt lat="49.051939" lon="17.883688">
				<ele>401.000000</ele>
			</trkpt>
			<trkpt lat="49.052022" lon="17.883634">
				<ele>400.000000</ele>
			</trkpt>
			<trkpt lat="49.052104" lon="17.883571">
				<ele>400.000000</ele>
			</trkpt>
			<trkpt lat="49.052187" lon="17.883490">
				<ele>399.000000</ele>
			</trkpt>
			<trkpt lat="49.052263" lon="17.883401">
				<ele>398.000000</ele>
			</trkpt>
			<trkpt lat="49.052357" lon="17.883284">
				<ele>397.000000</ele>
			</trkpt>
			<trkpt lat="49.052475" lon="17.883148">
				<ele>397.000000</ele>
			</trkpt>
			<trkpt lat="49.052587" lon="17.883049">
				<ele>396.000000</ele>
			</trkpt>
			<trkpt lat="49.052698" lon="17.883005">
				<ele>395.000000</ele>
			</trkpt>
			<trkpt lat="49.052823" lon="17.882969">
				<ele>394.000000</ele>
			</trkpt>
			<trkpt lat="49.053011" lon="17.882951">
				<ele>393.000000</ele>
			</trkpt>
			<trkpt lat="49.053064" lon="17.882942">
				<ele>393.000000</ele>
			</trkpt>
			<trkpt lat="49.053105" lon="17.882915">
				<ele>393.000000</ele>
			</trkpt>
			<trkpt lat="49.053128" lon="17.882861">
				<ele>392.000000</ele>
			</trkpt>
			<trkpt lat="49.053152" lon="17.882825">
				<ele>392.000000</ele>
			</trkpt>
			<trkpt lat="49.053164" lon="17.882745">
				<ele>391.000000</ele>
			</trkpt>
			<trkpt lat="49.053164" lon="17.882655">
				<ele>391.000000</ele>
			</trkpt>
			<trkpt lat="49.053146" lon="17.882601">
				<ele>390.000000</ele>
			</trkpt>
			<trkpt lat="49.053123" lon="17.882538">
				<ele>390.000000</ele>
			</trkpt>
			<trkpt lat="49.053034" lon="17.882376">
				<ele>389.000000</ele>
			</trkpt>
			<trkpt lat="49.052534" lon="17.881496">
				<ele>383.000000</ele>
			</trkpt>
			<trkpt lat="49.052216" lon="17.880975">
				<ele>380.000000</ele>
			</trkpt>
			<trkpt lat="49.052075" lon="17.880777">
				<ele>379.000000</ele>
			</trkpt>
			<trkpt lat="49.051939" lon="17.880588">
				<ele>378.000000</ele>
			</trkpt>
			<trkpt lat="49.051815" lon="17.880435">
				<ele>378.000000</ele>
			</trkpt>
			<trkpt lat="49.051692" lon="17.880301">
				<ele>378.000000</ele>
			</trkpt>
			<trkpt lat="49.051427" lon="17.880068">
				<ele>377.000000</ele>
			</trkpt>
			<trkpt lat="49.050803" lon="17.879537">
				<ele>377.000000</ele>
			</trkpt>
			<trkpt lat="49.050614" lon="17.879403">
				<ele>377.000000</ele>
			</trkpt>
			<trkpt lat="49.050343" lon="17.879250">
				<ele>377.000000</ele>
			</trkpt>
			<trkpt lat="49.050208" lon="17.879177">
				<ele>377.000000</ele>
			</trkpt>
			<trkpt lat="49.050102" lon="17.879097">
				<ele>377.000000</ele>
			</trkpt>
			<trkpt lat="49.050014" lon="17.879017">
				<ele>377.000000</ele>
			</trkpt>
			<trkpt lat="49.049938" lon="17.878917">
				<ele>377.000000</ele>
			</trkpt>
			<trkpt lat="49.049885" lon="17.878827">
				<ele>377.000000</ele>
			</trkpt>
			<trkpt lat="49.049843" lon="17.878730">
				<ele>377.000000</ele>
			</trkpt>
			<trkpt lat="49.049808" lon="17.878630">
				<ele>377.000000</ele>
			</trkpt>
			<trkpt lat="49.049784" lon="17.878550">
				<ele>377.000000</ele>
			</trkpt>
			<trkpt lat="49.049696" lon="17.878091">
				<ele>378.000000</ele>
			</trkpt>
			<trkpt lat="49.049649" lon="17.877894">
				<ele>378.000000</ele>
			</trkpt>
			<trkpt lat="49.049590" lon="17.877705">
				<ele>379.000000</ele>
			</trkpt>
			<trkpt lat="49.049413" lon="17.877238">
				<ele>382.000000</ele>
			</trkpt>
			<trkpt lat="49.049413" lon="17.877238">
				<ele>382.000000</ele>
			</trkpt>
			<trkpt lat="49.049125" lon="17.876474">
				<ele>386.000000</ele>
			</trkpt>
			<trkpt lat="49.048401" lon="17.874596">
				<ele>400.000000</ele>
			</trkpt>
			<trkpt lat="49.047800" lon="17.873024">
				<ele>407.000000</ele>
			</trkpt>
			<trkpt lat="49.047253" lon="17.871506">
				<ele>400.000000</ele>
			</trkpt>
			<trkpt lat="49.047200" lon="17.871363">
				<ele>399.000000</ele>
			</trkpt>
			<trkpt lat="49.047135" lon="17.871219">
				<ele>398.000000</ele>
			</trkpt>
			<trkpt lat="49.047064" lon="17.871093">
				<ele>398.000000</ele>
			</trkpt>
			<trkpt lat="49.046858" lon="17.870770">
				<ele>396.000000</ele>
			</trkpt>
			<trkpt lat="49.046735" lon="17.870527">
				<ele>394.000000</ele>
			</trkpt>
			<trkpt lat="49.046635" lon="17.870303">
				<ele>393.000000</ele>
			</trkpt>
			<trkpt lat="49.046570" lon="17.870078">
				<ele>392.000000</ele>
			</trkpt>
			<trkpt lat="49.046499" lon="17.869872">
				<ele>392.000000</ele>
			</trkpt>
			<trkpt lat="49.046405" lon="17.869458">
				<ele>392.000000</ele>
			</trkpt>
			<trkpt lat="49.046311" lon="17.869099">
				<ele>393.000000</ele>
			</trkpt>
			<trkpt lat="49.046193" lon="17.868776">
				<ele>394.000000</ele>
			</trkpt>
			<trkpt lat="49.046075" lon="17.868470">
				<ele>395.000000</ele>
			</trkpt>
			<trkpt lat="49.045863" lon="17.868011">
				<ele>395.000000</ele>
			</trkpt>
			<trkpt lat="49.045486" lon="17.867231">
				<ele>396.000000</ele>
			</trkpt>
			<trkpt lat="49.045168" lon="17.866610">
				<ele>400.000000</ele>
			</trkpt>
			<trkpt lat="49.044833" lon="17.866044">
				<ele>404.000000</ele>
			</trkpt>
			<trkpt lat="49.044397" lon="17.865371">
				<ele>406.000000</ele>
			</trkpt>
			<trkpt lat="49.044050" lon="17.864877">
				<ele>402.000000</ele>
			</trkpt>
			<trkpt lat="49.043897" lon="17.864644">
				<ele>400.000000</ele>
			</trkpt>
			<trkpt lat="49.043755" lon="17.864419">
				<ele>398.000000</ele>
			</trkpt>
			<trkpt lat="49.043378" lon="17.863736">
				<ele>392.000000</ele>
			</trkpt>
			<trkpt lat="49.043002" lon="17.863063">
				<ele>388.000000</ele>
			</trkpt>
			<trkpt lat="49.042766" lon="17.862640">
				<ele>385.000000</ele>
			</trkpt>
			<trkpt lat="49.042560" lon="17.862227">
				<ele>383.000000</ele>
			</trkpt>
			<trkpt lat="49.042330" lon="17.861732">
				<ele>379.000000</ele>
			</trkpt>
			<trkpt lat="49.041988" lon="17.860979">
				<ele>374.000000</ele>
			</trkpt>
			<trkpt lat="49.041759" lon="17.860448">
				<ele>371.000000</ele>
			</trkpt>
			<trkpt lat="49.041541" lon="17.859900">
				<ele>370.000000</ele>
			</trkpt>
			<trkpt lat="49.041294" lon="17.859254">
				<ele>366.000000</ele>
			</trkpt>
			<trkpt lat="49.041170" lon="17.858895">
				<ele>364.000000</ele>
			</trkpt>
			<trkpt lat="49.041070" lon="17.858543">
				<ele>362.000000</ele>
			</trkpt>
			<trkpt lat="49.041005" lon="17.858239">
				<ele>360.000000</ele>
			</trkpt>
			<trkpt lat="49.040952" lon="17.857906">
				<ele>358.000000</ele>
			</trkpt>
			<trkpt lat="49.040929" lon="17.857663">
				<ele>356.000000</ele>
			</trkpt>
			<trkpt lat="49.040905" lon="17.857430">
				<ele>355.000000</ele>
			</trkpt>
			<trkpt lat="49.040911" lon="17.857178">
				<ele>354.000000</ele>
			</trkpt>
			<trkpt lat="49.040923" lon="17.856891">
				<ele>353.000000</ele>
			</trkpt>
			<trkpt lat="49.040934" lon="17.856648">
				<ele>352.000000</ele>
			</trkpt>
			<trkpt lat="49.040982" lon="17.856334">
				<ele>350.000000</ele>
			</trkpt>
			<trkpt lat="49.041011" lon="17.856065">
				<ele>349.000000</ele>
			</trkpt>
			<trkpt lat="49.041076" lon="17.855742">
				<ele>347.000000</ele>
			</trkpt>
			<trkpt lat="49.041164" lon="17.855319">
				<ele>346.000000</ele>
			</trkpt>
			<trkpt lat="49.041365" lon="17.854520">
				<ele>345.000000</ele>
			</trkpt>
			<trkpt lat="49.041447" lon="17.854187">
				<ele>345.000000</ele>
			</trkpt>
			<trkpt lat="49.041341" lon="17.854142">
				<ele>344.000000</ele>
			</trkpt>
			<trkpt lat="49.041241" lon="17.854088">
				<ele>343.000000</ele>
			</trkpt>
			<trkpt lat="49.041099" lon="17.854052">
				<ele>342.000000</ele>
			</trkpt>
			<trkpt lat="49.041099" lon="17.854052">
				<ele>342.000000</ele>
			</trkpt>
			<trkpt lat="49.041052" lon="17.854044">
				<ele>342.000000</ele>
			</trkpt>
			<trkpt lat="49.040864" lon="17.854025">
				<ele>342.000000</ele>
			</trkpt>
			<trkpt lat="49.040622" lon="17.854016">
				<ele>340.000000</ele>
			</trkpt>
			<trkpt lat="49.040517" lon="17.854034">
				<ele>340.000000</ele>
			</trkpt>
			<trkpt lat="49.040399" lon="17.854071">
				<ele>340.000000</ele>
			</trkpt>
			<trkpt lat="49.040299" lon="17.854124">
				<ele>340.000000</ele>
			</trkpt>
			<trkpt lat="49.040216" lon="17.854169">
				<ele>340.000000</ele>
			</trkpt>
			<trkpt lat="49.039928" lon="17.854465">
				<ele>342.000000</ele>
			</trkpt>
			<trkpt lat="49.039792" lon="17.854600">
				<ele>342.000000</ele>
			</trkpt>
			<trkpt lat="49.039710" lon="17.854663">
				<ele>341.000000</ele>
			</trkpt>
			<trkpt lat="49.039627" lon="17.854700">
				<ele>340.000000</ele>
			</trkpt>
			<trkpt lat="49.039533" lon="17.854708">
				<ele>339.000000</ele>
			</trkpt>
			<trkpt lat="49.039409" lon="17.854671">
				<ele>338.000000</ele>
			</trkpt>
			<trkpt lat="49.039291" lon="17.854627">
				<ele>337.000000</ele>
			</trkpt>
			<trkpt lat="49.039215" lon="17.854547">
				<ele>336.000000</ele>
			</trkpt>
			<trkpt lat="49.039139" lon="17.854448">
				<ele>335.000000</ele>
			</trkpt>
			<trkpt lat="49.039056" lon="17.854340">
				<ele>335.000000</ele>
			</trkpt>
			<trkpt lat="49.038991" lon="17.854178">
				<ele>334.000000</ele>
			</trkpt>
			<trkpt lat="49.038862" lon="17.853899">
				<ele>333.000000</ele>
			</trkpt>
			<trkpt lat="49.038744" lon="17.853702">
				<ele>332.000000</ele>
			</trkpt>
			<trkpt lat="49.038579" lon="17.853459">
				<ele>330.000000</ele>
			</trkpt>
			<trkpt lat="49.038426" lon="17.853262">
				<ele>329.000000</ele>
			</trkpt>
			<trkpt lat="49.038332" lon="17.853092">
				<ele>328.000000</ele>
			</trkpt>
			<trkpt lat="49.038290" lon="17.852974">
				<ele>328.000000</ele>
			</trkpt>
			<trkpt lat="49.038255" lon="17.852866">
				<ele>327.000000</ele>
			</trkpt>
			<trkpt lat="49.038243" lon="17.852740">
				<ele>327.000000</ele>
			</trkpt>
			<trkpt lat="49.038237" lon="17.852624">
				<ele>327.000000</ele>
			</trkpt>
			<trkpt lat="49.038237" lon="17.852606">
				<ele>327.000000</ele>
			</trkpt>
			<trkpt lat="49.038237" lon="17.852606">
				<ele>327.000000</ele>
			</trkpt>
			<trkpt lat="49.038237" lon="17.852498">
				<ele>327.000000</ele>
			</trkpt>
			<trkpt lat="49.038255" lon="17.852318">
				<ele>327.000000</ele>
			</trkpt>
			<trkpt lat="49.038267" lon="17.852103">
				<ele>326.000000</ele>
			</trkpt>
			<trkpt lat="49.038273" lon="17.851977">
				<ele>326.000000</ele>
			</trkpt>
			<trkpt lat="49.038267" lon="17.851797">
				<ele>326.000000</ele>
			</trkpt>
			<trkpt lat="49.038226" lon="17.851195">
				<ele>325.000000</ele>
			</trkpt>
			<trkpt lat="49.038226" lon="17.851008">
				<ele>325.000000</ele>
			</trkpt>
			<trkpt lat="49.038232" lon="17.850702">
				<ele>324.000000</ele>
			</trkpt>
			<trkpt lat="49.038232" lon="17.850612">
				<ele>324.000000</ele>
			</trkpt>
			<trkpt lat="49.038237" lon="17.850306">
				<ele>324.000000</ele>
			</trkpt>
			<trkpt lat="49.038237" lon="17.849992">
				<ele>323.000000</ele>
			</trkpt>
			<trkpt lat="49.038237" lon="17.849417">
				<ele>322.000000</ele>
			</trkpt>
			<trkpt lat="49.038226" lon="17.849184">
				<ele>322.000000</ele>
			</trkpt>
			<trkpt lat="49.038190" lon="17.848958">
				<ele>322.000000</ele>
			</trkpt>
			<trkpt lat="49.038143" lon="17.848752">
				<ele>322.000000</ele>
			</trkpt>
			<trkpt lat="49.038084" lon="17.848564">
				<ele>322.000000</ele>
			</trkpt>
			<trkpt lat="49.038002" lon="17.848366">
				<ele>321.000000</ele>
			</trkpt>
			<trkpt lat="49.037854" lon="17.848042">
				<ele>321.000000</ele>
			</trkpt>
			<trkpt lat="49.037966" lon="17.847899">
				<ele>321.000000</ele>
			</trkpt>
			<trkpt lat="49.037854" lon="17.847450">
				<ele>320.000000</ele>
			</trkpt>
			<trkpt lat="49.037854" lon="17.847450">
				<ele>320.000000</ele>
			</trkpt>
			<trkpt lat="49.037814" lon="17.847297">
				<ele>319.000000</ele>
			</trkpt>
			<trkpt lat="49.037790" lon="17.847144">
				<ele>319.000000</ele>
			</trkpt>
			<trkpt lat="49.037767" lon="17.846983">
				<ele>319.000000</ele>
			</trkpt>
			<trkpt lat="49.037749" lon="17.846794">
				<ele>318.000000</ele>
			</trkpt>
			<trkpt lat="49.037755" lon="17.846624">
				<ele>318.000000</ele>
			</trkpt>
			<trkpt lat="49.037767" lon="17.846461">
				<ele>318.000000</ele>
			</trkpt>
			<trkpt lat="49.037790" lon="17.846308">
				<ele>318.000000</ele>
			</trkpt>
			<trkpt lat="49.037831" lon="17.846165">
				<ele>318.000000</ele>
			</trkpt>
			<trkpt lat="49.037890" lon="17.845995">
				<ele>318.000000</ele>
			</trkpt>
			<trkpt lat="49.037955" lon="17.845815">
				<ele>317.000000</ele>
			</trkpt>
			<trkpt lat="49.038049" lon="17.845645">
				<ele>317.000000</ele>
			</trkpt>
			<trkpt lat="49.038097" lon="17.845555">
				<ele>317.000000</ele>
			</trkpt>
			<trkpt lat="49.038173" lon="17.845348">
				<ele>316.000000</ele>
			</trkpt>
			<trkpt lat="49.038243" lon="17.845159">
				<ele>316.000000</ele>
			</trkpt>
			<trkpt lat="49.038285" lon="17.844989">
				<ele>316.000000</ele>
			</trkpt>
			<trkpt lat="49.038326" lon="17.844773">
				<ele>315.000000</ele>
			</trkpt>
			<trkpt lat="49.038367" lon="17.844494">
				<ele>315.000000</ele>
			</trkpt>
			<trkpt lat="49.038391" lon="17.844224">
				<ele>315.000000</ele>
			</trkpt>
			<trkpt lat="49.038396" lon="17.843901">
				<ele>314.000000</ele>
			</trkpt>
			<trkpt lat="49.038402" lon="17.843677">
				<ele>314.000000</ele>
			</trkpt>
			<trkpt lat="49.038391" lon="17.843524">
				<ele>314.000000</ele>
			</trkpt>
			<trkpt lat="49.038367" lon="17.843381">
				<ele>314.000000</ele>
			</trkpt>
			<trkpt lat="49.038302" lon="17.843048">
				<ele>314.000000</ele>
			</trkpt>
			<trkpt lat="49.038279" lon="17.842905">
				<ele>313.000000</ele>
			</trkpt>
			<trkpt lat="49.038273" lon="17.842752">
				<ele>314.000000</ele>
			</trkpt>
			<trkpt lat="49.038279" lon="17.842616">
				<ele>314.000000</ele>
			</trkpt>
			<trkpt lat="49.038296" lon="17.842482">
				<ele>313.000000</ele>
			</trkpt>
			<trkpt lat="49.038320" lon="17.842366">
				<ele>313.000000</ele>
			</trkpt>
			<trkpt lat="49.038332" lon="17.842266">
				<ele>312.000000</ele>
			</trkpt>
			<trkpt lat="49.038361" lon="17.842186">
				<ele>312.000000</ele>
			</trkpt>
			<trkpt lat="49.038444" lon="17.841997">
				<ele>311.000000</ele>
			</trkpt>
			<trkpt lat="49.038644" lon="17.841601">
				<ele>310.000000</ele>
			</trkpt>
			<trkpt lat="49.038691" lon="17.841494">
				<ele>310.000000</ele>
			</trkpt>
			<trkpt lat="49.038732" lon="17.841395">
				<ele>310.000000</ele>
			</trkpt>
			<trkpt lat="49.038762" lon="17.841287">
				<ele>310.000000</ele>
			</trkpt>
			<trkpt lat="49.038779" lon="17.841144">
				<ele>311.000000</ele>
			</trkpt>
			<trkpt lat="49.038791" lon="17.841035">
				<ele>311.000000</ele>
			</trkpt>
			<trkpt lat="49.038797" lon="17.840937">
				<ele>311.000000</ele>
			</trkpt>
			<trkpt lat="49.038779" lon="17.840838">
				<ele>310.000000</ele>
			</trkpt>
			<trkpt lat="49.038738" lon="17.840649">
				<ele>310.000000</ele>
			</trkpt>
			<trkpt lat="49.038638" lon="17.840110">
				<ele>311.000000</ele>
			</trkpt>
			<trkpt lat="49.038467" lon="17.839373">
				<ele>309.000000</ele>
			</trkpt>
			<trkpt lat="49.038444" lon="17.839247">
				<ele>309.000000</ele>
			</trkpt>
			<trkpt lat="49.038438" lon="17.839123">
				<ele>309.000000</ele>
			</trkpt>
			<trkpt lat="49.038438" lon="17.839006">
				<ele>308.000000</ele>
			</trkpt>
			<trkpt lat="49.038473" lon="17.838745">
				<ele>307.000000</ele>
			</trkpt>
			<trkpt lat="49.038485" lon="17.838467">
				<ele>307.000000</ele>
			</trkpt>
			<trkpt lat="49.038485" lon="17.838116">
				<ele>307.000000</ele>
			</trkpt>
			<trkpt lat="49.038491" lon="17.837964">
				<ele>307.000000</ele>
			</trkpt>
			<trkpt lat="49.038503" lon="17.837855">
				<ele>306.000000</ele>
			</trkpt>
			<trkpt lat="49.038567" lon="17.837694">
				<ele>306.000000</ele>
			</trkpt>
			<trkpt lat="49.038709" lon="17.837415">
				<ele>306.000000</ele>
			</trkpt>
			<trkpt lat="49.038785" lon="17.837253">
				<ele>306.000000</ele>
			</trkpt>
			<trkpt lat="49.038838" lon="17.837119">
				<ele>306.000000</ele>
			</trkpt>
			<trkpt lat="49.038956" lon="17.836652">
				<ele>306.000000</ele>
			</trkpt>
			<trkpt lat="49.039103" lon="17.836094">
				<ele>306.000000</ele>
			</trkpt>
			<trkpt lat="49.039133" lon="17.836014">
				<ele>305.000000</ele>
			</trkpt>
			<trkpt lat="49.039198" lon="17.835942">
				<ele>306.000000</ele>
			</trkpt>
			<trkpt lat="49.039233" lon="17.835871">
				<ele>305.000000</ele>
			</trkpt>
			<trkpt lat="49.039274" lon="17.835781">
				<ele>306.000000</ele>
			</trkpt>
			<trkpt lat="49.039304" lon="17.835672">
				<ele>306.000000</ele>
			</trkpt>
			<trkpt lat="49.039315" lon="17.835547">
				<ele>306.000000</ele>
			</trkpt>
			<trkpt lat="49.039333" lon="17.835125">
				<ele>305.000000</ele>
			</trkpt>
			<trkpt lat="49.039339" lon="17.834989">
				<ele>304.000000</ele>
			</trkpt>
			<trkpt lat="49.039333" lon="17.834882">
				<ele>304.000000</ele>
			</trkpt>
			<trkpt lat="49.039315" lon="17.834765">
				<ele>304.000000</ele>
			</trkpt>
			<trkpt lat="49.039274" lon="17.834613">
				<ele>303.000000</ele>
			</trkpt>
			<trkpt lat="49.039257" lon="17.834532">
				<ele>302.000000</ele>
			</trkpt>
			<trkpt lat="49.039262" lon="17.834460">
				<ele>302.000000</ele>
			</trkpt>
			<trkpt lat="49.039274" lon="17.834397">
				<ele>302.000000</ele>
			</trkpt>
			<trkpt lat="49.039297" lon="17.834316">
				<ele>302.000000</ele>
			</trkpt>
			<trkpt lat="49.039462" lon="17.833966">
				<ele>304.000000</ele>
			</trkpt>
			<trkpt lat="49.039615" lon="17.833651">
				<ele>304.000000</ele>
			</trkpt>
			<trkpt lat="49.039668" lon="17.833553">
				<ele>304.000000</ele>
			</trkpt>
			<trkpt lat="49.039745" lon="17.833463">
				<ele>304.000000</ele>
			</trkpt>
			<trkpt lat="49.039845" lon="17.833347">
				<ele>304.000000</ele>
			</trkpt>
			<trkpt lat="49.039904" lon="17.833257">
				<ele>304.000000</ele>
			</trkpt>
			<trkpt lat="49.039951" lon="17.833148">
				<ele>304.000000</ele>
			</trkpt>
			<trkpt lat="49.040016" lon="17.832978">
				<ele>303.000000</ele>
			</trkpt>
			<trkpt lat="49.040193" lon="17.832529">
				<ele>302.000000</ele>
			</trkpt>
			<trkpt lat="49.040428" lon="17.831980">
				<ele>301.000000</ele>
			</trkpt>
			<trkpt lat="49.040540" lon="17.831729">
				<ele>301.000000</ele>
			</trkpt>
			<trkpt lat="49.040587" lon="17.831649">
				<ele>301.000000</ele>
			</trkpt>
			<trkpt lat="49.040664" lon="17.831559">
				<ele>301.000000</ele>
			</trkpt>
			<trkpt lat="49.040775" lon="17.831406">
				<ele>301.000000</ele>
			</trkpt>
			<trkpt lat="49.040852" lon="17.831280">
				<ele>300.000000</ele>
			</trkpt>
			<trkpt lat="49.040923" lon="17.831163">
				<ele>300.000000</ele>
			</trkpt>
			<trkpt lat="49.041023" lon="17.830966">
				<ele>300.000000</ele>
			</trkpt>
			<trkpt lat="49.041070" lon="17.830867">
				<ele>300.000000</ele>
			</trkpt>
			<trkpt lat="49.041111" lon="17.830848">
				<ele>300.000000</ele>
			</trkpt>
			<trkpt lat="49.041135" lon="17.830723">
				<ele>299.000000</ele>
			</trkpt>
			<trkpt lat="49.041170" lon="17.830634">
				<ele>299.000000</ele>
			</trkpt>
			<trkpt lat="49.041335" lon="17.830337">
				<ele>298.000000</ele>
			</trkpt>
			<trkpt lat="49.041418" lon="17.830175">
				<ele>297.000000</ele>
			</trkpt>
			<trkpt lat="49.041594" lon="17.829915">
				<ele>296.000000</ele>
			</trkpt>
			<trkpt lat="49.041677" lon="17.829779">
				<ele>296.000000</ele>
			</trkpt>
			<trkpt lat="49.041717" lon="17.829672">
				<ele>296.000000</ele>
			</trkpt>
			<trkpt lat="49.041806" lon="17.829448">
				<ele>295.000000</ele>
			</trkpt>
			<trkpt lat="49.041842" lon="17.829385">
				<ele>295.000000</ele>
			</trkpt>
			<trkpt lat="49.041888" lon="17.829330">
				<ele>295.000000</ele>
			</trkpt>
			<trkpt lat="49.041935" lon="17.829295">
				<ele>295.000000</ele>
			</trkpt>
			<trkpt lat="49.042159" lon="17.829150">
				<ele>296.000000</ele>
			</trkpt>
			<trkpt lat="49.042336" lon="17.829079">
				<ele>296.000000</ele>
			</trkpt>
			<trkpt lat="49.042483" lon="17.829026">
				<ele>296.000000</ele>
			</trkpt>
			<trkpt lat="49.042778" lon="17.828944">
				<ele>294.000000</ele>
			</trkpt>
			<trkpt lat="49.042937" lon="17.828873">
				<ele>293.000000</ele>
			</trkpt>
			<trkpt lat="49.042907" lon="17.828684">
				<ele>293.000000</ele>
			</trkpt>
			<trkpt lat="49.042907" lon="17.828684">
				<ele>293.000000</ele>
			</trkpt>
			<trkpt lat="49.042843" lon="17.828207">
				<ele>292.000000</ele>
			</trkpt>
			<trkpt lat="49.042766" lon="17.827615">
				<ele>292.000000</ele>
			</trkpt>
			<trkpt lat="49.042707" lon="17.827102">
				<ele>291.000000</ele>
			</trkpt>
			<trkpt lat="49.042684" lon="17.826689">
				<ele>290.000000</ele>
			</trkpt>
			<trkpt lat="49.042666" lon="17.826249">
				<ele>289.000000</ele>
			</trkpt>
			<trkpt lat="49.042666" lon="17.825800">
				<ele>288.000000</ele>
			</trkpt>
			<trkpt lat="49.042701" lon="17.824857">
				<ele>287.000000</ele>
			</trkpt>
			<trkpt lat="49.042701" lon="17.824462">
				<ele>288.000000</ele>
			</trkpt>
			<trkpt lat="49.042707" lon="17.824202">
				<ele>287.000000</ele>
			</trkpt>
			<trkpt lat="49.042695" lon="17.823995">
				<ele>287.000000</ele>
			</trkpt>
			<trkpt lat="49.042672" lon="17.823806">
				<ele>286.000000</ele>
			</trkpt>
			<trkpt lat="49.042642" lon="17.823626">
				<ele>286.000000</ele>
			</trkpt>
			<trkpt lat="49.042589" lon="17.823456">
				<ele>286.000000</ele>
			</trkpt>
			<trkpt lat="49.042513" lon="17.823276">
				<ele>285.000000</ele>
			</trkpt>
			<trkpt lat="49.042448" lon="17.823106">
				<ele>285.000000</ele>
			</trkpt>
			<trkpt lat="49.042336" lon="17.822907">
				<ele>285.000000</ele>
			</trkpt>
			<trkpt lat="49.042230" lon="17.822737">
				<ele>284.000000</ele>
			</trkpt>
			<trkpt lat="49.041836" lon="17.822261">
				<ele>283.000000</ele>
			</trkpt>
			<trkpt lat="49.041612" lon="17.821955">
				<ele>282.000000</ele>
			</trkpt>
			<trkpt lat="49.040899" lon="17.820814">
				<ele>281.000000</ele>
			</trkpt>
			<trkpt lat="49.040805" lon="17.820662">
				<ele>281.000000</ele>
			</trkpt>
			<trkpt lat="49.040734" lon="17.820536">
				<ele>281.000000</ele>
			</trkpt>
			<trkpt lat="49.040688" lon="17.820410">
				<ele>281.000000</ele>
			</trkpt>
			<trkpt lat="49.040629" lon="17.820213">
				<ele>281.000000</ele>
			</trkpt>
			<trkpt lat="49.040605" lon="17.820131">
				<ele>281.000000</ele>
			</trkpt>
			<trkpt lat="49.040487" lon="17.819682">
				<ele>281.000000</ele>
			</trkpt>
			<trkpt lat="49.040110" lon="17.818227">
				<ele>280.000000</ele>
			</trkpt>
			<trkpt lat="49.040034" lon="17.817976">
				<ele>280.000000</ele>
			</trkpt>
			<trkpt lat="49.039969" lon="17.817770">
				<ele>280.000000</ele>
			</trkpt>
			<trkpt lat="49.039881" lon="17.817554">
				<ele>280.000000</ele>
			</trkpt>
			<trkpt lat="49.039892" lon="17.817446">
				<ele>279.000000</ele>
			</trkpt>
			<trkpt lat="49.039881" lon="17.817311">
				<ele>278.000000</ele>
			</trkpt>
			<trkpt lat="49.039863" lon="17.817231">
				<ele>278.000000</ele>
			</trkpt>
			<trkpt lat="49.039863" lon="17.817231">
				<ele>278.000000</ele>
			</trkpt>
			<trkpt lat="49.039845" lon="17.817131">
				<ele>277.000000</ele>
			</trkpt>
			<trkpt lat="49.039792" lon="17.816925">
				<ele>276.000000</ele>
			</trkpt>
			<trkpt lat="49.039692" lon="17.816611">
				<ele>276.000000</ele>
			</trkpt>
			<trkpt lat="49.039615" lon="17.816315">
				<ele>276.000000</ele>
			</trkpt>
			<trkpt lat="49.039586" lon="17.816162">
				<ele>276.000000</ele>
			</trkpt>
			<trkpt lat="49.039551" lon="17.816062">
				<ele>276.000000</ele>
			</trkpt>
			<trkpt lat="49.039515" lon="17.815990">
				<ele>277.000000</ele>
			</trkpt>
			<trkpt lat="49.039475" lon="17.815919">
				<ele>277.000000</ele>
			</trkpt>
			<trkpt lat="49.039397" lon="17.815919">
				<ele>278.000000</ele>
			</trkpt>
			<trkpt lat="49.039339" lon="17.815900">
				<ele>278.000000</ele>
			</trkpt>
			<trkpt lat="49.039274" lon="17.815838">
				<ele>278.000000</ele>
			</trkpt>
			<trkpt lat="49.039209" lon="17.815739">
				<ele>278.000000</ele>
			</trkpt>
			<trkpt lat="49.039074" lon="17.815542">
				<ele>277.000000</ele>
			</trkpt>
			<trkpt lat="49.039062" lon="17.815523">
				<ele>277.000000</ele>
			</trkpt>
		</trkseg>
	</trk>
</gpx>

