<?xml version="1.0" encoding="utf-8"?>
<gpx xmlns="http://www.topografix.com/GPX/1/1" version="1.1" creator="https://mapy.cz/">
	<trk>
		<name>19.Mikulčin vrch - Strání</name>
		<trkseg>
			<trkpt lat="48.949855" lon="17.800801">
				<ele>743.000000</ele>
			</trkpt>
			<trkpt lat="48.950374" lon="17.799587">
				<ele>738.000000</ele>
			</trkpt>
			<trkpt lat="48.950414" lon="17.799516">
				<ele>737.000000</ele>
			</trkpt>
			<trkpt lat="48.950450" lon="17.799480">
				<ele>737.000000</ele>
			</trkpt>
			<trkpt lat="48.950633" lon="17.799426">
				<ele>735.000000</ele>
			</trkpt>
			<trkpt lat="48.951247" lon="17.797862">
				<ele>728.000000</ele>
			</trkpt>
			<trkpt lat="48.951435" lon="17.797396">
				<ele>727.000000</ele>
			</trkpt>
			<trkpt lat="48.951589" lon="17.797019">
				<ele>726.000000</ele>
			</trkpt>
			<trkpt lat="48.951730" lon="17.796740">
				<ele>726.000000</ele>
			</trkpt>
			<trkpt lat="48.951872" lon="17.796488">
				<ele>726.000000</ele>
			</trkpt>
			<trkpt lat="48.952031" lon="17.796246">
				<ele>726.000000</ele>
			</trkpt>
			<trkpt lat="48.952208" lon="17.796012">
				<ele>725.000000</ele>
			</trkpt>
			<trkpt lat="48.952409" lon="17.795797">
				<ele>724.000000</ele>
			</trkpt>
			<trkpt lat="48.952645" lon="17.795562">
				<ele>722.000000</ele>
			</trkpt>
			<trkpt lat="48.953128" lon="17.795149">
				<ele>718.000000</ele>
			</trkpt>
			<trkpt lat="48.953789" lon="17.794638">
				<ele>711.000000</ele>
			</trkpt>
			<trkpt lat="48.954155" lon="17.794350">
				<ele>708.000000</ele>
			</trkpt>
			<trkpt lat="48.954479" lon="17.794080">
				<ele>704.000000</ele>
			</trkpt>
			<trkpt lat="48.954668" lon="17.793901">
				<ele>702.000000</ele>
			</trkpt>
			<trkpt lat="48.954815" lon="17.793740">
				<ele>701.000000</ele>
			</trkpt>
			<trkpt lat="48.954969" lon="17.793541">
				<ele>699.000000</ele>
			</trkpt>
			<trkpt lat="48.955087" lon="17.793344">
				<ele>697.000000</ele>
			</trkpt>
			<trkpt lat="48.955211" lon="17.793111">
				<ele>696.000000</ele>
			</trkpt>
			<trkpt lat="48.955334" lon="17.792796">
				<ele>694.000000</ele>
			</trkpt>
			<trkpt lat="48.955576" lon="17.792140">
				<ele>690.000000</ele>
			</trkpt>
			<trkpt lat="48.955682" lon="17.791880">
				<ele>688.000000</ele>
			</trkpt>
			<trkpt lat="48.955795" lon="17.791610">
				<ele>687.000000</ele>
			</trkpt>
			<trkpt lat="48.955936" lon="17.791341">
				<ele>686.000000</ele>
			</trkpt>
			<trkpt lat="48.956042" lon="17.791161">
				<ele>685.000000</ele>
			</trkpt>
			<trkpt lat="48.956001" lon="17.790981">
				<ele>684.000000</ele>
			</trkpt>
			<trkpt lat="48.955989" lon="17.790784">
				<ele>682.000000</ele>
			</trkpt>
			<trkpt lat="48.955989" lon="17.790748">
				<ele>682.000000</ele>
			</trkpt>
			<trkpt lat="48.955989" lon="17.790748">
				<ele>682.000000</ele>
			</trkpt>
			<trkpt lat="48.955989" lon="17.790595">
				<ele>680.000000</ele>
			</trkpt>
			<trkpt lat="48.956036" lon="17.790281">
				<ele>676.000000</ele>
			</trkpt>
			<trkpt lat="48.956084" lon="17.790038">
				<ele>672.000000</ele>
			</trkpt>
			<trkpt lat="48.956089" lon="17.789958">
				<ele>671.000000</ele>
			</trkpt>
			<trkpt lat="48.956084" lon="17.789868">
				<ele>671.000000</ele>
			</trkpt>
			<trkpt lat="48.956048" lon="17.789778">
				<ele>670.000000</ele>
			</trkpt>
			<trkpt lat="48.955936" lon="17.789661">
				<ele>669.000000</ele>
			</trkpt>
			<trkpt lat="48.955842" lon="17.789616">
				<ele>668.000000</ele>
			</trkpt>
			<trkpt lat="48.955765" lon="17.789598">
				<ele>668.000000</ele>
			</trkpt>
			<trkpt lat="48.955618" lon="17.789589">
				<ele>667.000000</ele>
			</trkpt>
			<trkpt lat="48.955541" lon="17.789589">
				<ele>666.000000</ele>
			</trkpt>
			<trkpt lat="48.955458" lon="17.789545">
				<ele>665.000000</ele>
			</trkpt>
			<trkpt lat="48.955405" lon="17.789499">
				<ele>665.000000</ele>
			</trkpt>
			<trkpt lat="48.955352" lon="17.789455">
				<ele>664.000000</ele>
			</trkpt>
			<trkpt lat="48.955258" lon="17.789310">
				<ele>662.000000</ele>
			</trkpt>
			<trkpt lat="48.955175" lon="17.789140">
				<ele>660.000000</ele>
			</trkpt>
			<trkpt lat="48.955016" lon="17.788790">
				<ele>656.000000</ele>
			</trkpt>
			<trkpt lat="48.953919" lon="17.786283">
				<ele>631.000000</ele>
			</trkpt>
			<trkpt lat="48.953364" lon="17.785071">
				<ele>621.000000</ele>
			</trkpt>
			<trkpt lat="48.953158" lon="17.784622">
				<ele>618.000000</ele>
			</trkpt>
			<trkpt lat="48.952951" lon="17.784145">
				<ele>615.000000</ele>
			</trkpt>
			<trkpt lat="48.952267" lon="17.782421">
				<ele>604.000000</ele>
			</trkpt>
			<trkpt lat="48.951925" lon="17.781612">
				<ele>596.000000</ele>
			</trkpt>
			<trkpt lat="48.951772" lon="17.781262">
				<ele>594.000000</ele>
			</trkpt>
			<trkpt lat="48.951612" lon="17.780930">
				<ele>591.000000</ele>
			</trkpt>
			<trkpt lat="48.951093" lon="17.779924">
				<ele>583.000000</ele>
			</trkpt>
			<trkpt lat="48.950869" lon="17.779465">
				<ele>579.000000</ele>
			</trkpt>
			<trkpt lat="48.951146" lon="17.779142">
				<ele>582.000000</ele>
			</trkpt>
			<trkpt lat="48.951146" lon="17.779142">
				<ele>582.000000</ele>
			</trkpt>
			<trkpt lat="48.951188" lon="17.779088">
				<ele>582.000000</ele>
			</trkpt>
			<trkpt lat="48.951548" lon="17.778683">
				<ele>584.000000</ele>
			</trkpt>
			<trkpt lat="48.951742" lon="17.778477">
				<ele>584.000000</ele>
			</trkpt>
			<trkpt lat="48.951831" lon="17.778387">
				<ele>583.000000</ele>
			</trkpt>
			<trkpt lat="48.951919" lon="17.778306">
				<ele>583.000000</ele>
			</trkpt>
			<trkpt lat="48.951966" lon="17.778190">
				<ele>582.000000</ele>
			</trkpt>
			<trkpt lat="48.952019" lon="17.778082">
				<ele>582.000000</ele>
			</trkpt>
			<trkpt lat="48.952096" lon="17.777964">
				<ele>581.000000</ele>
			</trkpt>
			<trkpt lat="48.952261" lon="17.777740">
				<ele>580.000000</ele>
			</trkpt>
			<trkpt lat="48.952303" lon="17.777668">
				<ele>579.000000</ele>
			</trkpt>
			<trkpt lat="48.952326" lon="17.777614">
				<ele>579.000000</ele>
			</trkpt>
			<trkpt lat="48.952338" lon="17.777498">
				<ele>579.000000</ele>
			</trkpt>
			<trkpt lat="48.952344" lon="17.777372">
				<ele>579.000000</ele>
			</trkpt>
			<trkpt lat="48.952338" lon="17.777247">
				<ele>578.000000</ele>
			</trkpt>
			<trkpt lat="48.952332" lon="17.777211">
				<ele>578.000000</ele>
			</trkpt>
			<trkpt lat="48.952332" lon="17.777211">
				<ele>578.000000</ele>
			</trkpt>
			<trkpt lat="48.952309" lon="17.777085">
				<ele>578.000000</ele>
			</trkpt>
			<trkpt lat="48.952196" lon="17.776438">
				<ele>577.000000</ele>
			</trkpt>
			<trkpt lat="48.952084" lon="17.775719">
				<ele>575.000000</ele>
			</trkpt>
			<trkpt lat="48.952037" lon="17.775270">
				<ele>574.000000</ele>
			</trkpt>
			<trkpt lat="48.952014" lon="17.774920">
				<ele>573.000000</ele>
			</trkpt>
			<trkpt lat="48.952014" lon="17.774668">
				<ele>572.000000</ele>
			</trkpt>
			<trkpt lat="48.952025" lon="17.774524">
				<ele>571.000000</ele>
			</trkpt>
			<trkpt lat="48.952037" lon="17.774408">
				<ele>571.000000</ele>
			</trkpt>
			<trkpt lat="48.952078" lon="17.774272">
				<ele>571.000000</ele>
			</trkpt>
			<trkpt lat="48.952232" lon="17.773859">
				<ele>572.000000</ele>
			</trkpt>
			<trkpt lat="48.952367" lon="17.773492">
				<ele>573.000000</ele>
			</trkpt>
			<trkpt lat="48.952403" lon="17.773356">
				<ele>573.000000</ele>
			</trkpt>
			<trkpt lat="48.952426" lon="17.773213">
				<ele>573.000000</ele>
			</trkpt>
			<trkpt lat="48.952456" lon="17.773006">
				<ele>574.000000</ele>
			</trkpt>
			<trkpt lat="48.952491" lon="17.772611">
				<ele>574.000000</ele>
			</trkpt>
			<trkpt lat="48.952527" lon="17.772305">
				<ele>575.000000</ele>
			</trkpt>
			<trkpt lat="48.952574" lon="17.771622">
				<ele>573.000000</ele>
			</trkpt>
			<trkpt lat="48.952598" lon="17.771255">
				<ele>571.000000</ele>
			</trkpt>
			<trkpt lat="48.952621" lon="17.770419">
				<ele>566.000000</ele>
			</trkpt>
			<trkpt lat="48.952645" lon="17.770050">
				<ele>563.000000</ele>
			</trkpt>
			<trkpt lat="48.952692" lon="17.769745">
				<ele>562.000000</ele>
			</trkpt>
			<trkpt lat="48.952822" lon="17.769054">
				<ele>558.000000</ele>
			</trkpt>
			<trkpt lat="48.952946" lon="17.768551">
				<ele>556.000000</ele>
			</trkpt>
			<trkpt lat="48.952951" lon="17.768461">
				<ele>555.000000</ele>
			</trkpt>
			<trkpt lat="48.952957" lon="17.768362">
				<ele>555.000000</ele>
			</trkpt>
			<trkpt lat="48.952951" lon="17.768282">
				<ele>555.000000</ele>
			</trkpt>
			<trkpt lat="48.952916" lon="17.768200">
				<ele>554.000000</ele>
			</trkpt>
			<trkpt lat="48.952875" lon="17.768083">
				<ele>553.000000</ele>
			</trkpt>
			<trkpt lat="48.952857" lon="17.767993">
				<ele>553.000000</ele>
			</trkpt>
			<trkpt lat="48.952851" lon="17.767877">
				<ele>553.000000</ele>
			</trkpt>
			<trkpt lat="48.952857" lon="17.767742">
				<ele>552.000000</ele>
			</trkpt>
			<trkpt lat="48.952869" lon="17.767571">
				<ele>552.000000</ele>
			</trkpt>
			<trkpt lat="48.952869" lon="17.767392">
				<ele>551.000000</ele>
			</trkpt>
			<trkpt lat="48.952869" lon="17.767194">
				<ele>550.000000</ele>
			</trkpt>
			<trkpt lat="48.952857" lon="17.766951">
				<ele>548.000000</ele>
			</trkpt>
			<trkpt lat="48.952851" lon="17.766798">
				<ele>547.000000</ele>
			</trkpt>
			<trkpt lat="48.952851" lon="17.766682">
				<ele>546.000000</ele>
			</trkpt>
			<trkpt lat="48.952887" lon="17.766341">
				<ele>544.000000</ele>
			</trkpt>
			<trkpt lat="48.952892" lon="17.766188">
				<ele>543.000000</ele>
			</trkpt>
			<trkpt lat="48.952875" lon="17.766035">
				<ele>542.000000</ele>
			</trkpt>
			<trkpt lat="48.952845" lon="17.765901">
				<ele>541.000000</ele>
			</trkpt>
			<trkpt lat="48.952780" lon="17.765666">
				<ele>539.000000</ele>
			</trkpt>
			<trkpt lat="48.952710" lon="17.765425">
				<ele>538.000000</ele>
			</trkpt>
			<trkpt lat="48.952609" lon="17.765119">
				<ele>538.000000</ele>
			</trkpt>
			<trkpt lat="48.952480" lon="17.764580">
				<ele>537.000000</ele>
			</trkpt>
			<trkpt lat="48.952426" lon="17.764248">
				<ele>537.000000</ele>
			</trkpt>
			<trkpt lat="48.952397" lon="17.763825">
				<ele>537.000000</ele>
			</trkpt>
			<trkpt lat="48.952350" lon="17.762810">
				<ele>535.000000</ele>
			</trkpt>
			<trkpt lat="48.952332" lon="17.762496">
				<ele>535.000000</ele>
			</trkpt>
			<trkpt lat="48.952297" lon="17.762217">
				<ele>534.000000</ele>
			</trkpt>
			<trkpt lat="48.952220" lon="17.761643">
				<ele>533.000000</ele>
			</trkpt>
			<trkpt lat="48.952132" lon="17.761184">
				<ele>532.000000</ele>
			</trkpt>
			<trkpt lat="48.952073" lon="17.760915">
				<ele>532.000000</ele>
			</trkpt>
			<trkpt lat="48.952043" lon="17.760663">
				<ele>532.000000</ele>
			</trkpt>
			<trkpt lat="48.952025" lon="17.760385">
				<ele>533.000000</ele>
			</trkpt>
			<trkpt lat="48.952008" lon="17.759846">
				<ele>533.000000</ele>
			</trkpt>
			<trkpt lat="48.951996" lon="17.759594">
				<ele>533.000000</ele>
			</trkpt>
			<trkpt lat="48.951972" lon="17.759433">
				<ele>533.000000</ele>
			</trkpt>
			<trkpt lat="48.951931" lon="17.759263">
				<ele>533.000000</ele>
			</trkpt>
			<trkpt lat="48.951866" lon="17.759110">
				<ele>534.000000</ele>
			</trkpt>
			<trkpt lat="48.951701" lon="17.758732">
				<ele>535.000000</ele>
			</trkpt>
			<trkpt lat="48.951518" lon="17.758221">
				<ele>535.000000</ele>
			</trkpt>
			<trkpt lat="48.951483" lon="17.758103">
				<ele>535.000000</ele>
			</trkpt>
			<trkpt lat="48.951412" lon="17.757825">
				<ele>536.000000</ele>
			</trkpt>
			<trkpt lat="48.951365" lon="17.757744">
				<ele>536.000000</ele>
			</trkpt>
			<trkpt lat="48.951323" lon="17.757663">
				<ele>536.000000</ele>
			</trkpt>
			<trkpt lat="48.951182" lon="17.757447">
				<ele>536.000000</ele>
			</trkpt>
			<trkpt lat="48.950934" lon="17.757026">
				<ele>535.000000</ele>
			</trkpt>
			<trkpt lat="48.950875" lon="17.756909">
				<ele>535.000000</ele>
			</trkpt>
			<trkpt lat="48.950834" lon="17.756783">
				<ele>535.000000</ele>
			</trkpt>
			<trkpt lat="48.950816" lon="17.756630">
				<ele>535.000000</ele>
			</trkpt>
			<trkpt lat="48.950822" lon="17.756460">
				<ele>535.000000</ele>
			</trkpt>
			<trkpt lat="48.950816" lon="17.756261">
				<ele>535.000000</ele>
			</trkpt>
			<trkpt lat="48.950793" lon="17.756118">
				<ele>535.000000</ele>
			</trkpt>
			<trkpt lat="48.950734" lon="17.755957">
				<ele>535.000000</ele>
			</trkpt>
			<trkpt lat="48.950639" lon="17.755795">
				<ele>534.000000</ele>
			</trkpt>
			<trkpt lat="48.950532" lon="17.755632">
				<ele>534.000000</ele>
			</trkpt>
			<trkpt lat="48.950420" lon="17.755508">
				<ele>534.000000</ele>
			</trkpt>
			<trkpt lat="48.950297" lon="17.755372">
				<ele>533.000000</ele>
			</trkpt>
			<trkpt lat="48.950131" lon="17.755229">
				<ele>533.000000</ele>
			</trkpt>
			<trkpt lat="48.950049" lon="17.755156">
				<ele>533.000000</ele>
			</trkpt>
			<trkpt lat="48.950002" lon="17.755076">
				<ele>534.000000</ele>
			</trkpt>
			<trkpt lat="48.949967" lon="17.754986">
				<ele>534.000000</ele>
			</trkpt>
			<trkpt lat="48.949943" lon="17.754879">
				<ele>534.000000</ele>
			</trkpt>
			<trkpt lat="48.949925" lon="17.754779">
				<ele>534.000000</ele>
			</trkpt>
			<trkpt lat="48.949901" lon="17.754680">
				<ele>534.000000</ele>
			</trkpt>
			<trkpt lat="48.949866" lon="17.754600">
				<ele>533.000000</ele>
			</trkpt>
			<trkpt lat="48.949831" lon="17.754529">
				<ele>533.000000</ele>
			</trkpt>
			<trkpt lat="48.949789" lon="17.754456">
				<ele>533.000000</ele>
			</trkpt>
			<trkpt lat="48.949730" lon="17.754402">
				<ele>532.000000</ele>
			</trkpt>
			<trkpt lat="48.949571" lon="17.754267">
				<ele>532.000000</ele>
			</trkpt>
			<trkpt lat="48.949429" lon="17.754150">
				<ele>531.000000</ele>
			</trkpt>
			<trkpt lat="48.949329" lon="17.754070">
				<ele>531.000000</ele>
			</trkpt>
			<trkpt lat="48.949241" lon="17.753963">
				<ele>531.000000</ele>
			</trkpt>
			<trkpt lat="48.949140" lon="17.753837">
				<ele>531.000000</ele>
			</trkpt>
			<trkpt lat="48.949016" lon="17.753684">
				<ele>530.000000</ele>
			</trkpt>
			<trkpt lat="48.948946" lon="17.753621">
				<ele>530.000000</ele>
			</trkpt>
			<trkpt lat="48.948863" lon="17.753575">
				<ele>530.000000</ele>
			</trkpt>
			<trkpt lat="48.948775" lon="17.753531">
				<ele>529.000000</ele>
			</trkpt>
			<trkpt lat="48.948663" lon="17.753485">
				<ele>528.000000</ele>
			</trkpt>
			<trkpt lat="48.948491" lon="17.753431">
				<ele>529.000000</ele>
			</trkpt>
			<trkpt lat="48.948397" lon="17.753387">
				<ele>529.000000</ele>
			</trkpt>
			<trkpt lat="48.948397" lon="17.753387">
				<ele>529.000000</ele>
			</trkpt>
			<trkpt lat="48.948285" lon="17.753324">
				<ele>528.000000</ele>
			</trkpt>
			<trkpt lat="48.948196" lon="17.753252">
				<ele>528.000000</ele>
			</trkpt>
			<trkpt lat="48.948161" lon="17.753208">
				<ele>528.000000</ele>
			</trkpt>
			<trkpt lat="48.948132" lon="17.753154">
				<ele>529.000000</ele>
			</trkpt>
			<trkpt lat="48.948102" lon="17.753099">
				<ele>529.000000</ele>
			</trkpt>
			<trkpt lat="48.948084" lon="17.753028">
				<ele>529.000000</ele>
			</trkpt>
			<trkpt lat="48.948067" lon="17.752875">
				<ele>530.000000</ele>
			</trkpt>
			<trkpt lat="48.948049" lon="17.752713">
				<ele>530.000000</ele>
			</trkpt>
			<trkpt lat="48.948025" lon="17.752588">
				<ele>531.000000</ele>
			</trkpt>
			<trkpt lat="48.948002" lon="17.752479">
				<ele>531.000000</ele>
			</trkpt>
			<trkpt lat="48.947949" lon="17.752336">
				<ele>532.000000</ele>
			</trkpt>
			<trkpt lat="48.947890" lon="17.752202">
				<ele>532.000000</ele>
			</trkpt>
			<trkpt lat="48.947819" lon="17.752085">
				<ele>533.000000</ele>
			</trkpt>
			<trkpt lat="48.947742" lon="17.751986">
				<ele>533.000000</ele>
			</trkpt>
			<trkpt lat="48.947583" lon="17.751824">
				<ele>534.000000</ele>
			</trkpt>
			<trkpt lat="48.947435" lon="17.751636">
				<ele>535.000000</ele>
			</trkpt>
			<trkpt lat="48.947394" lon="17.751573">
				<ele>536.000000</ele>
			</trkpt>
			<trkpt lat="48.947353" lon="17.751483">
				<ele>536.000000</ele>
			</trkpt>
			<trkpt lat="48.947011" lon="17.750548">
				<ele>538.000000</ele>
			</trkpt>
			<trkpt lat="48.946987" lon="17.750468">
				<ele>538.000000</ele>
			</trkpt>
			<trkpt lat="48.946969" lon="17.750387">
				<ele>538.000000</ele>
			</trkpt>
			<trkpt lat="48.946975" lon="17.750315">
				<ele>538.000000</ele>
			</trkpt>
			<trkpt lat="48.946981" lon="17.750252">
				<ele>538.000000</ele>
			</trkpt>
			<trkpt lat="48.947005" lon="17.750152">
				<ele>538.000000</ele>
			</trkpt>
			<trkpt lat="48.947005" lon="17.750055">
				<ele>537.000000</ele>
			</trkpt>
			<trkpt lat="48.946993" lon="17.749973">
				<ele>537.000000</ele>
			</trkpt>
			<trkpt lat="48.946958" lon="17.749875">
				<ele>537.000000</ele>
			</trkpt>
			<trkpt lat="48.946863" lon="17.749623">
				<ele>538.000000</ele>
			</trkpt>
			<trkpt lat="48.946828" lon="17.749560">
				<ele>538.000000</ele>
			</trkpt>
			<trkpt lat="48.946787" lon="17.749525">
				<ele>538.000000</ele>
			</trkpt>
			<trkpt lat="48.946733" lon="17.749515">
				<ele>539.000000</ele>
			</trkpt>
			<trkpt lat="48.946663" lon="17.749506">
				<ele>540.000000</ele>
			</trkpt>
			<trkpt lat="48.946580" lon="17.749515">
				<ele>541.000000</ele>
			</trkpt>
			<trkpt lat="48.946515" lon="17.749497">
				<ele>542.000000</ele>
			</trkpt>
			<trkpt lat="48.946456" lon="17.749443">
				<ele>542.000000</ele>
			</trkpt>
			<trkpt lat="48.946409" lon="17.749372">
				<ele>543.000000</ele>
			</trkpt>
			<trkpt lat="48.946403" lon="17.749353">
				<ele>543.000000</ele>
			</trkpt>
			<trkpt lat="48.946256" lon="17.748994">
				<ele>545.000000</ele>
			</trkpt>
			<trkpt lat="48.946208" lon="17.748869">
				<ele>545.000000</ele>
			</trkpt>
			<trkpt lat="48.946149" lon="17.748751">
				<ele>546.000000</ele>
			</trkpt>
			<trkpt lat="48.945919" lon="17.748447">
				<ele>548.000000</ele>
			</trkpt>
			<trkpt lat="48.945860" lon="17.748330">
				<ele>548.000000</ele>
			</trkpt>
			<trkpt lat="48.945801" lon="17.748213">
				<ele>549.000000</ele>
			</trkpt>
			<trkpt lat="48.945636" lon="17.747835">
				<ele>550.000000</ele>
			</trkpt>
			<trkpt lat="48.945535" lon="17.747629">
				<ele>551.000000</ele>
			</trkpt>
			<trkpt lat="48.945347" lon="17.747288">
				<ele>552.000000</ele>
			</trkpt>
			<trkpt lat="48.945075" lon="17.746766">
				<ele>555.000000</ele>
			</trkpt>
			<trkpt lat="48.944426" lon="17.745508">
				<ele>564.000000</ele>
			</trkpt>
			<trkpt lat="48.944267" lon="17.745212">
				<ele>566.000000</ele>
			</trkpt>
			<trkpt lat="48.944149" lon="17.744915">
				<ele>568.000000</ele>
			</trkpt>
			<trkpt lat="48.943890" lon="17.744269">
				<ele>572.000000</ele>
			</trkpt>
			<trkpt lat="48.943695" lon="17.743749">
				<ele>577.000000</ele>
			</trkpt>
			<trkpt lat="48.943648" lon="17.743649">
				<ele>578.000000</ele>
			</trkpt>
			<trkpt lat="48.943606" lon="17.743560">
				<ele>579.000000</ele>
			</trkpt>
			<trkpt lat="48.943565" lon="17.743506">
				<ele>579.000000</ele>
			</trkpt>
			<trkpt lat="48.943518" lon="17.743460">
				<ele>580.000000</ele>
			</trkpt>
			<trkpt lat="48.943412" lon="17.743416">
				<ele>582.000000</ele>
			</trkpt>
			<trkpt lat="48.943182" lon="17.743361">
				<ele>585.000000</ele>
			</trkpt>
			<trkpt lat="48.943058" lon="17.743317">
				<ele>586.000000</ele>
			</trkpt>
			<trkpt lat="48.943005" lon="17.743281">
				<ele>587.000000</ele>
			</trkpt>
			<trkpt lat="48.942957" lon="17.743227">
				<ele>588.000000</ele>
			</trkpt>
			<trkpt lat="48.942916" lon="17.743183">
				<ele>588.000000</ele>
			</trkpt>
			<trkpt lat="48.942863" lon="17.743101">
				<ele>589.000000</ele>
			</trkpt>
			<trkpt lat="48.942775" lon="17.742913">
				<ele>591.000000</ele>
			</trkpt>
			<trkpt lat="48.942615" lon="17.742554">
				<ele>594.000000</ele>
			</trkpt>
			<trkpt lat="48.942462" lon="17.742257">
				<ele>597.000000</ele>
			</trkpt>
			<trkpt lat="48.941831" lon="17.741206">
				<ele>604.000000</ele>
			</trkpt>
			<trkpt lat="48.941683" lon="17.740919">
				<ele>606.000000</ele>
			</trkpt>
			<trkpt lat="48.941471" lon="17.740415">
				<ele>611.000000</ele>
			</trkpt>
			<trkpt lat="48.941353" lon="17.740118">
				<ele>613.000000</ele>
			</trkpt>
			<trkpt lat="48.941247" lon="17.739849">
				<ele>615.000000</ele>
			</trkpt>
			<trkpt lat="48.941163" lon="17.739562">
				<ele>617.000000</ele>
			</trkpt>
			<trkpt lat="48.940999" lon="17.738969">
				<ele>619.000000</ele>
			</trkpt>
			<trkpt lat="48.940881" lon="17.738565">
				<ele>620.000000</ele>
			</trkpt>
			<trkpt lat="48.940786" lon="17.738179">
				<ele>622.000000</ele>
			</trkpt>
			<trkpt lat="48.940691" lon="17.737801">
				<ele>623.000000</ele>
			</trkpt>
			<trkpt lat="48.940621" lon="17.737442">
				<ele>624.000000</ele>
			</trkpt>
			<trkpt lat="48.940473" lon="17.736822">
				<ele>626.000000</ele>
			</trkpt>
			<trkpt lat="48.940432" lon="17.736598">
				<ele>627.000000</ele>
			</trkpt>
			<trkpt lat="48.940402" lon="17.736355">
				<ele>627.000000</ele>
			</trkpt>
			<trkpt lat="48.940391" lon="17.736202">
				<ele>628.000000</ele>
			</trkpt>
			<trkpt lat="48.940385" lon="17.735986">
				<ele>629.000000</ele>
			</trkpt>
			<trkpt lat="48.940379" lon="17.735493">
				<ele>631.000000</ele>
			</trkpt>
			<trkpt lat="48.940367" lon="17.735214">
				<ele>632.000000</ele>
			</trkpt>
			<trkpt lat="48.940355" lon="17.735070">
				<ele>632.000000</ele>
			</trkpt>
			<trkpt lat="48.940355" lon="17.735070">
				<ele>632.000000</ele>
			</trkpt>
			<trkpt lat="48.940355" lon="17.735034">
				<ele>632.000000</ele>
			</trkpt>
			<trkpt lat="48.940332" lon="17.734891">
				<ele>633.000000</ele>
			</trkpt>
			<trkpt lat="48.940284" lon="17.734720">
				<ele>633.000000</ele>
			</trkpt>
			<trkpt lat="48.940143" lon="17.734235">
				<ele>634.000000</ele>
			</trkpt>
			<trkpt lat="48.939930" lon="17.733499">
				<ele>637.000000</ele>
			</trkpt>
			<trkpt lat="48.939688" lon="17.732375">
				<ele>639.000000</ele>
			</trkpt>
			<trkpt lat="48.939559" lon="17.731774">
				<ele>639.000000</ele>
			</trkpt>
			<trkpt lat="48.939464" lon="17.731181">
				<ele>638.000000</ele>
			</trkpt>
			<trkpt lat="48.939458" lon="17.731073">
				<ele>638.000000</ele>
			</trkpt>
			<trkpt lat="48.939441" lon="17.730740">
				<ele>638.000000</ele>
			</trkpt>
			<trkpt lat="48.939417" lon="17.730210">
				<ele>637.000000</ele>
			</trkpt>
			<trkpt lat="48.939411" lon="17.730094">
				<ele>637.000000</ele>
			</trkpt>
			<trkpt lat="48.939388" lon="17.730004">
				<ele>636.000000</ele>
			</trkpt>
			<trkpt lat="48.939352" lon="17.729878">
				<ele>635.000000</ele>
			</trkpt>
			<trkpt lat="48.939293" lon="17.729753">
				<ele>635.000000</ele>
			</trkpt>
			<trkpt lat="48.939205" lon="17.729608">
				<ele>634.000000</ele>
			</trkpt>
			<trkpt lat="48.939081" lon="17.729465">
				<ele>633.000000</ele>
			</trkpt>
			<trkpt lat="48.938798" lon="17.729124">
				<ele>632.000000</ele>
			</trkpt>
			<trkpt lat="48.938060" lon="17.728342">
				<ele>629.000000</ele>
			</trkpt>
			<trkpt lat="48.937871" lon="17.728126">
				<ele>628.000000</ele>
			</trkpt>
			<trkpt lat="48.937700" lon="17.727902">
				<ele>627.000000</ele>
			</trkpt>
			<trkpt lat="48.937500" lon="17.727606">
				<ele>626.000000</ele>
			</trkpt>
			<trkpt lat="48.937133" lon="17.726985">
				<ele>621.000000</ele>
			</trkpt>
			<trkpt lat="48.936969" lon="17.726725">
				<ele>617.000000</ele>
			</trkpt>
			<trkpt lat="48.936857" lon="17.726572">
				<ele>616.000000</ele>
			</trkpt>
			<trkpt lat="48.936762" lon="17.726455">
				<ele>614.000000</ele>
			</trkpt>
			<trkpt lat="48.936650" lon="17.726339">
				<ele>612.000000</ele>
			</trkpt>
			<trkpt lat="48.936526" lon="17.726222">
				<ele>610.000000</ele>
			</trkpt>
			<trkpt lat="48.935977" lon="17.725746">
				<ele>604.000000</ele>
			</trkpt>
			<trkpt lat="48.935487" lon="17.725279">
				<ele>599.000000</ele>
			</trkpt>
			<trkpt lat="48.935440" lon="17.725225">
				<ele>599.000000</ele>
			</trkpt>
			<trkpt lat="48.935387" lon="17.725162">
				<ele>598.000000</ele>
			</trkpt>
			<trkpt lat="48.935304" lon="17.725036">
				<ele>598.000000</ele>
			</trkpt>
			<trkpt lat="48.935233" lon="17.724937">
				<ele>598.000000</ele>
			</trkpt>
			<trkpt lat="48.935145" lon="17.724830">
				<ele>597.000000</ele>
			</trkpt>
			<trkpt lat="48.935039" lon="17.724686">
				<ele>597.000000</ele>
			</trkpt>
			<trkpt lat="48.934868" lon="17.724425">
				<ele>596.000000</ele>
			</trkpt>
			<trkpt lat="48.934649" lon="17.724128">
				<ele>597.000000</ele>
			</trkpt>
			<trkpt lat="48.934549" lon="17.724030">
				<ele>598.000000</ele>
			</trkpt>
			<trkpt lat="48.934431" lon="17.723914">
				<ele>598.000000</ele>
			</trkpt>
			<trkpt lat="48.934018" lon="17.723518">
				<ele>601.000000</ele>
			</trkpt>
			<trkpt lat="48.933776" lon="17.723293">
				<ele>602.000000</ele>
			</trkpt>
			<trkpt lat="48.933593" lon="17.723086">
				<ele>603.000000</ele>
			</trkpt>
			<trkpt lat="48.933445" lon="17.722907">
				<ele>604.000000</ele>
			</trkpt>
			<trkpt lat="48.933304" lon="17.722692">
				<ele>605.000000</ele>
			</trkpt>
			<trkpt lat="48.933127" lon="17.722377">
				<ele>606.000000</ele>
			</trkpt>
			<trkpt lat="48.933020" lon="17.722180">
				<ele>607.000000</ele>
			</trkpt>
			<trkpt lat="48.932950" lon="17.722044">
				<ele>607.000000</ele>
			</trkpt>
			<trkpt lat="48.932891" lon="17.721891">
				<ele>607.000000</ele>
			</trkpt>
			<trkpt lat="48.932832" lon="17.721694">
				<ele>607.000000</ele>
			</trkpt>
			<trkpt lat="48.932808" lon="17.721614">
				<ele>607.000000</ele>
			</trkpt>
			<trkpt lat="48.932773" lon="17.721541">
				<ele>607.000000</ele>
			</trkpt>
			<trkpt lat="48.932743" lon="17.721488">
				<ele>606.000000</ele>
			</trkpt>
			<trkpt lat="48.932690" lon="17.721443">
				<ele>606.000000</ele>
			</trkpt>
			<trkpt lat="48.932513" lon="17.721299">
				<ele>607.000000</ele>
			</trkpt>
			<trkpt lat="48.932324" lon="17.721111">
				<ele>606.000000</ele>
			</trkpt>
			<trkpt lat="48.932188" lon="17.720939">
				<ele>605.000000</ele>
			</trkpt>
			<trkpt lat="48.932047" lon="17.720706">
				<ele>605.000000</ele>
			</trkpt>
			<trkpt lat="48.931935" lon="17.720526">
				<ele>604.000000</ele>
			</trkpt>
			<trkpt lat="48.931823" lon="17.720373">
				<ele>604.000000</ele>
			</trkpt>
			<trkpt lat="48.931693" lon="17.720230">
				<ele>604.000000</ele>
			</trkpt>
			<trkpt lat="48.931522" lon="17.720069">
				<ele>603.000000</ele>
			</trkpt>
			<trkpt lat="48.931516" lon="17.720050">
				<ele>603.000000</ele>
			</trkpt>
			<trkpt lat="48.931321" lon="17.719889">
				<ele>602.000000</ele>
			</trkpt>
			<trkpt lat="48.931179" lon="17.719717">
				<ele>601.000000</ele>
			</trkpt>
			<trkpt lat="48.930919" lon="17.719377">
				<ele>600.000000</ele>
			</trkpt>
			<trkpt lat="48.930772" lon="17.719207">
				<ele>599.000000</ele>
			</trkpt>
			<trkpt lat="48.930671" lon="17.719090">
				<ele>599.000000</ele>
			</trkpt>
			<trkpt lat="48.930624" lon="17.719008">
				<ele>599.000000</ele>
			</trkpt>
			<trkpt lat="48.930518" lon="17.718838">
				<ele>599.000000</ele>
			</trkpt>
			<trkpt lat="48.930376" lon="17.718649">
				<ele>600.000000</ele>
			</trkpt>
			<trkpt lat="48.930282" lon="17.718541">
				<ele>601.000000</ele>
			</trkpt>
			<trkpt lat="48.930075" lon="17.718245">
				<ele>602.000000</ele>
			</trkpt>
			<trkpt lat="48.929898" lon="17.717985">
				<ele>602.000000</ele>
			</trkpt>
			<trkpt lat="48.929733" lon="17.717769">
				<ele>601.000000</ele>
			</trkpt>
			<trkpt lat="48.929491" lon="17.717446">
				<ele>599.000000</ele>
			</trkpt>
			<trkpt lat="48.929220" lon="17.717050">
				<ele>599.000000</ele>
			</trkpt>
			<trkpt lat="48.929108" lon="17.716880">
				<ele>598.000000</ele>
			</trkpt>
			<trkpt lat="48.929031" lon="17.716754">
				<ele>597.000000</ele>
			</trkpt>
			<trkpt lat="48.928972" lon="17.716601">
				<ele>596.000000</ele>
			</trkpt>
			<trkpt lat="48.928901" lon="17.716404">
				<ele>595.000000</ele>
			</trkpt>
			<trkpt lat="48.928825" lon="17.716151">
				<ele>594.000000</ele>
			</trkpt>
			<trkpt lat="48.928789" lon="17.715918">
				<ele>592.000000</ele>
			</trkpt>
			<trkpt lat="48.928754" lon="17.715748">
				<ele>591.000000</ele>
			</trkpt>
			<trkpt lat="48.928724" lon="17.715612">
				<ele>590.000000</ele>
			</trkpt>
			<trkpt lat="48.928683" lon="17.715478">
				<ele>589.000000</ele>
			</trkpt>
			<trkpt lat="48.928606" lon="17.715281">
				<ele>588.000000</ele>
			</trkpt>
			<trkpt lat="48.928571" lon="17.715199">
				<ele>588.000000</ele>
			</trkpt>
			<trkpt lat="48.928518" lon="17.715128">
				<ele>588.000000</ele>
			</trkpt>
			<trkpt lat="48.928465" lon="17.715083">
				<ele>588.000000</ele>
			</trkpt>
			<trkpt lat="48.928358" lon="17.714993">
				<ele>588.000000</ele>
			</trkpt>
			<trkpt lat="48.928199" lon="17.714885">
				<ele>587.000000</ele>
			</trkpt>
			<trkpt lat="48.927986" lon="17.714796">
				<ele>586.000000</ele>
			</trkpt>
			<trkpt lat="48.927868" lon="17.714750">
				<ele>585.000000</ele>
			</trkpt>
			<trkpt lat="48.927780" lon="17.714742">
				<ele>584.000000</ele>
			</trkpt>
			<trkpt lat="48.927673" lon="17.714769">
				<ele>584.000000</ele>
			</trkpt>
			<trkpt lat="48.927608" lon="17.714759">
				<ele>584.000000</ele>
			</trkpt>
			<trkpt lat="48.927485" lon="17.714696">
				<ele>583.000000</ele>
			</trkpt>
			<trkpt lat="48.927532" lon="17.714507">
				<ele>583.000000</ele>
			</trkpt>
			<trkpt lat="48.927036" lon="17.714167">
				<ele>581.000000</ele>
			</trkpt>
			<trkpt lat="48.927024" lon="17.714157">
				<ele>581.000000</ele>
			</trkpt>
			<trkpt lat="48.927024" lon="17.714157">
				<ele>581.000000</ele>
			</trkpt>
			<trkpt lat="48.926871" lon="17.714067">
				<ele>580.000000</ele>
			</trkpt>
			<trkpt lat="48.926717" lon="17.713987">
				<ele>579.000000</ele>
			</trkpt>
			<trkpt lat="48.926475" lon="17.713870">
				<ele>578.000000</ele>
			</trkpt>
			<trkpt lat="48.926263" lon="17.713790">
				<ele>577.000000</ele>
			</trkpt>
			<trkpt lat="48.926057" lon="17.713717">
				<ele>575.000000</ele>
			</trkpt>
			<trkpt lat="48.925501" lon="17.713583">
				<ele>572.000000</ele>
			</trkpt>
			<trkpt lat="48.925130" lon="17.713457">
				<ele>569.000000</ele>
			</trkpt>
			<trkpt lat="48.924970" lon="17.713358">
				<ele>568.000000</ele>
			</trkpt>
			<trkpt lat="48.924846" lon="17.713251">
				<ele>567.000000</ele>
			</trkpt>
			<trkpt lat="48.924740" lon="17.713115">
				<ele>566.000000</ele>
			</trkpt>
			<trkpt lat="48.924699" lon="17.713035">
				<ele>566.000000</ele>
			</trkpt>
			<trkpt lat="48.924675" lon="17.712962">
				<ele>566.000000</ele>
			</trkpt>
			<trkpt lat="48.924640" lon="17.712855">
				<ele>565.000000</ele>
			</trkpt>
			<trkpt lat="48.924616" lon="17.712712">
				<ele>564.000000</ele>
			</trkpt>
			<trkpt lat="48.924604" lon="17.712513">
				<ele>564.000000</ele>
			</trkpt>
			<trkpt lat="48.924593" lon="17.712253">
				<ele>562.000000</ele>
			</trkpt>
			<trkpt lat="48.924593" lon="17.712253">
				<ele>562.000000</ele>
			</trkpt>
			<trkpt lat="48.924593" lon="17.712209">
				<ele>562.000000</ele>
			</trkpt>
			<trkpt lat="48.924587" lon="17.712100">
				<ele>562.000000</ele>
			</trkpt>
			<trkpt lat="48.924563" lon="17.712020">
				<ele>562.000000</ele>
			</trkpt>
			<trkpt lat="48.924528" lon="17.711957">
				<ele>561.000000</ele>
			</trkpt>
			<trkpt lat="48.924475" lon="17.711903">
				<ele>561.000000</ele>
			</trkpt>
			<trkpt lat="48.924421" lon="17.711885">
				<ele>561.000000</ele>
			</trkpt>
			<trkpt lat="48.924357" lon="17.711885">
				<ele>560.000000</ele>
			</trkpt>
			<trkpt lat="48.924292" lon="17.711903">
				<ele>559.000000</ele>
			</trkpt>
			<trkpt lat="48.924227" lon="17.711957">
				<ele>559.000000</ele>
			</trkpt>
			<trkpt lat="48.924126" lon="17.711830">
				<ele>558.000000</ele>
			</trkpt>
			<trkpt lat="48.924020" lon="17.711723">
				<ele>556.000000</ele>
			</trkpt>
			<trkpt lat="48.924020" lon="17.711723">
				<ele>556.000000</ele>
			</trkpt>
			<trkpt lat="48.923991" lon="17.711696">
				<ele>556.000000</ele>
			</trkpt>
			<trkpt lat="48.923843" lon="17.711526">
				<ele>554.000000</ele>
			</trkpt>
			<trkpt lat="48.923737" lon="17.711454">
				<ele>553.000000</ele>
			</trkpt>
			<trkpt lat="48.923678" lon="17.711391">
				<ele>552.000000</ele>
			</trkpt>
			<trkpt lat="48.923642" lon="17.711328">
				<ele>551.000000</ele>
			</trkpt>
			<trkpt lat="48.923618" lon="17.711238">
				<ele>551.000000</ele>
			</trkpt>
			<trkpt lat="48.923583" lon="17.711077">
				<ele>550.000000</ele>
			</trkpt>
			<trkpt lat="48.923559" lon="17.710905">
				<ele>549.000000</ele>
			</trkpt>
			<trkpt lat="48.923494" lon="17.710754">
				<ele>548.000000</ele>
			</trkpt>
			<trkpt lat="48.923359" lon="17.710375">
				<ele>544.000000</ele>
			</trkpt>
			<trkpt lat="48.923288" lon="17.710222">
				<ele>543.000000</ele>
			</trkpt>
			<trkpt lat="48.923229" lon="17.710115">
				<ele>542.000000</ele>
			</trkpt>
			<trkpt lat="48.923152" lon="17.709998">
				<ele>541.000000</ele>
			</trkpt>
			<trkpt lat="48.923052" lon="17.709882">
				<ele>539.000000</ele>
			</trkpt>
			<trkpt lat="48.922887" lon="17.709702">
				<ele>537.000000</ele>
			</trkpt>
			<trkpt lat="48.922792" lon="17.709559">
				<ele>536.000000</ele>
			</trkpt>
			<trkpt lat="48.922574" lon="17.709217">
				<ele>532.000000</ele>
			</trkpt>
			<trkpt lat="48.922503" lon="17.709136">
				<ele>532.000000</ele>
			</trkpt>
			<trkpt lat="48.922426" lon="17.709064">
				<ele>531.000000</ele>
			</trkpt>
			<trkpt lat="48.922355" lon="17.709001">
				<ele>531.000000</ele>
			</trkpt>
			<trkpt lat="48.922302" lon="17.708920">
				<ele>530.000000</ele>
			</trkpt>
			<trkpt lat="48.922167" lon="17.708633">
				<ele>528.000000</ele>
			</trkpt>
			<trkpt lat="48.922096" lon="17.708507">
				<ele>527.000000</ele>
			</trkpt>
			<trkpt lat="48.922037" lon="17.708408">
				<ele>526.000000</ele>
			</trkpt>
			<trkpt lat="48.921801" lon="17.708138">
				<ele>524.000000</ele>
			</trkpt>
			<trkpt lat="48.921695" lon="17.708022">
				<ele>523.000000</ele>
			</trkpt>
			<trkpt lat="48.921636" lon="17.707924">
				<ele>523.000000</ele>
			</trkpt>
			<trkpt lat="48.921310" lon="17.707222">
				<ele>519.000000</ele>
			</trkpt>
			<trkpt lat="48.921205" lon="17.707025">
				<ele>518.000000</ele>
			</trkpt>
			<trkpt lat="48.921127" lon="17.706899">
				<ele>518.000000</ele>
			</trkpt>
			<trkpt lat="48.921039" lon="17.706783">
				<ele>517.000000</ele>
			</trkpt>
			<trkpt lat="48.920915" lon="17.706656">
				<ele>517.000000</ele>
			</trkpt>
			<trkpt lat="48.920856" lon="17.706630">
				<ele>516.000000</ele>
			</trkpt>
			<trkpt lat="48.920708" lon="17.706593">
				<ele>515.000000</ele>
			</trkpt>
			<trkpt lat="48.920667" lon="17.706576">
				<ele>515.000000</ele>
			</trkpt>
			<trkpt lat="48.920638" lon="17.706557">
				<ele>515.000000</ele>
			</trkpt>
			<trkpt lat="48.920614" lon="17.706522">
				<ele>515.000000</ele>
			</trkpt>
			<trkpt lat="48.920549" lon="17.706324">
				<ele>514.000000</ele>
			</trkpt>
			<trkpt lat="48.920508" lon="17.706171">
				<ele>514.000000</ele>
			</trkpt>
			<trkpt lat="48.920472" lon="17.706037">
				<ele>514.000000</ele>
			</trkpt>
			<trkpt lat="48.920408" lon="17.705660">
				<ele>514.000000</ele>
			</trkpt>
			<trkpt lat="48.920378" lon="17.705453">
				<ele>514.000000</ele>
			</trkpt>
			<trkpt lat="48.920331" lon="17.705264">
				<ele>514.000000</ele>
			</trkpt>
			<trkpt lat="48.920272" lon="17.705075">
				<ele>515.000000</ele>
			</trkpt>
			<trkpt lat="48.920166" lon="17.704815">
				<ele>515.000000</ele>
			</trkpt>
			<trkpt lat="48.920142" lon="17.704798">
				<ele>515.000000</ele>
			</trkpt>
			<trkpt lat="48.920095" lon="17.704752">
				<ele>515.000000</ele>
			</trkpt>
			<trkpt lat="48.920053" lon="17.704716">
				<ele>515.000000</ele>
			</trkpt>
			<trkpt lat="48.919941" lon="17.704555">
				<ele>515.000000</ele>
			</trkpt>
			<trkpt lat="48.919835" lon="17.704411">
				<ele>516.000000</ele>
			</trkpt>
			<trkpt lat="48.919741" lon="17.704330">
				<ele>516.000000</ele>
			</trkpt>
			<trkpt lat="48.919658" lon="17.704285">
				<ele>516.000000</ele>
			</trkpt>
			<trkpt lat="48.919581" lon="17.704123">
				<ele>516.000000</ele>
			</trkpt>
			<trkpt lat="48.919581" lon="17.704123">
				<ele>516.000000</ele>
			</trkpt>
			<trkpt lat="48.919451" lon="17.703846">
				<ele>517.000000</ele>
			</trkpt>
			<trkpt lat="48.919410" lon="17.703737">
				<ele>517.000000</ele>
			</trkpt>
			<trkpt lat="48.919375" lon="17.703630">
				<ele>517.000000</ele>
			</trkpt>
			<trkpt lat="48.919351" lon="17.703486">
				<ele>517.000000</ele>
			</trkpt>
			<trkpt lat="48.919357" lon="17.703377">
				<ele>517.000000</ele>
			</trkpt>
			<trkpt lat="48.919363" lon="17.703117">
				<ele>518.000000</ele>
			</trkpt>
			<trkpt lat="48.919357" lon="17.702928">
				<ele>518.000000</ele>
			</trkpt>
			<trkpt lat="48.919328" lon="17.702748">
				<ele>518.000000</ele>
			</trkpt>
			<trkpt lat="48.919269" lon="17.702569">
				<ele>518.000000</ele>
			</trkpt>
			<trkpt lat="48.918884" lon="17.701536">
				<ele>522.000000</ele>
			</trkpt>
			<trkpt lat="48.918719" lon="17.701033">
				<ele>524.000000</ele>
			</trkpt>
			<trkpt lat="48.918589" lon="17.700719">
				<ele>526.000000</ele>
			</trkpt>
			<trkpt lat="48.918513" lon="17.700530">
				<ele>527.000000</ele>
			</trkpt>
			<trkpt lat="48.918418" lon="17.700368">
				<ele>528.000000</ele>
			</trkpt>
			<trkpt lat="48.918306" lon="17.700198">
				<ele>529.000000</ele>
			</trkpt>
			<trkpt lat="48.917964" lon="17.699767">
				<ele>532.000000</ele>
			</trkpt>
			<trkpt lat="48.917828" lon="17.699587">
				<ele>532.000000</ele>
			</trkpt>
			<trkpt lat="48.917680" lon="17.699353">
				<ele>533.000000</ele>
			</trkpt>
			<trkpt lat="48.917568" lon="17.699146">
				<ele>533.000000</ele>
			</trkpt>
			<trkpt lat="48.917456" lon="17.698932">
				<ele>534.000000</ele>
			</trkpt>
			<trkpt lat="48.917309" lon="17.698617">
				<ele>534.000000</ele>
			</trkpt>
			<trkpt lat="48.917197" lon="17.698366">
				<ele>535.000000</ele>
			</trkpt>
			<trkpt lat="48.917120" lon="17.698140">
				<ele>535.000000</ele>
			</trkpt>
			<trkpt lat="48.917054" lon="17.697907">
				<ele>535.000000</ele>
			</trkpt>
			<trkpt lat="48.916989" lon="17.697611">
				<ele>535.000000</ele>
			</trkpt>
			<trkpt lat="48.916896" lon="17.697098">
				<ele>535.000000</ele>
			</trkpt>
			<trkpt lat="48.916824" lon="17.696676">
				<ele>534.000000</ele>
			</trkpt>
			<trkpt lat="48.916795" lon="17.696389">
				<ele>533.000000</ele>
			</trkpt>
			<trkpt lat="48.916783" lon="17.696137">
				<ele>533.000000</ele>
			</trkpt>
			<trkpt lat="48.916771" lon="17.695877">
				<ele>533.000000</ele>
			</trkpt>
			<trkpt lat="48.916771" lon="17.695454">
				<ele>532.000000</ele>
			</trkpt>
			<trkpt lat="48.916765" lon="17.694924">
				<ele>532.000000</ele>
			</trkpt>
			<trkpt lat="48.916771" lon="17.694529">
				<ele>531.000000</ele>
			</trkpt>
			<trkpt lat="48.916759" lon="17.694377">
				<ele>532.000000</ele>
			</trkpt>
			<trkpt lat="48.916747" lon="17.694215">
				<ele>532.000000</ele>
			</trkpt>
			<trkpt lat="48.916671" lon="17.693640">
				<ele>532.000000</ele>
			</trkpt>
			<trkpt lat="48.916647" lon="17.693433">
				<ele>532.000000</ele>
			</trkpt>
			<trkpt lat="48.916641" lon="17.693227">
				<ele>532.000000</ele>
			</trkpt>
			<trkpt lat="48.916612" lon="17.691969">
				<ele>533.000000</ele>
			</trkpt>
			<trkpt lat="48.916600" lon="17.691548">
				<ele>534.000000</ele>
			</trkpt>
			<trkpt lat="48.916565" lon="17.691062">
				<ele>534.000000</ele>
			</trkpt>
			<trkpt lat="48.916470" lon="17.689435">
				<ele>541.000000</ele>
			</trkpt>
			<trkpt lat="48.916399" lon="17.687953">
				<ele>546.000000</ele>
			</trkpt>
			<trkpt lat="48.916370" lon="17.687550">
				<ele>546.000000</ele>
			</trkpt>
			<trkpt lat="48.916323" lon="17.686938">
				<ele>549.000000</ele>
			</trkpt>
			<trkpt lat="48.916287" lon="17.686508">
				<ele>550.000000</ele>
			</trkpt>
			<trkpt lat="48.916275" lon="17.686248">
				<ele>551.000000</ele>
			</trkpt>
			<trkpt lat="48.916281" lon="17.685986">
				<ele>551.000000</ele>
			</trkpt>
			<trkpt lat="48.916305" lon="17.685699">
				<ele>552.000000</ele>
			</trkpt>
			<trkpt lat="48.916252" lon="17.684963">
				<ele>555.000000</ele>
			</trkpt>
			<trkpt lat="48.916210" lon="17.684477">
				<ele>557.000000</ele>
			</trkpt>
			<trkpt lat="48.916140" lon="17.683974">
				<ele>558.000000</ele>
			</trkpt>
			<trkpt lat="48.916033" lon="17.683418">
				<ele>560.000000</ele>
			</trkpt>
			<trkpt lat="48.915839" lon="17.683103">
				<ele>559.000000</ele>
			</trkpt>
			<trkpt lat="48.915839" lon="17.683103">
				<ele>559.000000</ele>
			</trkpt>
			<trkpt lat="48.915420" lon="17.682420">
				<ele>558.000000</ele>
			</trkpt>
			<trkpt lat="48.915142" lon="17.681935">
				<ele>556.000000</ele>
			</trkpt>
			<trkpt lat="48.915083" lon="17.681334">
				<ele>556.000000</ele>
			</trkpt>
			<trkpt lat="48.915083" lon="17.681334">
				<ele>556.000000</ele>
			</trkpt>
			<trkpt lat="48.915041" lon="17.680866">
				<ele>556.000000</ele>
			</trkpt>
			<trkpt lat="48.914788" lon="17.677946">
				<ele>564.000000</ele>
			</trkpt>
			<trkpt lat="48.914740" lon="17.677605">
				<ele>565.000000</ele>
			</trkpt>
			<trkpt lat="48.914675" lon="17.677282">
				<ele>566.000000</ele>
			</trkpt>
			<trkpt lat="48.914599" lon="17.676976">
				<ele>567.000000</ele>
			</trkpt>
			<trkpt lat="48.914416" lon="17.676411">
				<ele>569.000000</ele>
			</trkpt>
			<trkpt lat="48.914309" lon="17.676078">
				<ele>570.000000</ele>
			</trkpt>
			<trkpt lat="48.914085" lon="17.675503">
				<ele>572.000000</ele>
			</trkpt>
			<trkpt lat="48.913997" lon="17.675225">
				<ele>573.000000</ele>
			</trkpt>
			<trkpt lat="48.913920" lon="17.675018">
				<ele>574.000000</ele>
			</trkpt>
			<trkpt lat="48.913849" lon="17.674820">
				<ele>575.000000</ele>
			</trkpt>
			<trkpt lat="48.913601" lon="17.674308">
				<ele>578.000000</ele>
			</trkpt>
			<trkpt lat="48.913376" lon="17.673814">
				<ele>580.000000</ele>
			</trkpt>
			<trkpt lat="48.913258" lon="17.673482">
				<ele>582.000000</ele>
			</trkpt>
			<trkpt lat="48.913212" lon="17.673321">
				<ele>583.000000</ele>
			</trkpt>
			<trkpt lat="48.913170" lon="17.673141">
				<ele>583.000000</ele>
			</trkpt>
			<trkpt lat="48.913100" lon="17.672755">
				<ele>585.000000</ele>
			</trkpt>
			<trkpt lat="48.913022" lon="17.672162">
				<ele>587.000000</ele>
			</trkpt>
			<trkpt lat="48.912969" lon="17.671748">
				<ele>589.000000</ele>
			</trkpt>
			<trkpt lat="48.912940" lon="17.671407">
				<ele>591.000000</ele>
			</trkpt>
			<trkpt lat="48.912922" lon="17.671092">
				<ele>593.000000</ele>
			</trkpt>
			<trkpt lat="48.912916" lon="17.670751">
				<ele>595.000000</ele>
			</trkpt>
			<trkpt lat="48.912928" lon="17.670409">
				<ele>596.000000</ele>
			</trkpt>
			<trkpt lat="48.912951" lon="17.670023">
				<ele>598.000000</ele>
			</trkpt>
			<trkpt lat="48.912987" lon="17.669692">
				<ele>599.000000</ele>
			</trkpt>
			<trkpt lat="48.913123" lon="17.668560">
				<ele>600.000000</ele>
			</trkpt>
			<trkpt lat="48.913418" lon="17.666340">
				<ele>595.000000</ele>
			</trkpt>
			<trkpt lat="48.913530" lon="17.665379">
				<ele>593.000000</ele>
			</trkpt>
			<trkpt lat="48.913548" lon="17.665011">
				<ele>592.000000</ele>
			</trkpt>
			<trkpt lat="48.913584" lon="17.664642">
				<ele>590.000000</ele>
			</trkpt>
			<trkpt lat="48.913719" lon="17.663321">
				<ele>586.000000</ele>
			</trkpt>
			<trkpt lat="48.913749" lon="17.662954">
				<ele>585.000000</ele>
			</trkpt>
			<trkpt lat="48.913772" lon="17.662621">
				<ele>585.000000</ele>
			</trkpt>
			<trkpt lat="48.913778" lon="17.662289">
				<ele>585.000000</ele>
			</trkpt>
			<trkpt lat="48.913790" lon="17.661965">
				<ele>586.000000</ele>
			</trkpt>
			<trkpt lat="48.913778" lon="17.661885">
				<ele>586.000000</ele>
			</trkpt>
			<trkpt lat="48.913755" lon="17.661795">
				<ele>587.000000</ele>
			</trkpt>
			<trkpt lat="48.913737" lon="17.661759">
				<ele>587.000000</ele>
			</trkpt>
		</trkseg>
	</trk>
</gpx>

