<?xml version="1.0" encoding="utf-8"?>
<gpx xmlns="http://www.topografix.com/GPX/1/1" version="1.1" creator="https://mapy.cz/">
	<trk>
		<name>21_Nová_Lhota - Velká nad Veličkou</name>
		<trkseg>
			<trkpt lat="48.860900" lon="17.593631">
				<ele>476.000000</ele>
			</trkpt>
			<trkpt lat="48.860889" lon="17.593648">
				<ele>476.000000</ele>
			</trkpt>
			<trkpt lat="48.860759" lon="17.593765">
				<ele>477.000000</ele>
			</trkpt>
			<trkpt lat="48.860410" lon="17.594124">
				<ele>479.000000</ele>
			</trkpt>
			<trkpt lat="48.859949" lon="17.594592">
				<ele>483.000000</ele>
			</trkpt>
			<trkpt lat="48.859789" lon="17.594753">
				<ele>485.000000</ele>
			</trkpt>
			<trkpt lat="48.859736" lon="17.594772">
				<ele>485.000000</ele>
			</trkpt>
			<trkpt lat="48.859689" lon="17.594799">
				<ele>486.000000</ele>
			</trkpt>
			<trkpt lat="48.859636" lon="17.594799">
				<ele>486.000000</ele>
			</trkpt>
			<trkpt lat="48.859594" lon="17.594790">
				<ele>487.000000</ele>
			</trkpt>
			<trkpt lat="48.859547" lon="17.594763">
				<ele>488.000000</ele>
			</trkpt>
			<trkpt lat="48.859512" lon="17.594736">
				<ele>488.000000</ele>
			</trkpt>
			<trkpt lat="48.859476" lon="17.594682">
				<ele>489.000000</ele>
			</trkpt>
			<trkpt lat="48.859447" lon="17.594592">
				<ele>490.000000</ele>
			</trkpt>
			<trkpt lat="48.859299" lon="17.594233">
				<ele>493.000000</ele>
			</trkpt>
			<trkpt lat="48.859252" lon="17.594071">
				<ele>495.000000</ele>
			</trkpt>
			<trkpt lat="48.859211" lon="17.593900">
				<ele>496.000000</ele>
			</trkpt>
			<trkpt lat="48.859163" lon="17.593585">
				<ele>498.000000</ele>
			</trkpt>
			<trkpt lat="48.859133" lon="17.593245">
				<ele>499.000000</ele>
			</trkpt>
			<trkpt lat="48.859104" lon="17.592463">
				<ele>502.000000</ele>
			</trkpt>
			<trkpt lat="48.859092" lon="17.592193">
				<ele>503.000000</ele>
			</trkpt>
			<trkpt lat="48.859098" lon="17.591933">
				<ele>504.000000</ele>
			</trkpt>
			<trkpt lat="48.859104" lon="17.591591">
				<ele>505.000000</ele>
			</trkpt>
			<trkpt lat="48.859151" lon="17.591142">
				<ele>507.000000</ele>
			</trkpt>
			<trkpt lat="48.859234" lon="17.590262">
				<ele>512.000000</ele>
			</trkpt>
			<trkpt lat="48.859252" lon="17.590002">
				<ele>513.000000</ele>
			</trkpt>
			<trkpt lat="48.859245" lon="17.589813">
				<ele>514.000000</ele>
			</trkpt>
			<trkpt lat="48.859240" lon="17.589759">
				<ele>514.000000</ele>
			</trkpt>
			<trkpt lat="48.859240" lon="17.589759">
				<ele>514.000000</ele>
			</trkpt>
			<trkpt lat="48.859216" lon="17.589561">
				<ele>515.000000</ele>
			</trkpt>
			<trkpt lat="48.859175" lon="17.589373">
				<ele>515.000000</ele>
			</trkpt>
			<trkpt lat="48.859110" lon="17.589166">
				<ele>516.000000</ele>
			</trkpt>
			<trkpt lat="48.859021" lon="17.588960">
				<ele>516.000000</ele>
			</trkpt>
			<trkpt lat="48.858962" lon="17.588834">
				<ele>517.000000</ele>
			</trkpt>
			<trkpt lat="48.858903" lon="17.588744">
				<ele>518.000000</ele>
			</trkpt>
			<trkpt lat="48.858832" lon="17.588663">
				<ele>518.000000</ele>
			</trkpt>
			<trkpt lat="48.858767" lon="17.588600">
				<ele>518.000000</ele>
			</trkpt>
			<trkpt lat="48.858708" lon="17.588547">
				<ele>518.000000</ele>
			</trkpt>
			<trkpt lat="48.858637" lon="17.588511">
				<ele>518.000000</ele>
			</trkpt>
			<trkpt lat="48.858566" lon="17.588484">
				<ele>519.000000</ele>
			</trkpt>
			<trkpt lat="48.858466" lon="17.588474">
				<ele>519.000000</ele>
			</trkpt>
			<trkpt lat="48.858330" lon="17.588484">
				<ele>520.000000</ele>
			</trkpt>
			<trkpt lat="48.858224" lon="17.588501">
				<ele>520.000000</ele>
			</trkpt>
			<trkpt lat="48.858123" lon="17.588537">
				<ele>521.000000</ele>
			</trkpt>
			<trkpt lat="48.858034" lon="17.588591">
				<ele>521.000000</ele>
			</trkpt>
			<trkpt lat="48.857940" lon="17.588645">
				<ele>522.000000</ele>
			</trkpt>
			<trkpt lat="48.857756" lon="17.588798">
				<ele>523.000000</ele>
			</trkpt>
			<trkpt lat="48.857407" lon="17.589130">
				<ele>526.000000</ele>
			</trkpt>
			<trkpt lat="48.857313" lon="17.588824">
				<ele>525.000000</ele>
			</trkpt>
			<trkpt lat="48.857296" lon="17.588780">
				<ele>525.000000</ele>
			</trkpt>
			<trkpt lat="48.857296" lon="17.588780">
				<ele>525.000000</ele>
			</trkpt>
			<trkpt lat="48.857212" lon="17.588537">
				<ele>522.000000</ele>
			</trkpt>
			<trkpt lat="48.857100" lon="17.588268">
				<ele>520.000000</ele>
			</trkpt>
			<trkpt lat="48.856994" lon="17.588008">
				<ele>518.000000</ele>
			</trkpt>
			<trkpt lat="48.856870" lon="17.587755">
				<ele>516.000000</ele>
			</trkpt>
			<trkpt lat="48.856722" lon="17.587486">
				<ele>515.000000</ele>
			</trkpt>
			<trkpt lat="48.856214" lon="17.586606">
				<ele>517.000000</ele>
			</trkpt>
			<trkpt lat="48.856078" lon="17.586345">
				<ele>518.000000</ele>
			</trkpt>
			<trkpt lat="48.855995" lon="17.586211">
				<ele>518.000000</ele>
			</trkpt>
			<trkpt lat="48.855777" lon="17.586067">
				<ele>520.000000</ele>
			</trkpt>
			<trkpt lat="48.855777" lon="17.586067">
				<ele>520.000000</ele>
			</trkpt>
			<trkpt lat="48.855694" lon="17.586013">
				<ele>521.000000</ele>
			</trkpt>
			<trkpt lat="48.855552" lon="17.585941">
				<ele>522.000000</ele>
			</trkpt>
			<trkpt lat="48.855445" lon="17.585897">
				<ele>523.000000</ele>
			</trkpt>
			<trkpt lat="48.855321" lon="17.585878">
				<ele>523.000000</ele>
			</trkpt>
			<trkpt lat="48.855215" lon="17.585851">
				<ele>523.000000</ele>
			</trkpt>
			<trkpt lat="48.855108" lon="17.585860">
				<ele>523.000000</ele>
			</trkpt>
			<trkpt lat="48.854996" lon="17.585869">
				<ele>523.000000</ele>
			</trkpt>
			<trkpt lat="48.854890" lon="17.585905">
				<ele>522.000000</ele>
			</trkpt>
			<trkpt lat="48.854570" lon="17.586031">
				<ele>519.000000</ele>
			</trkpt>
			<trkpt lat="48.854328" lon="17.586138">
				<ele>517.000000</ele>
			</trkpt>
			<trkpt lat="48.854133" lon="17.586247">
				<ele>516.000000</ele>
			</trkpt>
			<trkpt lat="48.854033" lon="17.586300">
				<ele>515.000000</ele>
			</trkpt>
			<trkpt lat="48.853962" lon="17.586318">
				<ele>514.000000</ele>
			</trkpt>
			<trkpt lat="48.853873" lon="17.586318">
				<ele>512.000000</ele>
			</trkpt>
			<trkpt lat="48.853772" lon="17.586300">
				<ele>510.000000</ele>
			</trkpt>
			<trkpt lat="48.853642" lon="17.586237">
				<ele>507.000000</ele>
			</trkpt>
			<trkpt lat="48.853542" lon="17.586193">
				<ele>505.000000</ele>
			</trkpt>
			<trkpt lat="48.853442" lon="17.586121">
				<ele>502.000000</ele>
			</trkpt>
			<trkpt lat="48.853312" lon="17.586004">
				<ele>499.000000</ele>
			</trkpt>
			<trkpt lat="48.853152" lon="17.585869">
				<ele>497.000000</ele>
			</trkpt>
			<trkpt lat="48.853010" lon="17.585752">
				<ele>495.000000</ele>
			</trkpt>
			<trkpt lat="48.852869" lon="17.585662">
				<ele>493.000000</ele>
			</trkpt>
			<trkpt lat="48.852655" lon="17.585537">
				<ele>492.000000</ele>
			</trkpt>
			<trkpt lat="48.852531" lon="17.585482">
				<ele>491.000000</ele>
			</trkpt>
			<trkpt lat="48.852460" lon="17.585482">
				<ele>489.000000</ele>
			</trkpt>
			<trkpt lat="48.852395" lon="17.585474">
				<ele>488.000000</ele>
			</trkpt>
			<trkpt lat="48.852289" lon="17.585501">
				<ele>485.000000</ele>
			</trkpt>
			<trkpt lat="48.851981" lon="17.585618">
				<ele>480.000000</ele>
			</trkpt>
			<trkpt lat="48.851928" lon="17.585627">
				<ele>479.000000</ele>
			</trkpt>
			<trkpt lat="48.851863" lon="17.585627">
				<ele>477.000000</ele>
			</trkpt>
			<trkpt lat="48.851810" lon="17.585600">
				<ele>476.000000</ele>
			</trkpt>
			<trkpt lat="48.851763" lon="17.585572">
				<ele>475.000000</ele>
			</trkpt>
			<trkpt lat="48.851722" lon="17.585510">
				<ele>474.000000</ele>
			</trkpt>
			<trkpt lat="48.851668" lon="17.585438">
				<ele>473.000000</ele>
			</trkpt>
			<trkpt lat="48.851574" lon="17.585258">
				<ele>471.000000</ele>
			</trkpt>
			<trkpt lat="48.851302" lon="17.584629">
				<ele>469.000000</ele>
			</trkpt>
			<trkpt lat="48.850971" lon="17.583974">
				<ele>466.000000</ele>
			</trkpt>
			<trkpt lat="48.850912" lon="17.583857">
				<ele>465.000000</ele>
			</trkpt>
			<trkpt lat="48.850841" lon="17.583758">
				<ele>465.000000</ele>
			</trkpt>
			<trkpt lat="48.850794" lon="17.583695">
				<ele>464.000000</ele>
			</trkpt>
			<trkpt lat="48.850723" lon="17.583624">
				<ele>463.000000</ele>
			</trkpt>
			<trkpt lat="48.850563" lon="17.583516">
				<ele>461.000000</ele>
			</trkpt>
			<trkpt lat="48.850291" lon="17.583381">
				<ele>460.000000</ele>
			</trkpt>
			<trkpt lat="48.850037" lon="17.583228">
				<ele>461.000000</ele>
			</trkpt>
			<trkpt lat="48.849824" lon="17.583067">
				<ele>461.000000</ele>
			</trkpt>
			<trkpt lat="48.849641" lon="17.582895">
				<ele>459.000000</ele>
			</trkpt>
			<trkpt lat="48.849192" lon="17.582438">
				<ele>456.000000</ele>
			</trkpt>
			<trkpt lat="48.849127" lon="17.582392">
				<ele>455.000000</ele>
			</trkpt>
			<trkpt lat="48.849067" lon="17.582348">
				<ele>455.000000</ele>
			</trkpt>
			<trkpt lat="48.848855" lon="17.582294">
				<ele>455.000000</ele>
			</trkpt>
			<trkpt lat="48.848754" lon="17.582266">
				<ele>454.000000</ele>
			</trkpt>
			<trkpt lat="48.848672" lon="17.582205">
				<ele>453.000000</ele>
			</trkpt>
			<trkpt lat="48.848606" lon="17.582132">
				<ele>452.000000</ele>
			</trkpt>
			<trkpt lat="48.848541" lon="17.582052">
				<ele>452.000000</ele>
			</trkpt>
			<trkpt lat="48.848370" lon="17.581782">
				<ele>450.000000</ele>
			</trkpt>
			<trkpt lat="48.848305" lon="17.581710">
				<ele>450.000000</ele>
			</trkpt>
			<trkpt lat="48.848246" lon="17.581656">
				<ele>450.000000</ele>
			</trkpt>
			<trkpt lat="48.848069" lon="17.581521">
				<ele>450.000000</ele>
			</trkpt>
			<trkpt lat="48.847980" lon="17.581459">
				<ele>451.000000</ele>
			</trkpt>
			<trkpt lat="48.847862" lon="17.581413">
				<ele>452.000000</ele>
			</trkpt>
			<trkpt lat="48.847838" lon="17.581333">
				<ele>452.000000</ele>
			</trkpt>
			<trkpt lat="48.847815" lon="17.581279">
				<ele>452.000000</ele>
			</trkpt>
			<trkpt lat="48.847784" lon="17.581234">
				<ele>453.000000</ele>
			</trkpt>
			<trkpt lat="48.847761" lon="17.581216">
				<ele>453.000000</ele>
			</trkpt>
			<trkpt lat="48.847737" lon="17.581144">
				<ele>453.000000</ele>
			</trkpt>
			<trkpt lat="48.847690" lon="17.581081">
				<ele>452.000000</ele>
			</trkpt>
			<trkpt lat="48.847613" lon="17.580974">
				<ele>452.000000</ele>
			</trkpt>
			<trkpt lat="48.847613" lon="17.580974">
				<ele>452.000000</ele>
			</trkpt>
			<trkpt lat="48.847507" lon="17.580838">
				<ele>453.000000</ele>
			</trkpt>
			<trkpt lat="48.847359" lon="17.580668">
				<ele>451.000000</ele>
			</trkpt>
			<trkpt lat="48.847093" lon="17.580444">
				<ele>449.000000</ele>
			</trkpt>
			<trkpt lat="48.846986" lon="17.580335">
				<ele>448.000000</ele>
			</trkpt>
			<trkpt lat="48.846892" lon="17.580201">
				<ele>447.000000</ele>
			</trkpt>
			<trkpt lat="48.846803" lon="17.580048">
				<ele>447.000000</ele>
			</trkpt>
			<trkpt lat="48.846703" lon="17.579842">
				<ele>446.000000</ele>
			</trkpt>
			<trkpt lat="48.846508" lon="17.579383">
				<ele>445.000000</ele>
			</trkpt>
			<trkpt lat="48.846366" lon="17.579132">
				<ele>444.000000</ele>
			</trkpt>
			<trkpt lat="48.846195" lon="17.578781">
				<ele>442.000000</ele>
			</trkpt>
			<trkpt lat="48.846023" lon="17.578360">
				<ele>442.000000</ele>
			</trkpt>
			<trkpt lat="48.845928" lon="17.578126">
				<ele>443.000000</ele>
			</trkpt>
			<trkpt lat="48.845804" lon="17.577884">
				<ele>442.000000</ele>
			</trkpt>
			<trkpt lat="48.845491" lon="17.577381">
				<ele>441.000000</ele>
			</trkpt>
			<trkpt lat="48.845403" lon="17.577209">
				<ele>439.000000</ele>
			</trkpt>
			<trkpt lat="48.845338" lon="17.577029">
				<ele>437.000000</ele>
			</trkpt>
			<trkpt lat="48.845278" lon="17.576868">
				<ele>437.000000</ele>
			</trkpt>
			<trkpt lat="48.845166" lon="17.576500">
				<ele>435.000000</ele>
			</trkpt>
			<trkpt lat="48.845089" lon="17.576266">
				<ele>434.000000</ele>
			</trkpt>
			<trkpt lat="48.845059" lon="17.576194">
				<ele>434.000000</ele>
			</trkpt>
			<trkpt lat="48.845006" lon="17.576131">
				<ele>434.000000</ele>
			</trkpt>
			<trkpt lat="48.844959" lon="17.576087">
				<ele>434.000000</ele>
			</trkpt>
			<trkpt lat="48.844906" lon="17.576050">
				<ele>434.000000</ele>
			</trkpt>
			<trkpt lat="48.844746" lon="17.576014">
				<ele>434.000000</ele>
			</trkpt>
			<trkpt lat="48.844658" lon="17.575987">
				<ele>433.000000</ele>
			</trkpt>
			<trkpt lat="48.844569" lon="17.575952">
				<ele>433.000000</ele>
			</trkpt>
			<trkpt lat="48.844498" lon="17.575897">
				<ele>433.000000</ele>
			</trkpt>
			<trkpt lat="48.844391" lon="17.575826">
				<ele>432.000000</ele>
			</trkpt>
			<trkpt lat="48.844285" lon="17.575754">
				<ele>432.000000</ele>
			</trkpt>
			<trkpt lat="48.844184" lon="17.575700">
				<ele>432.000000</ele>
			</trkpt>
			<trkpt lat="48.844078" lon="17.575700">
				<ele>432.000000</ele>
			</trkpt>
			<trkpt lat="48.843871" lon="17.575700">
				<ele>432.000000</ele>
			</trkpt>
			<trkpt lat="48.843753" lon="17.575683">
				<ele>432.000000</ele>
			</trkpt>
			<trkpt lat="48.843658" lon="17.575620">
				<ele>431.000000</ele>
			</trkpt>
			<trkpt lat="48.843558" lon="17.575521">
				<ele>430.000000</ele>
			</trkpt>
			<trkpt lat="48.843463" lon="17.575368">
				<ele>429.000000</ele>
			</trkpt>
			<trkpt lat="48.843369" lon="17.575215">
				<ele>428.000000</ele>
			</trkpt>
			<trkpt lat="48.843256" lon="17.575071">
				<ele>427.000000</ele>
			</trkpt>
			<trkpt lat="48.843044" lon="17.574882">
				<ele>424.000000</ele>
			</trkpt>
			<trkpt lat="48.842807" lon="17.574694">
				<ele>424.000000</ele>
			</trkpt>
			<trkpt lat="48.842565" lon="17.574532">
				<ele>422.000000</ele>
			</trkpt>
			<trkpt lat="48.842364" lon="17.574344">
				<ele>421.000000</ele>
			</trkpt>
			<trkpt lat="48.842269" lon="17.574245">
				<ele>420.000000</ele>
			</trkpt>
			<trkpt lat="48.842198" lon="17.574129">
				<ele>420.000000</ele>
			</trkpt>
			<trkpt lat="48.842145" lon="17.574002">
				<ele>420.000000</ele>
			</trkpt>
			<trkpt lat="48.842116" lon="17.573840">
				<ele>419.000000</ele>
			</trkpt>
			<trkpt lat="48.842080" lon="17.573607">
				<ele>418.000000</ele>
			</trkpt>
			<trkpt lat="48.842074" lon="17.573247">
				<ele>417.000000</ele>
			</trkpt>
			<trkpt lat="48.842074" lon="17.573113">
				<ele>417.000000</ele>
			</trkpt>
			<trkpt lat="48.842086" lon="17.573005">
				<ele>417.000000</ele>
			</trkpt>
			<trkpt lat="48.842116" lon="17.572915">
				<ele>416.000000</ele>
			</trkpt>
			<trkpt lat="48.842156" lon="17.572808">
				<ele>416.000000</ele>
			</trkpt>
			<trkpt lat="48.842370" lon="17.572377">
				<ele>414.000000</ele>
			</trkpt>
			<trkpt lat="48.842476" lon="17.572170">
				<ele>413.000000</ele>
			</trkpt>
			<trkpt lat="48.842606" lon="17.571928">
				<ele>412.000000</ele>
			</trkpt>
			<trkpt lat="48.842641" lon="17.571838">
				<ele>412.000000</ele>
			</trkpt>
			<trkpt lat="48.842777" lon="17.571559">
				<ele>412.000000</ele>
			</trkpt>
			<trkpt lat="48.842836" lon="17.571415">
				<ele>412.000000</ele>
			</trkpt>
			<trkpt lat="48.842836" lon="17.571415">
				<ele>412.000000</ele>
			</trkpt>
			<trkpt lat="48.842901" lon="17.571245">
				<ele>412.000000</ele>
			</trkpt>
			<trkpt lat="48.843014" lon="17.570939">
				<ele>411.000000</ele>
			</trkpt>
			<trkpt lat="48.843038" lon="17.570831">
				<ele>411.000000</ele>
			</trkpt>
			<trkpt lat="48.843055" lon="17.570697">
				<ele>410.000000</ele>
			</trkpt>
			<trkpt lat="48.843085" lon="17.570499">
				<ele>410.000000</ele>
			</trkpt>
			<trkpt lat="48.843091" lon="17.570320">
				<ele>409.000000</ele>
			</trkpt>
			<trkpt lat="48.843097" lon="17.570131">
				<ele>408.000000</ele>
			</trkpt>
			<trkpt lat="48.843091" lon="17.569924">
				<ele>408.000000</ele>
			</trkpt>
			<trkpt lat="48.843067" lon="17.569691">
				<ele>407.000000</ele>
			</trkpt>
			<trkpt lat="48.843055" lon="17.569538">
				<ele>407.000000</ele>
			</trkpt>
			<trkpt lat="48.843020" lon="17.569385">
				<ele>406.000000</ele>
			</trkpt>
			<trkpt lat="48.842973" lon="17.569251">
				<ele>406.000000</ele>
			</trkpt>
			<trkpt lat="48.842718" lon="17.568559">
				<ele>405.000000</ele>
			</trkpt>
			<trkpt lat="48.842641" lon="17.568316">
				<ele>405.000000</ele>
			</trkpt>
			<trkpt lat="48.842588" lon="17.568154">
				<ele>404.000000</ele>
			</trkpt>
			<trkpt lat="48.842559" lon="17.567957">
				<ele>404.000000</ele>
			</trkpt>
			<trkpt lat="48.842535" lon="17.567714">
				<ele>404.000000</ele>
			</trkpt>
			<trkpt lat="48.842529" lon="17.567381">
				<ele>403.000000</ele>
			</trkpt>
			<trkpt lat="48.842523" lon="17.567167">
				<ele>403.000000</ele>
			</trkpt>
			<trkpt lat="48.842529" lon="17.566932">
				<ele>403.000000</ele>
			</trkpt>
			<trkpt lat="48.842553" lon="17.566681">
				<ele>402.000000</ele>
			</trkpt>
			<trkpt lat="48.842576" lon="17.566421">
				<ele>402.000000</ele>
			</trkpt>
			<trkpt lat="48.842624" lon="17.566232">
				<ele>401.000000</ele>
			</trkpt>
			<trkpt lat="48.842683" lon="17.566070">
				<ele>401.000000</ele>
			</trkpt>
			<trkpt lat="48.842777" lon="17.565882">
				<ele>400.000000</ele>
			</trkpt>
			<trkpt lat="48.843168" lon="17.565199">
				<ele>396.000000</ele>
			</trkpt>
			<trkpt lat="48.843233" lon="17.565064">
				<ele>396.000000</ele>
			</trkpt>
			<trkpt lat="48.843286" lon="17.564930">
				<ele>396.000000</ele>
			</trkpt>
			<trkpt lat="48.843298" lon="17.564804">
				<ele>396.000000</ele>
			</trkpt>
			<trkpt lat="48.843292" lon="17.564660">
				<ele>396.000000</ele>
			</trkpt>
			<trkpt lat="48.843221" lon="17.564041">
				<ele>396.000000</ele>
			</trkpt>
			<trkpt lat="48.843185" lon="17.563626">
				<ele>396.000000</ele>
			</trkpt>
			<trkpt lat="48.843115" lon="17.562783">
				<ele>394.000000</ele>
			</trkpt>
			<trkpt lat="48.843115" lon="17.562523">
				<ele>393.000000</ele>
			</trkpt>
			<trkpt lat="48.843126" lon="17.562234">
				<ele>392.000000</ele>
			</trkpt>
			<trkpt lat="48.843162" lon="17.561992">
				<ele>392.000000</ele>
			</trkpt>
			<trkpt lat="48.843191" lon="17.561749">
				<ele>391.000000</ele>
			</trkpt>
			<trkpt lat="48.843245" lon="17.561515">
				<ele>390.000000</ele>
			</trkpt>
			<trkpt lat="48.843304" lon="17.561309">
				<ele>389.000000</ele>
			</trkpt>
			<trkpt lat="48.843363" lon="17.561093">
				<ele>389.000000</ele>
			</trkpt>
			<trkpt lat="48.843457" lon="17.560860">
				<ele>388.000000</ele>
			</trkpt>
			<trkpt lat="48.843552" lon="17.560636">
				<ele>388.000000</ele>
			</trkpt>
			<trkpt lat="48.843652" lon="17.560410">
				<ele>387.000000</ele>
			</trkpt>
			<trkpt lat="48.843925" lon="17.559890">
				<ele>386.000000</ele>
			</trkpt>
			<trkpt lat="48.844001" lon="17.559720">
				<ele>386.000000</ele>
			</trkpt>
			<trkpt lat="48.844078" lon="17.559521">
				<ele>385.000000</ele>
			</trkpt>
			<trkpt lat="48.844184" lon="17.559198">
				<ele>385.000000</ele>
			</trkpt>
			<trkpt lat="48.844309" lon="17.558865">
				<ele>385.000000</ele>
			</trkpt>
			<trkpt lat="48.844415" lon="17.558596">
				<ele>384.000000</ele>
			</trkpt>
			<trkpt lat="48.844539" lon="17.558318">
				<ele>384.000000</ele>
			</trkpt>
			<trkpt lat="48.844811" lon="17.557752">
				<ele>382.000000</ele>
			</trkpt>
			<trkpt lat="48.845273" lon="17.556881">
				<ele>381.000000</ele>
			</trkpt>
			<trkpt lat="48.845373" lon="17.556691">
				<ele>380.000000</ele>
			</trkpt>
			<trkpt lat="48.845615" lon="17.556288">
				<ele>379.000000</ele>
			</trkpt>
			<trkpt lat="48.845722" lon="17.556099">
				<ele>379.000000</ele>
			</trkpt>
			<trkpt lat="48.845769" lon="17.555965">
				<ele>379.000000</ele>
			</trkpt>
			<trkpt lat="48.845816" lon="17.555829">
				<ele>378.000000</ele>
			</trkpt>
			<trkpt lat="48.845857" lon="17.555668">
				<ele>378.000000</ele>
			</trkpt>
			<trkpt lat="48.845887" lon="17.555525">
				<ele>377.000000</ele>
			</trkpt>
			<trkpt lat="48.845934" lon="17.555255">
				<ele>377.000000</ele>
			</trkpt>
			<trkpt lat="48.845987" lon="17.554994">
				<ele>377.000000</ele>
			</trkpt>
			<trkpt lat="48.846035" lon="17.554770">
				<ele>377.000000</ele>
			</trkpt>
			<trkpt lat="48.846094" lon="17.554581">
				<ele>376.000000</ele>
			</trkpt>
			<trkpt lat="48.846165" lon="17.554365">
				<ele>376.000000</ele>
			</trkpt>
			<trkpt lat="48.846277" lon="17.554068">
				<ele>375.000000</ele>
			</trkpt>
			<trkpt lat="48.846431" lon="17.553737">
				<ele>374.000000</ele>
			</trkpt>
			<trkpt lat="48.846579" lon="17.553378">
				<ele>373.000000</ele>
			</trkpt>
			<trkpt lat="48.846715" lon="17.553018">
				<ele>372.000000</ele>
			</trkpt>
			<trkpt lat="48.846821" lon="17.552667">
				<ele>372.000000</ele>
			</trkpt>
			<trkpt lat="48.846981" lon="17.552101">
				<ele>371.000000</ele>
			</trkpt>
			<trkpt lat="48.847076" lon="17.551796">
				<ele>371.000000</ele>
			</trkpt>
			<trkpt lat="48.847182" lon="17.551481">
				<ele>370.000000</ele>
			</trkpt>
			<trkpt lat="48.847294" lon="17.551185">
				<ele>370.000000</ele>
			</trkpt>
			<trkpt lat="48.847465" lon="17.550817">
				<ele>369.000000</ele>
			</trkpt>
			<trkpt lat="48.847560" lon="17.550619">
				<ele>369.000000</ele>
			</trkpt>
			<trkpt lat="48.847643" lon="17.550458">
				<ele>369.000000</ele>
			</trkpt>
			<trkpt lat="48.847737" lon="17.550313">
				<ele>368.000000</ele>
			</trkpt>
			<trkpt lat="48.847820" lon="17.550196">
				<ele>368.000000</ele>
			</trkpt>
			<trkpt lat="48.847914" lon="17.550089">
				<ele>367.000000</ele>
			</trkpt>
			<trkpt lat="48.847968" lon="17.550026">
				<ele>367.000000</ele>
			</trkpt>
			<trkpt lat="48.848181" lon="17.549856">
				<ele>366.000000</ele>
			</trkpt>
			<trkpt lat="48.848334" lon="17.549739">
				<ele>365.000000</ele>
			</trkpt>
			<trkpt lat="48.848447" lon="17.549640">
				<ele>365.000000</ele>
			</trkpt>
			<trkpt lat="48.848554" lon="17.549523">
				<ele>366.000000</ele>
			</trkpt>
			<trkpt lat="48.848648" lon="17.549407">
				<ele>365.000000</ele>
			</trkpt>
			<trkpt lat="48.848731" lon="17.549290">
				<ele>364.000000</ele>
			</trkpt>
			<trkpt lat="48.848825" lon="17.549110">
				<ele>364.000000</ele>
			</trkpt>
			<trkpt lat="48.848908" lon="17.548940">
				<ele>364.000000</ele>
			</trkpt>
			<trkpt lat="48.849002" lon="17.548724">
				<ele>363.000000</ele>
			</trkpt>
			<trkpt lat="48.849174" lon="17.548355">
				<ele>361.000000</ele>
			</trkpt>
			<trkpt lat="48.849357" lon="17.547996">
				<ele>360.000000</ele>
			</trkpt>
			<trkpt lat="48.849369" lon="17.547969">
				<ele>360.000000</ele>
			</trkpt>
			<trkpt lat="48.849369" lon="17.547969">
				<ele>360.000000</ele>
			</trkpt>
			<trkpt lat="48.849522" lon="17.547691">
				<ele>359.000000</ele>
			</trkpt>
			<trkpt lat="48.849700" lon="17.547403">
				<ele>358.000000</ele>
			</trkpt>
			<trkpt lat="48.850060" lon="17.546873">
				<ele>356.000000</ele>
			</trkpt>
			<trkpt lat="48.850575" lon="17.546065">
				<ele>355.000000</ele>
			</trkpt>
			<trkpt lat="48.850876" lon="17.545562">
				<ele>354.000000</ele>
			</trkpt>
			<trkpt lat="48.851408" lon="17.544636">
				<ele>352.000000</ele>
			</trkpt>
			<trkpt lat="48.851621" lon="17.544250">
				<ele>351.000000</ele>
			</trkpt>
			<trkpt lat="48.851792" lon="17.543909">
				<ele>351.000000</ele>
			</trkpt>
			<trkpt lat="48.851964" lon="17.543531">
				<ele>350.000000</ele>
			</trkpt>
			<trkpt lat="48.852106" lon="17.543154">
				<ele>349.000000</ele>
			</trkpt>
			<trkpt lat="48.852242" lon="17.542732">
				<ele>349.000000</ele>
			</trkpt>
			<trkpt lat="48.852425" lon="17.542085">
				<ele>348.000000</ele>
			</trkpt>
			<trkpt lat="48.852449" lon="17.542013">
				<ele>348.000000</ele>
			</trkpt>
			<trkpt lat="48.852496" lon="17.541915">
				<ele>348.000000</ele>
			</trkpt>
			<trkpt lat="48.852679" lon="17.541564">
				<ele>347.000000</ele>
			</trkpt>
			<trkpt lat="48.853707" lon="17.539803">
				<ele>345.000000</ele>
			</trkpt>
			<trkpt lat="48.853826" lon="17.539552">
				<ele>345.000000</ele>
			</trkpt>
			<trkpt lat="48.853927" lon="17.539256">
				<ele>345.000000</ele>
			</trkpt>
			<trkpt lat="48.853986" lon="17.539147">
				<ele>345.000000</ele>
			</trkpt>
			<trkpt lat="48.854033" lon="17.539040">
				<ele>345.000000</ele>
			</trkpt>
			<trkpt lat="48.854086" lon="17.538969">
				<ele>344.000000</ele>
			</trkpt>
			<trkpt lat="48.854151" lon="17.538887">
				<ele>344.000000</ele>
			</trkpt>
			<trkpt lat="48.854246" lon="17.538797">
				<ele>344.000000</ele>
			</trkpt>
			<trkpt lat="48.854358" lon="17.538707">
				<ele>343.000000</ele>
			</trkpt>
			<trkpt lat="48.854754" lon="17.538438">
				<ele>340.000000</ele>
			</trkpt>
			<trkpt lat="48.855061" lon="17.538204">
				<ele>338.000000</ele>
			</trkpt>
			<trkpt lat="48.855333" lon="17.537980">
				<ele>337.000000</ele>
			</trkpt>
			<trkpt lat="48.855611" lon="17.537719">
				<ele>336.000000</ele>
			</trkpt>
			<trkpt lat="48.855942" lon="17.537396">
				<ele>335.000000</ele>
			</trkpt>
			<trkpt lat="48.856143" lon="17.537172">
				<ele>334.000000</ele>
			</trkpt>
			<trkpt lat="48.856285" lon="17.537001">
				<ele>334.000000</ele>
			</trkpt>
			<trkpt lat="48.856385" lon="17.536857">
				<ele>334.000000</ele>
			</trkpt>
			<trkpt lat="48.856462" lon="17.536713">
				<ele>334.000000</ele>
			</trkpt>
			<trkpt lat="48.856533" lon="17.536543">
				<ele>334.000000</ele>
			</trkpt>
			<trkpt lat="48.856699" lon="17.536111">
				<ele>333.000000</ele>
			</trkpt>
			<trkpt lat="48.856805" lon="17.535860">
				<ele>333.000000</ele>
			</trkpt>
			<trkpt lat="48.856858" lon="17.535753">
				<ele>333.000000</ele>
			</trkpt>
			<trkpt lat="48.856893" lon="17.535680">
				<ele>333.000000</ele>
			</trkpt>
			<trkpt lat="48.856988" lon="17.535581">
				<ele>333.000000</ele>
			</trkpt>
			<trkpt lat="48.857224" lon="17.535330">
				<ele>332.000000</ele>
			</trkpt>
			<trkpt lat="48.857680" lon="17.534809">
				<ele>331.000000</ele>
			</trkpt>
			<trkpt lat="48.857863" lon="17.534612">
				<ele>330.000000</ele>
			</trkpt>
			<trkpt lat="48.858046" lon="17.534485">
				<ele>329.000000</ele>
			</trkpt>
			<trkpt lat="48.858241" lon="17.534359">
				<ele>329.000000</ele>
			</trkpt>
			<trkpt lat="48.858413" lon="17.534216">
				<ele>328.000000</ele>
			</trkpt>
			<trkpt lat="48.858578" lon="17.534082">
				<ele>328.000000</ele>
			</trkpt>
			<trkpt lat="48.858726" lon="17.533973">
				<ele>328.000000</ele>
			</trkpt>
			<trkpt lat="48.858885" lon="17.533893">
				<ele>328.000000</ele>
			</trkpt>
			<trkpt lat="48.859081" lon="17.533820">
				<ele>327.000000</ele>
			</trkpt>
			<trkpt lat="48.859151" lon="17.533793">
				<ele>327.000000</ele>
			</trkpt>
			<trkpt lat="48.859205" lon="17.533757">
				<ele>327.000000</ele>
			</trkpt>
			<trkpt lat="48.859252" lon="17.533713">
				<ele>327.000000</ele>
			</trkpt>
			<trkpt lat="48.859317" lon="17.533641">
				<ele>327.000000</ele>
			</trkpt>
			<trkpt lat="48.859447" lon="17.533470">
				<ele>326.000000</ele>
			</trkpt>
			<trkpt lat="48.859512" lon="17.533417">
				<ele>326.000000</ele>
			</trkpt>
			<trkpt lat="48.859577" lon="17.533363">
				<ele>326.000000</ele>
			</trkpt>
			<trkpt lat="48.860268" lon="17.532895">
				<ele>324.000000</ele>
			</trkpt>
			<trkpt lat="48.860422" lon="17.532824">
				<ele>324.000000</ele>
			</trkpt>
			<trkpt lat="48.860552" lon="17.532788">
				<ele>323.000000</ele>
			</trkpt>
			<trkpt lat="48.860611" lon="17.532778">
				<ele>323.000000</ele>
			</trkpt>
			<trkpt lat="48.860682" lon="17.532797">
				<ele>323.000000</ele>
			</trkpt>
			<trkpt lat="48.860818" lon="17.532860">
				<ele>323.000000</ele>
			</trkpt>
			<trkpt lat="48.860883" lon="17.532868">
				<ele>322.000000</ele>
			</trkpt>
			<trkpt lat="48.860954" lon="17.532887">
				<ele>322.000000</ele>
			</trkpt>
			<trkpt lat="48.861232" lon="17.532914">
				<ele>320.000000</ele>
			</trkpt>
			<trkpt lat="48.861320" lon="17.532923">
				<ele>320.000000</ele>
			</trkpt>
			<trkpt lat="48.861409" lon="17.532914">
				<ele>319.000000</ele>
			</trkpt>
			<trkpt lat="48.861503" lon="17.532887">
				<ele>319.000000</ele>
			</trkpt>
			<trkpt lat="48.861598" lon="17.532851">
				<ele>319.000000</ele>
			</trkpt>
			<trkpt lat="48.861793" lon="17.532770">
				<ele>319.000000</ele>
			</trkpt>
			<trkpt lat="48.861917" lon="17.532715">
				<ele>319.000000</ele>
			</trkpt>
			<trkpt lat="48.862236" lon="17.532617">
				<ele>318.000000</ele>
			</trkpt>
			<trkpt lat="48.862408" lon="17.532554">
				<ele>318.000000</ele>
			</trkpt>
			<trkpt lat="48.862579" lon="17.532491">
				<ele>318.000000</ele>
			</trkpt>
			<trkpt lat="48.862815" lon="17.532365">
				<ele>317.000000</ele>
			</trkpt>
			<trkpt lat="48.863011" lon="17.532258">
				<ele>317.000000</ele>
			</trkpt>
			<trkpt lat="48.863176" lon="17.532114">
				<ele>317.000000</ele>
			</trkpt>
			<trkpt lat="48.863424" lon="17.531872">
				<ele>316.000000</ele>
			</trkpt>
			<trkpt lat="48.863719" lon="17.531315">
				<ele>315.000000</ele>
			</trkpt>
			<trkpt lat="48.863849" lon="17.531099">
				<ele>314.000000</ele>
			</trkpt>
			<trkpt lat="48.863944" lon="17.530901">
				<ele>314.000000</ele>
			</trkpt>
			<trkpt lat="48.864192" lon="17.530425">
				<ele>313.000000</ele>
			</trkpt>
			<trkpt lat="48.864340" lon="17.530128">
				<ele>313.000000</ele>
			</trkpt>
			<trkpt lat="48.864511" lon="17.529851">
				<ele>313.000000</ele>
			</trkpt>
			<trkpt lat="48.864641" lon="17.529679">
				<ele>312.000000</ele>
			</trkpt>
			<trkpt lat="48.864778" lon="17.529527">
				<ele>312.000000</ele>
			</trkpt>
			<trkpt lat="48.865209" lon="17.529078">
				<ele>311.000000</ele>
			</trkpt>
			<trkpt lat="48.865415" lon="17.528845">
				<ele>311.000000</ele>
			</trkpt>
			<trkpt lat="48.865581" lon="17.528637">
				<ele>310.000000</ele>
			</trkpt>
			<trkpt lat="48.865664" lon="17.528520">
				<ele>310.000000</ele>
			</trkpt>
			<trkpt lat="48.865717" lon="17.528422">
				<ele>310.000000</ele>
			</trkpt>
			<trkpt lat="48.865776" lon="17.528323">
				<ele>310.000000</ele>
			</trkpt>
			<trkpt lat="48.865824" lon="17.528189">
				<ele>310.000000</ele>
			</trkpt>
			<trkpt lat="48.866054" lon="17.527560">
				<ele>310.000000</ele>
			</trkpt>
			<trkpt lat="48.866314" lon="17.526733">
				<ele>308.000000</ele>
			</trkpt>
			<trkpt lat="48.866402" lon="17.526526">
				<ele>308.000000</ele>
			</trkpt>
			<trkpt lat="48.866503" lon="17.526311">
				<ele>308.000000</ele>
			</trkpt>
			<trkpt lat="48.866633" lon="17.526069">
				<ele>307.000000</ele>
			</trkpt>
			<trkpt lat="48.866804" lon="17.525807">
				<ele>307.000000</ele>
			</trkpt>
			<trkpt lat="48.867774" lon="17.524317">
				<ele>305.000000</ele>
			</trkpt>
			<trkpt lat="48.868429" lon="17.523337">
				<ele>303.000000</ele>
			</trkpt>
			<trkpt lat="48.868671" lon="17.522977">
				<ele>303.000000</ele>
			</trkpt>
			<trkpt lat="48.868766" lon="17.522853">
				<ele>302.000000</ele>
			</trkpt>
			<trkpt lat="48.868961" lon="17.522591">
				<ele>302.000000</ele>
			</trkpt>
			<trkpt lat="48.869144" lon="17.522340">
				<ele>302.000000</ele>
			</trkpt>
			<trkpt lat="48.869310" lon="17.522124">
				<ele>302.000000</ele>
			</trkpt>
			<trkpt lat="48.869451" lon="17.521981">
				<ele>301.000000</ele>
			</trkpt>
			<trkpt lat="48.869587" lon="17.521855">
				<ele>301.000000</ele>
			</trkpt>
			<trkpt lat="48.869800" lon="17.521685">
				<ele>301.000000</ele>
			</trkpt>
			<trkpt lat="48.869907" lon="17.521631">
				<ele>301.000000</ele>
			</trkpt>
			<trkpt lat="48.870025" lon="17.521604">
				<ele>301.000000</ele>
			</trkpt>
			<trkpt lat="48.870167" lon="17.521612">
				<ele>301.000000</ele>
			</trkpt>
			<trkpt lat="48.870350" lon="17.521648">
				<ele>300.000000</ele>
			</trkpt>
			<trkpt lat="48.870592" lon="17.521702">
				<ele>300.000000</ele>
			</trkpt>
			<trkpt lat="48.870680" lon="17.521702">
				<ele>300.000000</ele>
			</trkpt>
			<trkpt lat="48.870781" lon="17.521694">
				<ele>300.000000</ele>
			</trkpt>
			<trkpt lat="48.870917" lon="17.521667">
				<ele>299.000000</ele>
			</trkpt>
			<trkpt lat="48.871017" lon="17.521631">
				<ele>299.000000</ele>
			</trkpt>
			<trkpt lat="48.871112" lon="17.521577">
				<ele>299.000000</ele>
			</trkpt>
			<trkpt lat="48.871236" lon="17.521487">
				<ele>298.000000</ele>
			</trkpt>
			<trkpt lat="48.872146" lon="17.520786">
				<ele>297.000000</ele>
			</trkpt>
			<trkpt lat="48.872624" lon="17.520409">
				<ele>296.000000</ele>
			</trkpt>
			<trkpt lat="48.873245" lon="17.519969">
				<ele>296.000000</ele>
			</trkpt>
			<trkpt lat="48.873328" lon="17.519960">
				<ele>296.000000</ele>
			</trkpt>
			<trkpt lat="48.873440" lon="17.519851">
				<ele>295.000000</ele>
			</trkpt>
			<trkpt lat="48.873765" lon="17.519610">
				<ele>295.000000</ele>
			</trkpt>
			<trkpt lat="48.873759" lon="17.519511">
				<ele>295.000000</ele>
			</trkpt>
			<trkpt lat="48.873912" lon="17.519484">
				<ele>295.000000</ele>
			</trkpt>
			<trkpt lat="48.874049" lon="17.519430">
				<ele>295.000000</ele>
			</trkpt>
			<trkpt lat="48.874202" lon="17.519348">
				<ele>295.000000</ele>
			</trkpt>
			<trkpt lat="48.874438" lon="17.519205">
				<ele>294.000000</ele>
			</trkpt>
			<trkpt lat="48.874769" lon="17.518989">
				<ele>294.000000</ele>
			</trkpt>
			<trkpt lat="48.874959" lon="17.518891">
				<ele>294.000000</ele>
			</trkpt>
			<trkpt lat="48.875136" lon="17.518809">
				<ele>294.000000</ele>
			</trkpt>
			<trkpt lat="48.875390" lon="17.518685">
				<ele>294.000000</ele>
			</trkpt>
			<trkpt lat="48.875709" lon="17.518532">
				<ele>293.000000</ele>
			</trkpt>
			<trkpt lat="48.875868" lon="17.518486">
				<ele>293.000000</ele>
			</trkpt>
			<trkpt lat="48.876022" lon="17.518432">
				<ele>293.000000</ele>
			</trkpt>
			<trkpt lat="48.876205" lon="17.518379">
				<ele>293.000000</ele>
			</trkpt>
			<trkpt lat="48.876441" lon="17.518352">
				<ele>293.000000</ele>
			</trkpt>
			<trkpt lat="48.877032" lon="17.518289">
				<ele>293.000000</ele>
			</trkpt>
			<trkpt lat="48.877250" lon="17.518289">
				<ele>293.000000</ele>
			</trkpt>
			<trkpt lat="48.877463" lon="17.518325">
				<ele>292.000000</ele>
			</trkpt>
			<trkpt lat="48.877682" lon="17.518388">
				<ele>292.000000</ele>
			</trkpt>
			<trkpt lat="48.877824" lon="17.518406">
				<ele>291.000000</ele>
			</trkpt>
			<trkpt lat="48.877771" lon="17.518010">
				<ele>292.000000</ele>
			</trkpt>
			<trkpt lat="48.877771" lon="17.518002">
				<ele>292.000000</ele>
			</trkpt>
			<trkpt lat="48.877771" lon="17.518002">
				<ele>292.000000</ele>
			</trkpt>
			<trkpt lat="48.877552" lon="17.516448">
				<ele>292.000000</ele>
			</trkpt>
			<trkpt lat="48.877617" lon="17.516438">
				<ele>292.000000</ele>
			</trkpt>
			<trkpt lat="48.877782" lon="17.516421">
				<ele>292.000000</ele>
			</trkpt>
			<trkpt lat="48.877782" lon="17.516421">
				<ele>292.000000</ele>
			</trkpt>
			<trkpt lat="48.878362" lon="17.516367">
				<ele>291.000000</ele>
			</trkpt>
			<trkpt lat="48.878586" lon="17.516331">
				<ele>291.000000</ele>
			</trkpt>
			<trkpt lat="48.878816" lon="17.516268">
				<ele>291.000000</ele>
			</trkpt>
			<trkpt lat="48.879543" lon="17.516025">
				<ele>290.000000</ele>
			</trkpt>
			<trkpt lat="48.879921" lon="17.515908">
				<ele>290.000000</ele>
			</trkpt>
			<trkpt lat="48.880210" lon="17.515845">
				<ele>290.000000</ele>
			</trkpt>
			<trkpt lat="48.880500" lon="17.515792">
				<ele>289.000000</ele>
			</trkpt>
			<trkpt lat="48.880500" lon="17.515566">
				<ele>289.000000</ele>
			</trkpt>
			<trkpt lat="48.880500" lon="17.515566">
				<ele>289.000000</ele>
			</trkpt>
			<trkpt lat="48.880500" lon="17.515010">
				<ele>289.000000</ele>
			</trkpt>
			<trkpt lat="48.880399" lon="17.515019">
				<ele>290.000000</ele>
			</trkpt>
			<trkpt lat="48.880293" lon="17.515010">
				<ele>290.000000</ele>
			</trkpt>
		</trkseg>
	</trk>
</gpx>

