<?xml version="1.0" encoding="utf-8"?>
<gpx xmlns="http://www.topografix.com/GPX/1/1" version="1.1" creator="https://mapy.cz/">
	<trk>
		<name>27_Lanžhot-Břeclav</name>
		<trkseg>
			<trkpt lat="48.723514" lon="16.972041">
				<ele>156.000000</ele>
			</trkpt>
			<trkpt lat="48.723472" lon="16.971888">
				<ele>156.000000</ele>
			</trkpt>
			<trkpt lat="48.723940" lon="16.971171">
				<ele>159.000000</ele>
			</trkpt>
			<trkpt lat="48.724000" lon="16.971026">
				<ele>159.000000</ele>
			</trkpt>
			<trkpt lat="48.724047" lon="16.970892">
				<ele>160.000000</ele>
			</trkpt>
			<trkpt lat="48.724065" lon="16.970739">
				<ele>162.000000</ele>
			</trkpt>
			<trkpt lat="48.724088" lon="16.970523">
				<ele>163.000000</ele>
			</trkpt>
			<trkpt lat="48.724100" lon="16.970307">
				<ele>163.000000</ele>
			</trkpt>
			<trkpt lat="48.724094" lon="16.970100">
				<ele>164.000000</ele>
			</trkpt>
			<trkpt lat="48.724082" lon="16.969850">
				<ele>165.000000</ele>
			</trkpt>
			<trkpt lat="48.724041" lon="16.969571">
				<ele>166.000000</ele>
			</trkpt>
			<trkpt lat="48.724017" lon="16.969445">
				<ele>166.000000</ele>
			</trkpt>
			<trkpt lat="48.723982" lon="16.969328">
				<ele>167.000000</ele>
			</trkpt>
			<trkpt lat="48.723863" lon="16.969077">
				<ele>167.000000</ele>
			</trkpt>
			<trkpt lat="48.723703" lon="16.968781">
				<ele>168.000000</ele>
			</trkpt>
			<trkpt lat="48.723703" lon="16.968781">
				<ele>168.000000</ele>
			</trkpt>
			<trkpt lat="48.723703" lon="16.968781">
				<ele>168.000000</ele>
			</trkpt>
			<trkpt lat="48.723591" lon="16.968574">
				<ele>168.000000</ele>
			</trkpt>
			<trkpt lat="48.723496" lon="16.968331">
				<ele>168.000000</ele>
			</trkpt>
			<trkpt lat="48.723342" lon="16.967846">
				<ele>168.000000</ele>
			</trkpt>
			<trkpt lat="48.723277" lon="16.967639">
				<ele>167.000000</ele>
			</trkpt>
			<trkpt lat="48.723211" lon="16.967496">
				<ele>167.000000</ele>
			</trkpt>
			<trkpt lat="48.723069" lon="16.967244">
				<ele>167.000000</ele>
			</trkpt>
			<trkpt lat="48.723069" lon="16.967244">
				<ele>167.000000</ele>
			</trkpt>
			<trkpt lat="48.722619" lon="16.966427">
				<ele>165.000000</ele>
			</trkpt>
			<trkpt lat="48.722162" lon="16.965789">
				<ele>164.000000</ele>
			</trkpt>
			<trkpt lat="48.721973" lon="16.965511">
				<ele>163.000000</ele>
			</trkpt>
			<trkpt lat="48.721849" lon="16.965339">
				<ele>162.000000</ele>
			</trkpt>
			<trkpt lat="48.721688" lon="16.965106">
				<ele>162.000000</ele>
			</trkpt>
			<trkpt lat="48.721534" lon="16.964855">
				<ele>160.000000</ele>
			</trkpt>
			<trkpt lat="48.721463" lon="16.964711">
				<ele>160.000000</ele>
			</trkpt>
			<trkpt lat="48.721410" lon="16.964586">
				<ele>160.000000</ele>
			</trkpt>
			<trkpt lat="48.721356" lon="16.964450">
				<ele>159.000000</ele>
			</trkpt>
			<trkpt lat="48.721327" lon="16.964271">
				<ele>159.000000</ele>
			</trkpt>
			<trkpt lat="48.721267" lon="16.964010">
				<ele>158.000000</ele>
			</trkpt>
			<trkpt lat="48.721161" lon="16.963399">
				<ele>157.000000</ele>
			</trkpt>
			<trkpt lat="48.721120" lon="16.963229">
				<ele>156.000000</ele>
			</trkpt>
			<trkpt lat="48.721025" lon="16.962968">
				<ele>156.000000</ele>
			</trkpt>
			<trkpt lat="48.721060" lon="16.962825">
				<ele>156.000000</ele>
			</trkpt>
			<trkpt lat="48.721060" lon="16.962825">
				<ele>156.000000</ele>
			</trkpt>
			<trkpt lat="48.721238" lon="16.962150">
				<ele>156.000000</ele>
			</trkpt>
			<trkpt lat="48.721273" lon="16.961944">
				<ele>156.000000</ele>
			</trkpt>
			<trkpt lat="48.721250" lon="16.961791">
				<ele>156.000000</ele>
			</trkpt>
			<trkpt lat="48.721191" lon="16.961550">
				<ele>156.000000</ele>
			</trkpt>
			<trkpt lat="48.721120" lon="16.961217">
				<ele>156.000000</ele>
			</trkpt>
			<trkpt lat="48.721066" lon="16.961037">
				<ele>155.000000</ele>
			</trkpt>
			<trkpt lat="48.721007" lon="16.960858">
				<ele>155.000000</ele>
			</trkpt>
			<trkpt lat="48.720930" lon="16.960695">
				<ele>155.000000</ele>
			</trkpt>
			<trkpt lat="48.720711" lon="16.960345">
				<ele>155.000000</ele>
			</trkpt>
			<trkpt lat="48.720776" lon="16.960229">
				<ele>155.000000</ele>
			</trkpt>
			<trkpt lat="48.720467" lon="16.959833">
				<ele>155.000000</ele>
			</trkpt>
			<trkpt lat="48.720195" lon="16.959465">
				<ele>155.000000</ele>
			</trkpt>
			<trkpt lat="48.719893" lon="16.959160">
				<ele>155.000000</ele>
			</trkpt>
			<trkpt lat="48.719822" lon="16.959097">
				<ele>154.000000</ele>
			</trkpt>
			<trkpt lat="48.719721" lon="16.958989">
				<ele>154.000000</ele>
			</trkpt>
			<trkpt lat="48.719721" lon="16.958989">
				<ele>154.000000</ele>
			</trkpt>
			<trkpt lat="48.719549" lon="16.958810">
				<ele>154.000000</ele>
			</trkpt>
			<trkpt lat="48.719016" lon="16.958271">
				<ele>154.000000</ele>
			</trkpt>
			<trkpt lat="48.718755" lon="16.957974">
				<ele>154.000000</ele>
			</trkpt>
			<trkpt lat="48.718684" lon="16.957875">
				<ele>154.000000</ele>
			</trkpt>
			<trkpt lat="48.718636" lon="16.957749">
				<ele>154.000000</ele>
			</trkpt>
			<trkpt lat="48.718613" lon="16.957651">
				<ele>154.000000</ele>
			</trkpt>
			<trkpt lat="48.718607" lon="16.957569">
				<ele>154.000000</ele>
			</trkpt>
			<trkpt lat="48.718607" lon="16.957489">
				<ele>154.000000</ele>
			</trkpt>
			<trkpt lat="48.718630" lon="16.957345">
				<ele>154.000000</ele>
			</trkpt>
			<trkpt lat="48.718666" lon="16.957112">
				<ele>154.000000</ele>
			</trkpt>
			<trkpt lat="48.718767" lon="16.956707">
				<ele>154.000000</ele>
			</trkpt>
			<trkpt lat="48.718802" lon="16.956447">
				<ele>154.000000</ele>
			</trkpt>
			<trkpt lat="48.718808" lon="16.956276">
				<ele>154.000000</ele>
			</trkpt>
			<trkpt lat="48.718784" lon="16.955997">
				<ele>154.000000</ele>
			</trkpt>
			<trkpt lat="48.718790" lon="16.955854">
				<ele>154.000000</ele>
			</trkpt>
			<trkpt lat="48.718790" lon="16.955701">
				<ele>154.000000</ele>
			</trkpt>
			<trkpt lat="48.718814" lon="16.955351">
				<ele>154.000000</ele>
			</trkpt>
			<trkpt lat="48.718897" lon="16.955315">
				<ele>154.000000</ele>
			</trkpt>
			<trkpt lat="48.718962" lon="16.955288">
				<ele>154.000000</ele>
			</trkpt>
			<trkpt lat="48.719033" lon="16.955279">
				<ele>154.000000</ele>
			</trkpt>
			<trkpt lat="48.719105" lon="16.955297">
				<ele>154.000000</ele>
			</trkpt>
			<trkpt lat="48.719099" lon="16.955108">
				<ele>154.000000</ele>
			</trkpt>
			<trkpt lat="48.719099" lon="16.955108">
				<ele>154.000000</ele>
			</trkpt>
			<trkpt lat="48.719093" lon="16.954856">
				<ele>154.000000</ele>
			</trkpt>
			<trkpt lat="48.719105" lon="16.954739">
				<ele>154.000000</ele>
			</trkpt>
			<trkpt lat="48.719134" lon="16.954605">
				<ele>154.000000</ele>
			</trkpt>
			<trkpt lat="48.719306" lon="16.953959">
				<ele>154.000000</ele>
			</trkpt>
			<trkpt lat="48.719685" lon="16.952665">
				<ele>154.000000</ele>
			</trkpt>
			<trkpt lat="48.720041" lon="16.951389">
				<ele>154.000000</ele>
			</trkpt>
			<trkpt lat="48.720088" lon="16.951210">
				<ele>155.000000</ele>
			</trkpt>
			<trkpt lat="48.720183" lon="16.950860">
				<ele>155.000000</ele>
			</trkpt>
			<trkpt lat="48.720379" lon="16.950204">
				<ele>154.000000</ele>
			</trkpt>
			<trkpt lat="48.720461" lon="16.949881">
				<ele>154.000000</ele>
			</trkpt>
			<trkpt lat="48.720616" lon="16.949260">
				<ele>154.000000</ele>
			</trkpt>
			<trkpt lat="48.720663" lon="16.949099">
				<ele>154.000000</ele>
			</trkpt>
			<trkpt lat="48.720722" lon="16.948955">
				<ele>154.000000</ele>
			</trkpt>
			<trkpt lat="48.720758" lon="16.948873">
				<ele>154.000000</ele>
			</trkpt>
			<trkpt lat="48.720793" lon="16.948829">
				<ele>154.000000</ele>
			</trkpt>
			<trkpt lat="48.720853" lon="16.948810">
				<ele>154.000000</ele>
			</trkpt>
			<trkpt lat="48.720924" lon="16.948793">
				<ele>155.000000</ele>
			</trkpt>
			<trkpt lat="48.721048" lon="16.948829">
				<ele>154.000000</ele>
			</trkpt>
			<trkpt lat="48.721350" lon="16.948963">
				<ele>154.000000</ele>
			</trkpt>
			<trkpt lat="48.721422" lon="16.948982">
				<ele>154.000000</ele>
			</trkpt>
			<trkpt lat="48.721475" lon="16.948982">
				<ele>154.000000</ele>
			</trkpt>
			<trkpt lat="48.721523" lon="16.948955">
				<ele>154.000000</ele>
			</trkpt>
			<trkpt lat="48.721528" lon="16.948955">
				<ele>154.000000</ele>
			</trkpt>
			<trkpt lat="48.721528" lon="16.948955">
				<ele>154.000000</ele>
			</trkpt>
			<trkpt lat="48.721570" lon="16.948927">
				<ele>154.000000</ele>
			</trkpt>
			<trkpt lat="48.721594" lon="16.948865">
				<ele>154.000000</ele>
			</trkpt>
			<trkpt lat="48.721617" lon="16.948810">
				<ele>154.000000</ele>
			</trkpt>
			<trkpt lat="48.721647" lon="16.948676">
				<ele>154.000000</ele>
			</trkpt>
			<trkpt lat="48.721653" lon="16.948550">
				<ele>154.000000</ele>
			</trkpt>
			<trkpt lat="48.721653" lon="16.948183">
				<ele>154.000000</ele>
			</trkpt>
			<trkpt lat="48.721665" lon="16.948011">
				<ele>154.000000</ele>
			</trkpt>
			<trkpt lat="48.721837" lon="16.946197">
				<ele>154.000000</ele>
			</trkpt>
			<trkpt lat="48.721884" lon="16.945586">
				<ele>155.000000</ele>
			</trkpt>
			<trkpt lat="48.721979" lon="16.944202">
				<ele>154.000000</ele>
			</trkpt>
			<trkpt lat="48.722014" lon="16.943682">
				<ele>154.000000</ele>
			</trkpt>
			<trkpt lat="48.722050" lon="16.943349">
				<ele>154.000000</ele>
			</trkpt>
			<trkpt lat="48.722145" lon="16.942585">
				<ele>154.000000</ele>
			</trkpt>
			<trkpt lat="48.722169" lon="16.942181">
				<ele>154.000000</ele>
			</trkpt>
			<trkpt lat="48.722299" lon="16.942281">
				<ele>154.000000</ele>
			</trkpt>
			<trkpt lat="48.722299" lon="16.942281">
				<ele>154.000000</ele>
			</trkpt>
			<trkpt lat="48.722476" lon="16.942415">
				<ele>154.000000</ele>
			</trkpt>
			<trkpt lat="48.722761" lon="16.942640">
				<ele>154.000000</ele>
			</trkpt>
			<trkpt lat="48.723040" lon="16.942883">
				<ele>155.000000</ele>
			</trkpt>
			<trkpt lat="48.723259" lon="16.943097">
				<ele>155.000000</ele>
			</trkpt>
			<trkpt lat="48.723259" lon="16.942873">
				<ele>155.000000</ele>
			</trkpt>
			<trkpt lat="48.723259" lon="16.942873">
				<ele>155.000000</ele>
			</trkpt>
			<trkpt lat="48.723259" lon="16.942730">
				<ele>155.000000</ele>
			</trkpt>
			<trkpt lat="48.723288" lon="16.942361">
				<ele>155.000000</ele>
			</trkpt>
			<trkpt lat="48.723342" lon="16.942019">
				<ele>156.000000</ele>
			</trkpt>
			<trkpt lat="48.723419" lon="16.941715">
				<ele>156.000000</ele>
			</trkpt>
			<trkpt lat="48.723733" lon="16.940483">
				<ele>156.000000</ele>
			</trkpt>
			<trkpt lat="48.723858" lon="16.939990">
				<ele>156.000000</ele>
			</trkpt>
			<trkpt lat="48.723976" lon="16.939558">
				<ele>155.000000</ele>
			</trkpt>
			<trkpt lat="48.724100" lon="16.939181">
				<ele>155.000000</ele>
			</trkpt>
			<trkpt lat="48.724290" lon="16.938606">
				<ele>155.000000</ele>
			</trkpt>
			<trkpt lat="48.724503" lon="16.937986">
				<ele>156.000000</ele>
			</trkpt>
			<trkpt lat="48.725061" lon="16.936512">
				<ele>156.000000</ele>
			</trkpt>
			<trkpt lat="48.726696" lon="16.931994">
				<ele>155.000000</ele>
			</trkpt>
			<trkpt lat="48.726761" lon="16.931833">
				<ele>155.000000</ele>
			</trkpt>
			<trkpt lat="48.726826" lon="16.931715">
				<ele>156.000000</ele>
			</trkpt>
			<trkpt lat="48.726891" lon="16.931608">
				<ele>156.000000</ele>
			</trkpt>
			<trkpt lat="48.726980" lon="16.931501">
				<ele>156.000000</ele>
			</trkpt>
			<trkpt lat="48.727069" lon="16.931419">
				<ele>156.000000</ele>
			</trkpt>
			<trkpt lat="48.727170" lon="16.931357">
				<ele>156.000000</ele>
			</trkpt>
			<trkpt lat="48.727502" lon="16.931186">
				<ele>156.000000</ele>
			</trkpt>
			<trkpt lat="48.728017" lon="16.930899">
				<ele>156.000000</ele>
			</trkpt>
			<trkpt lat="48.728373" lon="16.930709">
				<ele>156.000000</ele>
			</trkpt>
			<trkpt lat="48.728610" lon="16.930557">
				<ele>155.000000</ele>
			</trkpt>
			<trkpt lat="48.728562" lon="16.930486">
				<ele>155.000000</ele>
			</trkpt>
			<trkpt lat="48.728539" lon="16.930396">
				<ele>155.000000</ele>
			</trkpt>
			<trkpt lat="48.728521" lon="16.930252">
				<ele>155.000000</ele>
			</trkpt>
			<trkpt lat="48.728509" lon="16.930054">
				<ele>155.000000</ele>
			</trkpt>
			<trkpt lat="48.728509" lon="16.929991">
				<ele>155.000000</ele>
			</trkpt>
			<trkpt lat="48.728509" lon="16.929991">
				<ele>155.000000</ele>
			</trkpt>
			<trkpt lat="48.728497" lon="16.929713">
				<ele>154.000000</ele>
			</trkpt>
			<trkpt lat="48.728485" lon="16.929631">
				<ele>154.000000</ele>
			</trkpt>
			<trkpt lat="48.728462" lon="16.929560">
				<ele>154.000000</ele>
			</trkpt>
			<trkpt lat="48.728420" lon="16.929488">
				<ele>154.000000</ele>
			</trkpt>
			<trkpt lat="48.728355" lon="16.929434">
				<ele>155.000000</ele>
			</trkpt>
			<trkpt lat="48.728278" lon="16.929371">
				<ele>155.000000</ele>
			</trkpt>
			<trkpt lat="48.728177" lon="16.929327">
				<ele>155.000000</ele>
			</trkpt>
			<trkpt lat="48.727739" lon="16.929174">
				<ele>155.000000</ele>
			</trkpt>
			<trkpt lat="48.727371" lon="16.929012">
				<ele>155.000000</ele>
			</trkpt>
			<trkpt lat="48.727033" lon="16.928841">
				<ele>155.000000</ele>
			</trkpt>
			<trkpt lat="48.726222" lon="16.928375">
				<ele>154.000000</ele>
			</trkpt>
			<trkpt lat="48.726091" lon="16.928302">
				<ele>154.000000</ele>
			</trkpt>
			<trkpt lat="48.726044" lon="16.928258">
				<ele>154.000000</ele>
			</trkpt>
			<trkpt lat="48.726009" lon="16.928212">
				<ele>154.000000</ele>
			</trkpt>
			<trkpt lat="48.725991" lon="16.928176">
				<ele>154.000000</ele>
			</trkpt>
			<trkpt lat="48.725979" lon="16.928113">
				<ele>154.000000</ele>
			</trkpt>
			<trkpt lat="48.725938" lon="16.927916">
				<ele>153.000000</ele>
			</trkpt>
			<trkpt lat="48.725861" lon="16.927583">
				<ele>154.000000</ele>
			</trkpt>
			<trkpt lat="48.725783" lon="16.927333">
				<ele>155.000000</ele>
			</trkpt>
			<trkpt lat="48.725706" lon="16.927126">
				<ele>155.000000</ele>
			</trkpt>
			<trkpt lat="48.725552" lon="16.926713">
				<ele>155.000000</ele>
			</trkpt>
			<trkpt lat="48.725439" lon="16.926451">
				<ele>155.000000</ele>
			</trkpt>
			<trkpt lat="48.725297" lon="16.926138">
				<ele>155.000000</ele>
			</trkpt>
			<trkpt lat="48.725055" lon="16.925652">
				<ele>155.000000</ele>
			</trkpt>
			<trkpt lat="48.724308" lon="16.924153">
				<ele>155.000000</ele>
			</trkpt>
			<trkpt lat="48.723781" lon="16.923182">
				<ele>154.000000</ele>
			</trkpt>
			<trkpt lat="48.723496" lon="16.922633">
				<ele>155.000000</ele>
			</trkpt>
			<trkpt lat="48.723217" lon="16.922067">
				<ele>154.000000</ele>
			</trkpt>
			<trkpt lat="48.722992" lon="16.921574">
				<ele>155.000000</ele>
			</trkpt>
			<trkpt lat="48.722939" lon="16.921421">
				<ele>155.000000</ele>
			</trkpt>
			<trkpt lat="48.722939" lon="16.921350">
				<ele>155.000000</ele>
			</trkpt>
			<trkpt lat="48.722950" lon="16.921214">
				<ele>155.000000</ele>
			</trkpt>
			<trkpt lat="48.722950" lon="16.921161">
				<ele>155.000000</ele>
			</trkpt>
			<trkpt lat="48.723300" lon="16.920811">
				<ele>155.000000</ele>
			</trkpt>
			<trkpt lat="48.723300" lon="16.920811">
				<ele>155.000000</ele>
			</trkpt>
			<trkpt lat="48.724871" lon="16.919247">
				<ele>155.000000</ele>
			</trkpt>
			<trkpt lat="48.725653" lon="16.918475">
				<ele>155.000000</ele>
			</trkpt>
			<trkpt lat="48.726595" lon="16.917603">
				<ele>155.000000</ele>
			</trkpt>
			<trkpt lat="48.726654" lon="16.917541">
				<ele>155.000000</ele>
			</trkpt>
			<trkpt lat="48.726702" lon="16.917486">
				<ele>155.000000</ele>
			</trkpt>
			<trkpt lat="48.726720" lon="16.917415">
				<ele>155.000000</ele>
			</trkpt>
			<trkpt lat="48.726732" lon="16.917361">
				<ele>155.000000</ele>
			</trkpt>
			<trkpt lat="48.726726" lon="16.917172">
				<ele>155.000000</ele>
			</trkpt>
			<trkpt lat="48.726702" lon="16.916912">
				<ele>155.000000</ele>
			</trkpt>
			<trkpt lat="48.726619" lon="16.916409">
				<ele>155.000000</ele>
			</trkpt>
			<trkpt lat="48.726548" lon="16.915815">
				<ele>155.000000</ele>
			</trkpt>
			<trkpt lat="48.726530" lon="16.915538">
				<ele>156.000000</ele>
			</trkpt>
			<trkpt lat="48.726512" lon="16.915222">
				<ele>156.000000</ele>
			</trkpt>
			<trkpt lat="48.726453" lon="16.913983">
				<ele>155.000000</ele>
			</trkpt>
			<trkpt lat="48.726429" lon="16.913462">
				<ele>155.000000</ele>
			</trkpt>
			<trkpt lat="48.726388" lon="16.912995">
				<ele>155.000000</ele>
			</trkpt>
			<trkpt lat="48.726364" lon="16.912771">
				<ele>155.000000</ele>
			</trkpt>
			<trkpt lat="48.726346" lon="16.912519">
				<ele>155.000000</ele>
			</trkpt>
			<trkpt lat="48.726346" lon="16.912303">
				<ele>155.000000</ele>
			</trkpt>
			<trkpt lat="48.726358" lon="16.912096">
				<ele>155.000000</ele>
			</trkpt>
			<trkpt lat="48.726394" lon="16.911872">
				<ele>155.000000</ele>
			</trkpt>
			<trkpt lat="48.726429" lon="16.911666">
				<ele>155.000000</ele>
			</trkpt>
			<trkpt lat="48.726494" lon="16.911495">
				<ele>155.000000</ele>
			</trkpt>
			<trkpt lat="48.726542" lon="16.911396">
				<ele>155.000000</ele>
			</trkpt>
			<trkpt lat="48.726589" lon="16.911351">
				<ele>155.000000</ele>
			</trkpt>
			<trkpt lat="48.726690" lon="16.911226">
				<ele>154.000000</ele>
			</trkpt>
			<trkpt lat="48.726862" lon="16.911100">
				<ele>154.000000</ele>
			</trkpt>
			<trkpt lat="48.726933" lon="16.911037">
				<ele>154.000000</ele>
			</trkpt>
			<trkpt lat="48.726992" lon="16.910964">
				<ele>154.000000</ele>
			</trkpt>
			<trkpt lat="48.727039" lon="16.910857">
				<ele>154.000000</ele>
			</trkpt>
			<trkpt lat="48.727075" lon="16.910723">
				<ele>154.000000</ele>
			</trkpt>
			<trkpt lat="48.727104" lon="16.910534">
				<ele>154.000000</ele>
			</trkpt>
			<trkpt lat="48.727117" lon="16.910309">
				<ele>154.000000</ele>
			</trkpt>
			<trkpt lat="48.727123" lon="16.910022">
				<ele>155.000000</ele>
			</trkpt>
			<trkpt lat="48.727129" lon="16.909708">
				<ele>155.000000</ele>
			</trkpt>
			<trkpt lat="48.727140" lon="16.909473">
				<ele>155.000000</ele>
			</trkpt>
			<trkpt lat="48.727170" lon="16.909259">
				<ele>155.000000</ele>
			</trkpt>
			<trkpt lat="48.727259" lon="16.908764">
				<ele>155.000000</ele>
			</trkpt>
			<trkpt lat="48.727312" lon="16.908477">
				<ele>155.000000</ele>
			</trkpt>
			<trkpt lat="48.727324" lon="16.908360">
				<ele>155.000000</ele>
			</trkpt>
			<trkpt lat="48.727324" lon="16.908243">
				<ele>155.000000</ele>
			</trkpt>
			<trkpt lat="48.727306" lon="16.908073">
				<ele>155.000000</ele>
			</trkpt>
			<trkpt lat="48.727294" lon="16.907938">
				<ele>155.000000</ele>
			</trkpt>
			<trkpt lat="48.727182" lon="16.907182">
				<ele>155.000000</ele>
			</trkpt>
			<trkpt lat="48.727117" lon="16.906743">
				<ele>155.000000</ele>
			</trkpt>
			<trkpt lat="48.727081" lon="16.906456">
				<ele>155.000000</ele>
			</trkpt>
			<trkpt lat="48.727069" lon="16.906213">
				<ele>155.000000</ele>
			</trkpt>
			<trkpt lat="48.727075" lon="16.905980">
				<ele>155.000000</ele>
			</trkpt>
			<trkpt lat="48.727069" lon="16.905683">
				<ele>155.000000</ele>
			</trkpt>
			<trkpt lat="48.727039" lon="16.905270">
				<ele>155.000000</ele>
			</trkpt>
			<trkpt lat="48.727004" lon="16.904848">
				<ele>156.000000</ele>
			</trkpt>
			<trkpt lat="48.726809" lon="16.902790">
				<ele>155.000000</ele>
			</trkpt>
			<trkpt lat="48.726749" lon="16.902062">
				<ele>155.000000</ele>
			</trkpt>
			<trkpt lat="48.726720" lon="16.901406">
				<ele>155.000000</ele>
			</trkpt>
			<trkpt lat="48.726707" lon="16.900787">
				<ele>155.000000</ele>
			</trkpt>
			<trkpt lat="48.726714" lon="16.900077">
				<ele>154.000000</ele>
			</trkpt>
			<trkpt lat="48.726714" lon="16.898748">
				<ele>155.000000</ele>
			</trkpt>
			<trkpt lat="48.726732" lon="16.898452">
				<ele>155.000000</ele>
			</trkpt>
			<trkpt lat="48.726749" lon="16.898272">
				<ele>155.000000</ele>
			</trkpt>
			<trkpt lat="48.726767" lon="16.898190">
				<ele>155.000000</ele>
			</trkpt>
			<trkpt lat="48.726791" lon="16.898119">
				<ele>156.000000</ele>
			</trkpt>
			<trkpt lat="48.726814" lon="16.898074">
				<ele>156.000000</ele>
			</trkpt>
			<trkpt lat="48.726856" lon="16.898029">
				<ele>156.000000</ele>
			</trkpt>
			<trkpt lat="48.726998" lon="16.897877">
				<ele>156.000000</ele>
			</trkpt>
			<trkpt lat="48.727123" lon="16.897714">
				<ele>155.000000</ele>
			</trkpt>
			<trkpt lat="48.727194" lon="16.897553">
				<ele>155.000000</ele>
			</trkpt>
			<trkpt lat="48.727259" lon="16.897355">
				<ele>155.000000</ele>
			</trkpt>
			<trkpt lat="48.727520" lon="16.896412">
				<ele>156.000000</ele>
			</trkpt>
			<trkpt lat="48.727656" lon="16.895873">
				<ele>156.000000</ele>
			</trkpt>
			<trkpt lat="48.727745" lon="16.895640">
				<ele>157.000000</ele>
			</trkpt>
			<trkpt lat="48.727916" lon="16.895227">
				<ele>157.000000</ele>
			</trkpt>
			<trkpt lat="48.728077" lon="16.894867">
				<ele>157.000000</ele>
			</trkpt>
			<trkpt lat="48.728159" lon="16.894678">
				<ele>157.000000</ele>
			</trkpt>
			<trkpt lat="48.728236" lon="16.894517">
				<ele>157.000000</ele>
			</trkpt>
			<trkpt lat="48.728290" lon="16.894400">
				<ele>157.000000</ele>
			</trkpt>
			<trkpt lat="48.728338" lon="16.894319">
				<ele>157.000000</ele>
			</trkpt>
			<trkpt lat="48.728373" lon="16.894265">
				<ele>157.000000</ele>
			</trkpt>
			<trkpt lat="48.728426" lon="16.894229">
				<ele>157.000000</ele>
			</trkpt>
			<trkpt lat="48.728462" lon="16.894229">
				<ele>157.000000</ele>
			</trkpt>
			<trkpt lat="48.728497" lon="16.894229">
				<ele>157.000000</ele>
			</trkpt>
			<trkpt lat="48.728551" lon="16.894229">
				<ele>157.000000</ele>
			</trkpt>
			<trkpt lat="48.728551" lon="16.894229">
				<ele>157.000000</ele>
			</trkpt>
			<trkpt lat="48.728681" lon="16.894238">
				<ele>157.000000</ele>
			</trkpt>
			<trkpt lat="48.728835" lon="16.894238">
				<ele>158.000000</ele>
			</trkpt>
			<trkpt lat="48.729398" lon="16.894184">
				<ele>158.000000</ele>
			</trkpt>
			<trkpt lat="48.729600" lon="16.894194">
				<ele>158.000000</ele>
			</trkpt>
			<trkpt lat="48.729860" lon="16.894229">
				<ele>158.000000</ele>
			</trkpt>
			<trkpt lat="48.730174" lon="16.894265">
				<ele>158.000000</ele>
			</trkpt>
			<trkpt lat="48.730316" lon="16.894284">
				<ele>158.000000</ele>
			</trkpt>
			<trkpt lat="48.730477" lon="16.894345">
				<ele>158.000000</ele>
			</trkpt>
			<trkpt lat="48.730630" lon="16.894435">
				<ele>158.000000</ele>
			</trkpt>
			<trkpt lat="48.730797" lon="16.894535">
				<ele>158.000000</ele>
			</trkpt>
			<trkpt lat="48.730968" lon="16.894661">
				<ele>158.000000</ele>
			</trkpt>
			<trkpt lat="48.731110" lon="16.894804">
				<ele>158.000000</ele>
			</trkpt>
			<trkpt lat="48.731223" lon="16.894948">
				<ele>158.000000</ele>
			</trkpt>
			<trkpt lat="48.731484" lon="16.895326">
				<ele>158.000000</ele>
			</trkpt>
			<trkpt lat="48.731863" lon="16.895810">
				<ele>158.000000</ele>
			</trkpt>
			<trkpt lat="48.732088" lon="16.896116">
				<ele>158.000000</ele>
			</trkpt>
			<trkpt lat="48.732295" lon="16.896439">
				<ele>158.000000</ele>
			</trkpt>
			<trkpt lat="48.732278" lon="16.896475">
				<ele>158.000000</ele>
			</trkpt>
			<trkpt lat="48.732278" lon="16.896475">
				<ele>158.000000</ele>
			</trkpt>
			<trkpt lat="48.732295" lon="16.896439">
				<ele>158.000000</ele>
			</trkpt>
			<trkpt lat="48.732479" lon="16.896789">
				<ele>158.000000</ele>
			</trkpt>
			<trkpt lat="48.732610" lon="16.897041">
				<ele>158.000000</ele>
			</trkpt>
			<trkpt lat="48.732740" lon="16.897274">
				<ele>158.000000</ele>
			</trkpt>
			<trkpt lat="48.732900" lon="16.897508">
				<ele>158.000000</ele>
			</trkpt>
			<trkpt lat="48.733060" lon="16.897733">
				<ele>158.000000</ele>
			</trkpt>
			<trkpt lat="48.733089" lon="16.897804">
				<ele>158.000000</ele>
			</trkpt>
			<trkpt lat="48.733119" lon="16.897886">
				<ele>158.000000</ele>
			</trkpt>
			<trkpt lat="48.733137" lon="16.897957">
				<ele>158.000000</ele>
			</trkpt>
			<trkpt lat="48.733143" lon="16.898047">
				<ele>158.000000</ele>
			</trkpt>
			<trkpt lat="48.733143" lon="16.898127">
				<ele>158.000000</ele>
			</trkpt>
			<trkpt lat="48.733119" lon="16.898236">
				<ele>158.000000</ele>
			</trkpt>
			<trkpt lat="48.733101" lon="16.898335">
				<ele>158.000000</ele>
			</trkpt>
			<trkpt lat="48.733066" lon="16.898425">
				<ele>158.000000</ele>
			</trkpt>
			<trkpt lat="48.732923" lon="16.898748">
				<ele>158.000000</ele>
			</trkpt>
			<trkpt lat="48.732840" lon="16.898963">
				<ele>158.000000</ele>
			</trkpt>
			<trkpt lat="48.732817" lon="16.899045">
				<ele>158.000000</ele>
			</trkpt>
			<trkpt lat="48.732811" lon="16.899125">
				<ele>157.000000</ele>
			</trkpt>
			<trkpt lat="48.732811" lon="16.899206">
				<ele>157.000000</ele>
			</trkpt>
			<trkpt lat="48.732817" lon="16.899287">
				<ele>157.000000</ele>
			</trkpt>
			<trkpt lat="48.732840" lon="16.899385">
				<ele>156.000000</ele>
			</trkpt>
			<trkpt lat="48.732882" lon="16.899467">
				<ele>156.000000</ele>
			</trkpt>
			<trkpt lat="48.732930" lon="16.899538">
				<ele>156.000000</ele>
			</trkpt>
			<trkpt lat="48.732989" lon="16.899584">
				<ele>156.000000</ele>
			</trkpt>
			<trkpt lat="48.733089" lon="16.899637">
				<ele>157.000000</ele>
			</trkpt>
			<trkpt lat="48.733226" lon="16.899700">
				<ele>157.000000</ele>
			</trkpt>
			<trkpt lat="48.733563" lon="16.899817">
				<ele>156.000000</ele>
			</trkpt>
			<trkpt lat="48.733699" lon="16.899835">
				<ele>156.000000</ele>
			</trkpt>
			<trkpt lat="48.733866" lon="16.899844">
				<ele>155.000000</ele>
			</trkpt>
			<trkpt lat="48.734067" lon="16.899835">
				<ele>155.000000</ele>
			</trkpt>
			<trkpt lat="48.734227" lon="16.899817">
				<ele>155.000000</ele>
			</trkpt>
			<trkpt lat="48.735400" lon="16.899628">
				<ele>156.000000</ele>
			</trkpt>
			<trkpt lat="48.736366" lon="16.899475">
				<ele>156.000000</ele>
			</trkpt>
			<trkpt lat="48.736549" lon="16.899439">
				<ele>156.000000</ele>
			</trkpt>
			<trkpt lat="48.736709" lon="16.899395">
				<ele>156.000000</ele>
			</trkpt>
			<trkpt lat="48.736875" lon="16.899322">
				<ele>156.000000</ele>
			</trkpt>
			<trkpt lat="48.737006" lon="16.899259">
				<ele>156.000000</ele>
			</trkpt>
			<trkpt lat="48.737338" lon="16.899053">
				<ele>156.000000</ele>
			</trkpt>
			<trkpt lat="48.737497" lon="16.898945">
				<ele>156.000000</ele>
			</trkpt>
			<trkpt lat="48.737717" lon="16.898811">
				<ele>156.000000</ele>
			</trkpt>
			<trkpt lat="48.737989" lon="16.898693">
				<ele>157.000000</ele>
			</trkpt>
			<trkpt lat="48.738214" lon="16.898603">
				<ele>157.000000</ele>
			</trkpt>
			<trkpt lat="48.738534" lon="16.898469">
				<ele>157.000000</ele>
			</trkpt>
			<trkpt lat="48.738807" lon="16.898316">
				<ele>157.000000</ele>
			</trkpt>
			<trkpt lat="48.739097" lon="16.898110">
				<ele>157.000000</ele>
			</trkpt>
			<trkpt lat="48.739541" lon="16.897760">
				<ele>157.000000</ele>
			</trkpt>
			<trkpt lat="48.739725" lon="16.897616">
				<ele>157.000000</ele>
			</trkpt>
			<trkpt lat="48.739909" lon="16.897490">
				<ele>157.000000</ele>
			</trkpt>
			<trkpt lat="48.740098" lon="16.897374">
				<ele>157.000000</ele>
			</trkpt>
			<trkpt lat="48.740318" lon="16.897248">
				<ele>157.000000</ele>
			</trkpt>
			<trkpt lat="48.740596" lon="16.897122">
				<ele>156.000000</ele>
			</trkpt>
			<trkpt lat="48.740898" lon="16.897024">
				<ele>156.000000</ele>
			</trkpt>
			<trkpt lat="48.741242" lon="16.896951">
				<ele>156.000000</ele>
			</trkpt>
			<trkpt lat="48.741644" lon="16.896898">
				<ele>156.000000</ele>
			</trkpt>
			<trkpt lat="48.741816" lon="16.896898">
				<ele>156.000000</ele>
			</trkpt>
			<trkpt lat="48.742130" lon="16.896934">
				<ele>156.000000</ele>
			</trkpt>
			<trkpt lat="48.742231" lon="16.896924">
				<ele>157.000000</ele>
			</trkpt>
			<trkpt lat="48.742320" lon="16.896898">
				<ele>159.000000</ele>
			</trkpt>
			<trkpt lat="48.742563" lon="16.896762">
				<ele>157.000000</ele>
			</trkpt>
			<trkpt lat="48.742675" lon="16.896708">
				<ele>157.000000</ele>
			</trkpt>
			<trkpt lat="48.742716" lon="16.896817">
				<ele>157.000000</ele>
			</trkpt>
		</trkseg>
	</trk>
</gpx>

