<?xml version="1.0" encoding="utf-8"?>
<gpx xmlns="http://www.topografix.com/GPX/1/1" version="1.1" creator="https://mapy.cz/">
	<trk>
		<name>28 Břeclav - Valtice</name>
		<trkseg>
			<trkpt lat="48.742758" lon="16.896906">
				<ele>157.000000</ele>
			</trkpt>
			<trkpt lat="48.742675" lon="16.896708">
				<ele>157.000000</ele>
			</trkpt>
			<trkpt lat="48.742746" lon="16.896655">
				<ele>157.000000</ele>
			</trkpt>
			<trkpt lat="48.742782" lon="16.896601">
				<ele>157.000000</ele>
			</trkpt>
			<trkpt lat="48.742859" lon="16.896358">
				<ele>157.000000</ele>
			</trkpt>
			<trkpt lat="48.742995" lon="16.895792">
				<ele>157.000000</ele>
			</trkpt>
			<trkpt lat="48.743031" lon="16.895712">
				<ele>157.000000</ele>
			</trkpt>
			<trkpt lat="48.743078" lon="16.895666">
				<ele>157.000000</ele>
			</trkpt>
			<trkpt lat="48.743131" lon="16.895649">
				<ele>157.000000</ele>
			</trkpt>
			<trkpt lat="48.743196" lon="16.895657">
				<ele>157.000000</ele>
			</trkpt>
			<trkpt lat="48.743208" lon="16.895532">
				<ele>157.000000</ele>
			</trkpt>
			<trkpt lat="48.743226" lon="16.895451">
				<ele>157.000000</ele>
			</trkpt>
			<trkpt lat="48.743232" lon="16.895433">
				<ele>157.000000</ele>
			</trkpt>
			<trkpt lat="48.743232" lon="16.895433">
				<ele>157.000000</ele>
			</trkpt>
			<trkpt lat="48.743255" lon="16.895353">
				<ele>157.000000</ele>
			</trkpt>
			<trkpt lat="48.743297" lon="16.895263">
				<ele>157.000000</ele>
			</trkpt>
			<trkpt lat="48.743321" lon="16.895181">
				<ele>157.000000</ele>
			</trkpt>
			<trkpt lat="48.743321" lon="16.895110">
				<ele>157.000000</ele>
			</trkpt>
			<trkpt lat="48.743297" lon="16.895047">
				<ele>157.000000</ele>
			</trkpt>
			<trkpt lat="48.743244" lon="16.894957">
				<ele>157.000000</ele>
			</trkpt>
			<trkpt lat="48.743143" lon="16.894831">
				<ele>157.000000</ele>
			</trkpt>
			<trkpt lat="48.743060" lon="16.894705">
				<ele>157.000000</ele>
			</trkpt>
			<trkpt lat="48.742823" lon="16.894284">
				<ele>156.000000</ele>
			</trkpt>
			<trkpt lat="48.742586" lon="16.893834">
				<ele>156.000000</ele>
			</trkpt>
			<trkpt lat="48.742284" lon="16.893196">
				<ele>157.000000</ele>
			</trkpt>
			<trkpt lat="48.742237" lon="16.893089">
				<ele>157.000000</ele>
			</trkpt>
			<trkpt lat="48.742213" lon="16.893007">
				<ele>157.000000</ele>
			</trkpt>
			<trkpt lat="48.742213" lon="16.892927">
				<ele>157.000000</ele>
			</trkpt>
			<trkpt lat="48.742225" lon="16.892846">
				<ele>157.000000</ele>
			</trkpt>
			<trkpt lat="48.742243" lon="16.892774">
				<ele>157.000000</ele>
			</trkpt>
			<trkpt lat="48.742290" lon="16.892720">
				<ele>157.000000</ele>
			</trkpt>
			<trkpt lat="48.742414" lon="16.892737">
				<ele>157.000000</ele>
			</trkpt>
			<trkpt lat="48.742557" lon="16.892774">
				<ele>157.000000</ele>
			</trkpt>
			<trkpt lat="48.742557" lon="16.892774">
				<ele>157.000000</ele>
			</trkpt>
			<trkpt lat="48.742622" lon="16.892792">
				<ele>157.000000</ele>
			</trkpt>
			<trkpt lat="48.743025" lon="16.892827">
				<ele>157.000000</ele>
			</trkpt>
			<trkpt lat="48.743475" lon="16.892864">
				<ele>157.000000</ele>
			</trkpt>
			<trkpt lat="48.745086" lon="16.892882">
				<ele>157.000000</ele>
			</trkpt>
			<trkpt lat="48.745276" lon="16.892873">
				<ele>157.000000</ele>
			</trkpt>
			<trkpt lat="48.745471" lon="16.892837">
				<ele>157.000000</ele>
			</trkpt>
			<trkpt lat="48.745696" lon="16.892766">
				<ele>157.000000</ele>
			</trkpt>
			<trkpt lat="48.745963" lon="16.892684">
				<ele>157.000000</ele>
			</trkpt>
			<trkpt lat="48.746253" lon="16.892531">
				<ele>157.000000</ele>
			</trkpt>
			<trkpt lat="48.746377" lon="16.892450">
				<ele>157.000000</ele>
			</trkpt>
			<trkpt lat="48.746377" lon="16.892450">
				<ele>157.000000</ele>
			</trkpt>
			<trkpt lat="48.746466" lon="16.892387">
				<ele>157.000000</ele>
			</trkpt>
			<trkpt lat="48.746614" lon="16.892271">
				<ele>157.000000</ele>
			</trkpt>
			<trkpt lat="48.746750" lon="16.892145">
				<ele>157.000000</ele>
			</trkpt>
			<trkpt lat="48.746898" lon="16.891984">
				<ele>157.000000</ele>
			</trkpt>
			<trkpt lat="48.747047" lon="16.891821">
				<ele>157.000000</ele>
			</trkpt>
			<trkpt lat="48.747283" lon="16.891498">
				<ele>157.000000</ele>
			</trkpt>
			<trkpt lat="48.747485" lon="16.891229">
				<ele>157.000000</ele>
			</trkpt>
			<trkpt lat="48.747674" lon="16.890923">
				<ele>157.000000</ele>
			</trkpt>
			<trkpt lat="48.747864" lon="16.890592">
				<ele>157.000000</ele>
			</trkpt>
			<trkpt lat="48.748125" lon="16.890116">
				<ele>157.000000</ele>
			</trkpt>
			<trkpt lat="48.748504" lon="16.889441">
				<ele>158.000000</ele>
			</trkpt>
			<trkpt lat="48.748729" lon="16.889001">
				<ele>158.000000</ele>
			</trkpt>
			<trkpt lat="48.748782" lon="16.888902">
				<ele>158.000000</ele>
			</trkpt>
			<trkpt lat="48.748806" lon="16.888831">
				<ele>158.000000</ele>
			</trkpt>
			<trkpt lat="48.748812" lon="16.888749">
				<ele>157.000000</ele>
			</trkpt>
			<trkpt lat="48.748818" lon="16.888678">
				<ele>157.000000</ele>
			</trkpt>
			<trkpt lat="48.748806" lon="16.888624">
				<ele>156.000000</ele>
			</trkpt>
			<trkpt lat="48.748824" lon="16.888534">
				<ele>156.000000</ele>
			</trkpt>
			<trkpt lat="48.748865" lon="16.888426">
				<ele>156.000000</ele>
			</trkpt>
			<trkpt lat="48.748918" lon="16.888292">
				<ele>156.000000</ele>
			</trkpt>
			<trkpt lat="48.748978" lon="16.888156">
				<ele>157.000000</ele>
			</trkpt>
			<trkpt lat="48.749043" lon="16.888066">
				<ele>157.000000</ele>
			</trkpt>
			<trkpt lat="48.749126" lon="16.887995">
				<ele>158.000000</ele>
			</trkpt>
			<trkpt lat="48.749150" lon="16.887986">
				<ele>158.000000</ele>
			</trkpt>
			<trkpt lat="48.749179" lon="16.888003">
				<ele>158.000000</ele>
			</trkpt>
			<trkpt lat="48.749084" lon="16.888219">
				<ele>159.000000</ele>
			</trkpt>
			<trkpt lat="48.749055" lon="16.888292">
				<ele>159.000000</ele>
			</trkpt>
			<trkpt lat="48.749013" lon="16.888265">
				<ele>158.000000</ele>
			</trkpt>
			<trkpt lat="48.748859" lon="16.888121">
				<ele>158.000000</ele>
			</trkpt>
			<trkpt lat="48.748859" lon="16.888121">
				<ele>158.000000</ele>
			</trkpt>
			<trkpt lat="48.748433" lon="16.887716">
				<ele>157.000000</ele>
			</trkpt>
			<trkpt lat="48.748391" lon="16.887672">
				<ele>158.000000</ele>
			</trkpt>
			<trkpt lat="48.748421" lon="16.887609">
				<ele>158.000000</ele>
			</trkpt>
			<trkpt lat="48.748356" lon="16.887546">
				<ele>158.000000</ele>
			</trkpt>
			<trkpt lat="48.748356" lon="16.887546">
				<ele>158.000000</ele>
			</trkpt>
			<trkpt lat="48.748154" lon="16.887348">
				<ele>157.000000</ele>
			</trkpt>
			<trkpt lat="48.748065" lon="16.887250">
				<ele>157.000000</ele>
			</trkpt>
			<trkpt lat="48.747994" lon="16.887169">
				<ele>157.000000</ele>
			</trkpt>
			<trkpt lat="48.747627" lon="16.886567">
				<ele>157.000000</ele>
			</trkpt>
			<trkpt lat="48.747580" lon="16.886485">
				<ele>157.000000</ele>
			</trkpt>
			<trkpt lat="48.747556" lon="16.886387">
				<ele>157.000000</ele>
			</trkpt>
			<trkpt lat="48.747538" lon="16.886297">
				<ele>157.000000</ele>
			</trkpt>
			<trkpt lat="48.747550" lon="16.886216">
				<ele>157.000000</ele>
			</trkpt>
			<trkpt lat="48.747568" lon="16.886118">
				<ele>157.000000</ele>
			</trkpt>
			<trkpt lat="48.747609" lon="16.885974">
				<ele>157.000000</ele>
			</trkpt>
			<trkpt lat="48.747686" lon="16.885678">
				<ele>157.000000</ele>
			</trkpt>
			<trkpt lat="48.747722" lon="16.885605">
				<ele>157.000000</ele>
			</trkpt>
			<trkpt lat="48.747770" lon="16.885552">
				<ele>157.000000</ele>
			</trkpt>
			<trkpt lat="48.748089" lon="16.885229">
				<ele>157.000000</ele>
			</trkpt>
			<trkpt lat="48.748190" lon="16.885120">
				<ele>157.000000</ele>
			</trkpt>
			<trkpt lat="48.748238" lon="16.885084">
				<ele>157.000000</ele>
			</trkpt>
			<trkpt lat="48.748291" lon="16.885066">
				<ele>157.000000</ele>
			</trkpt>
			<trkpt lat="48.748362" lon="16.885030">
				<ele>157.000000</ele>
			</trkpt>
			<trkpt lat="48.748415" lon="16.884967">
				<ele>157.000000</ele>
			</trkpt>
			<trkpt lat="48.748456" lon="16.884860">
				<ele>157.000000</ele>
			</trkpt>
			<trkpt lat="48.748510" lon="16.884671">
				<ele>157.000000</ele>
			</trkpt>
			<trkpt lat="48.748604" lon="16.884374">
				<ele>157.000000</ele>
			</trkpt>
			<trkpt lat="48.748634" lon="16.884213">
				<ele>157.000000</ele>
			</trkpt>
			<trkpt lat="48.748634" lon="16.884195">
				<ele>157.000000</ele>
			</trkpt>
			<trkpt lat="48.748640" lon="16.884105">
				<ele>157.000000</ele>
			</trkpt>
			<trkpt lat="48.748640" lon="16.884105">
				<ele>157.000000</ele>
			</trkpt>
			<trkpt lat="48.748658" lon="16.883944">
				<ele>157.000000</ele>
			</trkpt>
			<trkpt lat="48.748688" lon="16.883332">
				<ele>157.000000</ele>
			</trkpt>
			<trkpt lat="48.748717" lon="16.882676">
				<ele>157.000000</ele>
			</trkpt>
			<trkpt lat="48.748711" lon="16.882380">
				<ele>157.000000</ele>
			</trkpt>
			<trkpt lat="48.748700" lon="16.882048">
				<ele>157.000000</ele>
			</trkpt>
			<trkpt lat="48.748658" lon="16.881697">
				<ele>157.000000</ele>
			</trkpt>
			<trkpt lat="48.748634" lon="16.881617">
				<ele>157.000000</ele>
			</trkpt>
			<trkpt lat="48.748610" lon="16.881545">
				<ele>157.000000</ele>
			</trkpt>
			<trkpt lat="48.748486" lon="16.881338">
				<ele>157.000000</ele>
			</trkpt>
			<trkpt lat="48.748445" lon="16.881213">
				<ele>157.000000</ele>
			</trkpt>
			<trkpt lat="48.748184" lon="16.880386">
				<ele>157.000000</ele>
			</trkpt>
			<trkpt lat="48.748113" lon="16.880422">
				<ele>157.000000</ele>
			</trkpt>
			<trkpt lat="48.748054" lon="16.880350">
				<ele>157.000000</ele>
			</trkpt>
			<trkpt lat="48.748042" lon="16.880332">
				<ele>157.000000</ele>
			</trkpt>
			<trkpt lat="48.748042" lon="16.880332">
				<ele>157.000000</ele>
			</trkpt>
			<trkpt lat="48.748018" lon="16.880269">
				<ele>156.000000</ele>
			</trkpt>
			<trkpt lat="48.748000" lon="16.880179">
				<ele>156.000000</ele>
			</trkpt>
			<trkpt lat="48.747977" lon="16.879955">
				<ele>157.000000</ele>
			</trkpt>
			<trkpt lat="48.747971" lon="16.879847">
				<ele>157.000000</ele>
			</trkpt>
			<trkpt lat="48.747989" lon="16.879739">
				<ele>157.000000</ele>
			</trkpt>
			<trkpt lat="48.748012" lon="16.879640">
				<ele>157.000000</ele>
			</trkpt>
			<trkpt lat="48.748113" lon="16.879407">
				<ele>157.000000</ele>
			</trkpt>
			<trkpt lat="48.748142" lon="16.879281">
				<ele>157.000000</ele>
			</trkpt>
			<trkpt lat="48.748142" lon="16.879164">
				<ele>157.000000</ele>
			</trkpt>
			<trkpt lat="48.748119" lon="16.879039">
				<ele>157.000000</ele>
			</trkpt>
			<trkpt lat="48.748065" lon="16.878832">
				<ele>157.000000</ele>
			</trkpt>
			<trkpt lat="48.747822" lon="16.878005">
				<ele>157.000000</ele>
			</trkpt>
			<trkpt lat="48.747301" lon="16.876137">
				<ele>156.000000</ele>
			</trkpt>
			<trkpt lat="48.747195" lon="16.875625">
				<ele>157.000000</ele>
			</trkpt>
			<trkpt lat="48.747100" lon="16.875149">
				<ele>157.000000</ele>
			</trkpt>
			<trkpt lat="48.747059" lon="16.874879">
				<ele>157.000000</ele>
			</trkpt>
			<trkpt lat="48.747047" lon="16.874646">
				<ele>157.000000</ele>
			</trkpt>
			<trkpt lat="48.747041" lon="16.874547">
				<ele>157.000000</ele>
			</trkpt>
			<trkpt lat="48.747017" lon="16.874449">
				<ele>157.000000</ele>
			</trkpt>
			<trkpt lat="48.746999" lon="16.874386">
				<ele>157.000000</ele>
			</trkpt>
			<trkpt lat="48.746988" lon="16.874313">
				<ele>157.000000</ele>
			</trkpt>
			<trkpt lat="48.746994" lon="16.874080">
				<ele>158.000000</ele>
			</trkpt>
			<trkpt lat="48.746994" lon="16.873891">
				<ele>157.000000</ele>
			</trkpt>
			<trkpt lat="48.746982" lon="16.873676">
				<ele>157.000000</ele>
			</trkpt>
			<trkpt lat="48.746982" lon="16.873676">
				<ele>157.000000</ele>
			</trkpt>
			<trkpt lat="48.746982" lon="16.873604">
				<ele>157.000000</ele>
			</trkpt>
			<trkpt lat="48.746946" lon="16.873021">
				<ele>157.000000</ele>
			</trkpt>
			<trkpt lat="48.746923" lon="16.872463">
				<ele>155.000000</ele>
			</trkpt>
			<trkpt lat="48.746905" lon="16.872176">
				<ele>155.000000</ele>
			</trkpt>
			<trkpt lat="48.746863" lon="16.872122">
				<ele>155.000000</ele>
			</trkpt>
			<trkpt lat="48.746821" lon="16.872076">
				<ele>155.000000</ele>
			</trkpt>
			<trkpt lat="48.746786" lon="16.871969">
				<ele>155.000000</ele>
			</trkpt>
			<trkpt lat="48.746756" lon="16.871870">
				<ele>156.000000</ele>
			</trkpt>
			<trkpt lat="48.746750" lon="16.871772">
				<ele>157.000000</ele>
			</trkpt>
			<trkpt lat="48.746750" lon="16.871690">
				<ele>157.000000</ele>
			</trkpt>
			<trkpt lat="48.746745" lon="16.871654">
				<ele>158.000000</ele>
			</trkpt>
			<trkpt lat="48.746727" lon="16.871637">
				<ele>158.000000</ele>
			</trkpt>
			<trkpt lat="48.746656" lon="16.871646">
				<ele>158.000000</ele>
			</trkpt>
			<trkpt lat="48.746626" lon="16.871646">
				<ele>158.000000</ele>
			</trkpt>
			<trkpt lat="48.746626" lon="16.871637">
				<ele>158.000000</ele>
			</trkpt>
			<trkpt lat="48.746727" lon="16.871529">
				<ele>158.000000</ele>
			</trkpt>
			<trkpt lat="48.746745" lon="16.871520">
				<ele>158.000000</ele>
			</trkpt>
			<trkpt lat="48.746756" lon="16.871476">
				<ele>158.000000</ele>
			</trkpt>
			<trkpt lat="48.746442" lon="16.871565">
				<ele>158.000000</ele>
			</trkpt>
			<trkpt lat="48.746442" lon="16.871565">
				<ele>158.000000</ele>
			</trkpt>
			<trkpt lat="48.745850" lon="16.871726">
				<ele>158.000000</ele>
			</trkpt>
			<trkpt lat="48.745145" lon="16.871952">
				<ele>158.000000</ele>
			</trkpt>
			<trkpt lat="48.745003" lon="16.871996">
				<ele>158.000000</ele>
			</trkpt>
			<trkpt lat="48.744820" lon="16.872086">
				<ele>158.000000</ele>
			</trkpt>
			<trkpt lat="48.744678" lon="16.872158">
				<ele>157.000000</ele>
			</trkpt>
			<trkpt lat="48.744565" lon="16.872212">
				<ele>157.000000</ele>
			</trkpt>
			<trkpt lat="48.743842" lon="16.872472">
				<ele>157.000000</ele>
			</trkpt>
			<trkpt lat="48.743552" lon="16.872579">
				<ele>157.000000</ele>
			</trkpt>
			<trkpt lat="48.743149" lon="16.872759">
				<ele>157.000000</ele>
			</trkpt>
			<trkpt lat="48.742966" lon="16.872858">
				<ele>157.000000</ele>
			</trkpt>
			<trkpt lat="48.742746" lon="16.873011">
				<ele>157.000000</ele>
			</trkpt>
			<trkpt lat="48.742089" lon="16.873505">
				<ele>157.000000</ele>
			</trkpt>
			<trkpt lat="48.741881" lon="16.873676">
				<ele>157.000000</ele>
			</trkpt>
			<trkpt lat="48.741852" lon="16.873990">
				<ele>156.000000</ele>
			</trkpt>
			<trkpt lat="48.741822" lon="16.874071">
				<ele>156.000000</ele>
			</trkpt>
			<trkpt lat="48.741792" lon="16.874134">
				<ele>156.000000</ele>
			</trkpt>
			<trkpt lat="48.741745" lon="16.874206">
				<ele>156.000000</ele>
			</trkpt>
			<trkpt lat="48.741662" lon="16.874277">
				<ele>156.000000</ele>
			</trkpt>
			<trkpt lat="48.741502" lon="16.874449">
				<ele>156.000000</ele>
			</trkpt>
			<trkpt lat="48.741242" lon="16.874799">
				<ele>156.000000</ele>
			</trkpt>
			<trkpt lat="48.741070" lon="16.875005">
				<ele>155.000000</ele>
			</trkpt>
			<trkpt lat="48.740856" lon="16.875229">
				<ele>155.000000</ele>
			</trkpt>
			<trkpt lat="48.740709" lon="16.875374">
				<ele>155.000000</ele>
			</trkpt>
			<trkpt lat="48.740548" lon="16.875571">
				<ele>155.000000</ele>
			</trkpt>
			<trkpt lat="48.740400" lon="16.875742">
				<ele>155.000000</ele>
			</trkpt>
			<trkpt lat="48.740281" lon="16.875858">
				<ele>155.000000</ele>
			</trkpt>
			<trkpt lat="48.740205" lon="16.875931">
				<ele>155.000000</ele>
			</trkpt>
			<trkpt lat="48.740134" lon="16.875967">
				<ele>155.000000</ele>
			</trkpt>
			<trkpt lat="48.739915" lon="16.876047">
				<ele>155.000000</ele>
			</trkpt>
			<trkpt lat="48.739825" lon="16.876074">
				<ele>155.000000</ele>
			</trkpt>
			<trkpt lat="48.739648" lon="16.876120">
				<ele>155.000000</ele>
			</trkpt>
			<trkpt lat="48.739553" lon="16.876147">
				<ele>155.000000</ele>
			</trkpt>
			<trkpt lat="48.739482" lon="16.876182">
				<ele>155.000000</ele>
			</trkpt>
			<trkpt lat="48.739435" lon="16.876210">
				<ele>155.000000</ele>
			</trkpt>
			<trkpt lat="48.739399" lon="16.876263">
				<ele>155.000000</ele>
			</trkpt>
			<trkpt lat="48.739363" lon="16.876326">
				<ele>155.000000</ele>
			</trkpt>
			<trkpt lat="48.739328" lon="16.876380">
				<ele>155.000000</ele>
			</trkpt>
			<trkpt lat="48.739298" lon="16.876424">
				<ele>155.000000</ele>
			</trkpt>
			<trkpt lat="48.739263" lon="16.876451">
				<ele>155.000000</ele>
			</trkpt>
			<trkpt lat="48.739209" lon="16.876487">
				<ele>154.000000</ele>
			</trkpt>
			<trkpt lat="48.739062" lon="16.876533">
				<ele>155.000000</ele>
			</trkpt>
			<trkpt lat="48.738883" lon="16.876596">
				<ele>155.000000</ele>
			</trkpt>
			<trkpt lat="48.738611" lon="16.876667">
				<ele>155.000000</ele>
			</trkpt>
			<trkpt lat="48.738416" lon="16.876703">
				<ele>155.000000</ele>
			</trkpt>
			<trkpt lat="48.738303" lon="16.876757">
				<ele>155.000000</ele>
			</trkpt>
			<trkpt lat="48.738268" lon="16.876766">
				<ele>155.000000</ele>
			</trkpt>
			<trkpt lat="48.738232" lon="16.876776">
				<ele>155.000000</ele>
			</trkpt>
			<trkpt lat="48.738131" lon="16.876730">
				<ele>155.000000</ele>
			</trkpt>
			<trkpt lat="48.738024" lon="16.876686">
				<ele>156.000000</ele>
			</trkpt>
			<trkpt lat="48.737936" lon="16.876667">
				<ele>156.000000</ele>
			</trkpt>
			<trkpt lat="48.737894" lon="16.876667">
				<ele>156.000000</ele>
			</trkpt>
			<trkpt lat="48.737853" lon="16.876667">
				<ele>156.000000</ele>
			</trkpt>
			<trkpt lat="48.737758" lon="16.876596">
				<ele>156.000000</ele>
			</trkpt>
			<trkpt lat="48.737675" lon="16.876541">
				<ele>157.000000</ele>
			</trkpt>
			<trkpt lat="48.737598" lon="16.876497">
				<ele>158.000000</ele>
			</trkpt>
			<trkpt lat="48.737338" lon="16.876416">
				<ele>159.000000</ele>
			</trkpt>
			<trkpt lat="48.737397" lon="16.876281">
				<ele>159.000000</ele>
			</trkpt>
			<trkpt lat="48.737426" lon="16.876182">
				<ele>159.000000</ele>
			</trkpt>
			<trkpt lat="48.737426" lon="16.876182">
				<ele>159.000000</ele>
			</trkpt>
			<trkpt lat="48.737432" lon="16.876164">
				<ele>159.000000</ele>
			</trkpt>
			<trkpt lat="48.737462" lon="16.876030">
				<ele>158.000000</ele>
			</trkpt>
			<trkpt lat="48.737474" lon="16.875877">
				<ele>157.000000</ele>
			</trkpt>
			<trkpt lat="48.737474" lon="16.875715">
				<ele>157.000000</ele>
			</trkpt>
			<trkpt lat="48.737468" lon="16.875562">
				<ele>157.000000</ele>
			</trkpt>
			<trkpt lat="48.737432" lon="16.875105">
				<ele>156.000000</ele>
			</trkpt>
			<trkpt lat="48.737414" lon="16.874898">
				<ele>157.000000</ele>
			</trkpt>
			<trkpt lat="48.737420" lon="16.874215">
				<ele>157.000000</ele>
			</trkpt>
			<trkpt lat="48.737432" lon="16.873990">
				<ele>157.000000</ele>
			</trkpt>
			<trkpt lat="48.737456" lon="16.873739">
				<ele>157.000000</ele>
			</trkpt>
			<trkpt lat="48.737515" lon="16.873271">
				<ele>157.000000</ele>
			</trkpt>
			<trkpt lat="48.737527" lon="16.873038">
				<ele>158.000000</ele>
			</trkpt>
			<trkpt lat="48.737568" lon="16.872373">
				<ele>158.000000</ele>
			</trkpt>
			<trkpt lat="48.737580" lon="16.872050">
				<ele>159.000000</ele>
			</trkpt>
			<trkpt lat="48.737574" lon="16.871799">
				<ele>159.000000</ele>
			</trkpt>
			<trkpt lat="48.737562" lon="16.871627">
				<ele>160.000000</ele>
			</trkpt>
			<trkpt lat="48.737627" lon="16.871476">
				<ele>160.000000</ele>
			</trkpt>
			<trkpt lat="48.737717" lon="16.869778">
				<ele>161.000000</ele>
			</trkpt>
			<trkpt lat="48.737746" lon="16.868969">
				<ele>161.000000</ele>
			</trkpt>
			<trkpt lat="48.737776" lon="16.868313">
				<ele>161.000000</ele>
			</trkpt>
			<trkpt lat="48.737817" lon="16.867784">
				<ele>162.000000</ele>
			</trkpt>
			<trkpt lat="48.737847" lon="16.867065">
				<ele>162.000000</ele>
			</trkpt>
			<trkpt lat="48.737865" lon="16.866579">
				<ele>162.000000</ele>
			</trkpt>
			<trkpt lat="48.737977" lon="16.864252">
				<ele>164.000000</ele>
			</trkpt>
			<trkpt lat="48.738019" lon="16.863273">
				<ele>164.000000</ele>
			</trkpt>
			<trkpt lat="48.737983" lon="16.862734">
				<ele>164.000000</ele>
			</trkpt>
			<trkpt lat="48.737965" lon="16.862510">
				<ele>164.000000</ele>
			</trkpt>
			<trkpt lat="48.737965" lon="16.862510">
				<ele>164.000000</ele>
			</trkpt>
			<trkpt lat="48.737953" lon="16.862339">
				<ele>164.000000</ele>
			</trkpt>
			<trkpt lat="48.737948" lon="16.862061">
				<ele>164.000000</ele>
			</trkpt>
			<trkpt lat="48.737942" lon="16.861809">
				<ele>164.000000</ele>
			</trkpt>
			<trkpt lat="48.737948" lon="16.861522">
				<ele>164.000000</ele>
			</trkpt>
			<trkpt lat="48.737989" lon="16.860623">
				<ele>165.000000</ele>
			</trkpt>
			<trkpt lat="48.738090" lon="16.858818">
				<ele>165.000000</ele>
			</trkpt>
			<trkpt lat="48.738137" lon="16.857704">
				<ele>166.000000</ele>
			</trkpt>
			<trkpt lat="48.738143" lon="16.857228">
				<ele>166.000000</ele>
			</trkpt>
			<trkpt lat="48.738131" lon="16.856239">
				<ele>167.000000</ele>
			</trkpt>
			<trkpt lat="48.738149" lon="16.855692">
				<ele>167.000000</ele>
			</trkpt>
			<trkpt lat="48.738238" lon="16.854021">
				<ele>168.000000</ele>
			</trkpt>
			<trkpt lat="48.738410" lon="16.851325">
				<ele>169.000000</ele>
			</trkpt>
			<trkpt lat="48.738487" lon="16.849987">
				<ele>170.000000</ele>
			</trkpt>
			<trkpt lat="48.738523" lon="16.849341">
				<ele>171.000000</ele>
			</trkpt>
			<trkpt lat="48.738582" lon="16.847966">
				<ele>175.000000</ele>
			</trkpt>
			<trkpt lat="48.738617" lon="16.847194">
				<ele>175.000000</ele>
			</trkpt>
			<trkpt lat="48.738653" lon="16.846771">
				<ele>175.000000</ele>
			</trkpt>
			<trkpt lat="48.738741" lon="16.845865">
				<ele>175.000000</ele>
			</trkpt>
			<trkpt lat="48.738765" lon="16.845362">
				<ele>176.000000</ele>
			</trkpt>
			<trkpt lat="48.738771" lon="16.845092">
				<ele>177.000000</ele>
			</trkpt>
			<trkpt lat="48.738759" lon="16.844849">
				<ele>177.000000</ele>
			</trkpt>
			<trkpt lat="48.738724" lon="16.844624">
				<ele>178.000000</ele>
			</trkpt>
			<trkpt lat="48.738641" lon="16.844140">
				<ele>179.000000</ele>
			</trkpt>
			<trkpt lat="48.738635" lon="16.844121">
				<ele>179.000000</ele>
			</trkpt>
			<trkpt lat="48.738635" lon="16.843878">
				<ele>179.000000</ele>
			</trkpt>
			<trkpt lat="48.738635" lon="16.843878">
				<ele>179.000000</ele>
			</trkpt>
			<trkpt lat="48.738635" lon="16.843878">
				<ele>179.000000</ele>
			</trkpt>
			<trkpt lat="48.738647" lon="16.843268">
				<ele>179.000000</ele>
			</trkpt>
			<trkpt lat="48.738653" lon="16.843070">
				<ele>179.000000</ele>
			</trkpt>
			<trkpt lat="48.738670" lon="16.842909">
				<ele>180.000000</ele>
			</trkpt>
			<trkpt lat="48.738700" lon="16.842746">
				<ele>180.000000</ele>
			</trkpt>
			<trkpt lat="48.738747" lon="16.842522">
				<ele>180.000000</ele>
			</trkpt>
			<trkpt lat="48.738789" lon="16.842333">
				<ele>180.000000</ele>
			</trkpt>
			<trkpt lat="48.738818" lon="16.842172">
				<ele>180.000000</ele>
			</trkpt>
			<trkpt lat="48.738836" lon="16.842010">
				<ele>180.000000</ele>
			</trkpt>
			<trkpt lat="48.738842" lon="16.841813">
				<ele>180.000000</ele>
			</trkpt>
			<trkpt lat="48.738836" lon="16.841462">
				<ele>180.000000</ele>
			</trkpt>
			<trkpt lat="48.738795" lon="16.840779">
				<ele>180.000000</ele>
			</trkpt>
			<trkpt lat="48.738724" lon="16.839567">
				<ele>180.000000</ele>
			</trkpt>
			<trkpt lat="48.738647" lon="16.837473">
				<ele>180.000000</ele>
			</trkpt>
			<trkpt lat="48.738665" lon="16.837196">
				<ele>180.000000</ele>
			</trkpt>
			<trkpt lat="48.738688" lon="16.836917">
				<ele>179.000000</ele>
			</trkpt>
			<trkpt lat="48.738724" lon="16.836710">
				<ele>179.000000</ele>
			</trkpt>
			<trkpt lat="48.738812" lon="16.836404">
				<ele>178.000000</ele>
			</trkpt>
			<trkpt lat="48.739038" lon="16.835821">
				<ele>177.000000</ele>
			</trkpt>
			<trkpt lat="48.739133" lon="16.835534">
				<ele>176.000000</ele>
			</trkpt>
			<trkpt lat="48.739209" lon="16.835246">
				<ele>175.000000</ele>
			</trkpt>
			<trkpt lat="48.739257" lon="16.834985">
				<ele>175.000000</ele>
			</trkpt>
			<trkpt lat="48.739316" lon="16.834527">
				<ele>176.000000</ele>
			</trkpt>
			<trkpt lat="48.739357" lon="16.834123">
				<ele>177.000000</ele>
			</trkpt>
			<trkpt lat="48.739382" lon="16.833728">
				<ele>178.000000</ele>
			</trkpt>
			<trkpt lat="48.739417" lon="16.832938">
				<ele>180.000000</ele>
			</trkpt>
			<trkpt lat="48.739447" lon="16.831320">
				<ele>181.000000</ele>
			</trkpt>
			<trkpt lat="48.739476" lon="16.830592">
				<ele>182.000000</ele>
			</trkpt>
			<trkpt lat="48.739500" lon="16.830116">
				<ele>182.000000</ele>
			</trkpt>
			<trkpt lat="48.739500" lon="16.830116">
				<ele>182.000000</ele>
			</trkpt>
			<trkpt lat="48.739926" lon="16.821007">
				<ele>184.000000</ele>
			</trkpt>
			<trkpt lat="48.740163" lon="16.816336">
				<ele>186.000000</ele>
			</trkpt>
			<trkpt lat="48.740181" lon="16.815986">
				<ele>186.000000</ele>
			</trkpt>
			<trkpt lat="48.740181" lon="16.815986">
				<ele>186.000000</ele>
			</trkpt>
			<trkpt lat="48.740281" lon="16.814118">
				<ele>187.000000</ele>
			</trkpt>
			<trkpt lat="48.740359" lon="16.814099">
				<ele>187.000000</ele>
			</trkpt>
			<trkpt lat="48.740371" lon="16.813579">
				<ele>187.000000</ele>
			</trkpt>
			<trkpt lat="48.740394" lon="16.813120">
				<ele>187.000000</ele>
			</trkpt>
			<trkpt lat="48.740501" lon="16.811539">
				<ele>187.000000</ele>
			</trkpt>
			<trkpt lat="48.740531" lon="16.810758">
				<ele>187.000000</ele>
			</trkpt>
			<trkpt lat="48.740548" lon="16.810156">
				<ele>186.000000</ele>
			</trkpt>
			<trkpt lat="48.740519" lon="16.809598">
				<ele>186.000000</ele>
			</trkpt>
			<trkpt lat="48.740531" lon="16.809437">
				<ele>186.000000</ele>
			</trkpt>
			<trkpt lat="48.740531" lon="16.809087">
				<ele>186.000000</ele>
			</trkpt>
			<trkpt lat="48.740542" lon="16.808826">
				<ele>186.000000</ele>
			</trkpt>
			<trkpt lat="48.740536" lon="16.808584">
				<ele>186.000000</ele>
			</trkpt>
			<trkpt lat="48.740531" lon="16.808332">
				<ele>186.000000</ele>
			</trkpt>
			<trkpt lat="48.740489" lon="16.807569">
				<ele>186.000000</ele>
			</trkpt>
			<trkpt lat="48.740477" lon="16.807227">
				<ele>185.000000</ele>
			</trkpt>
			<trkpt lat="48.740465" lon="16.806724">
				<ele>185.000000</ele>
			</trkpt>
			<trkpt lat="48.740477" lon="16.806221">
				<ele>186.000000</ele>
			</trkpt>
			<trkpt lat="48.740525" lon="16.804335">
				<ele>186.000000</ele>
			</trkpt>
			<trkpt lat="48.740536" lon="16.804147">
				<ele>186.000000</ele>
			</trkpt>
			<trkpt lat="48.740554" lon="16.803994">
				<ele>186.000000</ele>
			</trkpt>
			<trkpt lat="48.740602" lon="16.803778">
				<ele>187.000000</ele>
			</trkpt>
			<trkpt lat="48.740726" lon="16.803392">
				<ele>187.000000</ele>
			</trkpt>
			<trkpt lat="48.740768" lon="16.803176">
				<ele>187.000000</ele>
			</trkpt>
			<trkpt lat="48.740874" lon="16.803149">
				<ele>188.000000</ele>
			</trkpt>
			<trkpt lat="48.740981" lon="16.803113">
				<ele>189.000000</ele>
			</trkpt>
			<trkpt lat="48.741094" lon="16.803032">
				<ele>189.000000</ele>
			</trkpt>
			<trkpt lat="48.741117" lon="16.803015">
				<ele>189.000000</ele>
			</trkpt>
			<trkpt lat="48.741117" lon="16.803015">
				<ele>189.000000</ele>
			</trkpt>
			<trkpt lat="48.741218" lon="16.802942">
				<ele>189.000000</ele>
			</trkpt>
			<trkpt lat="48.741407" lon="16.802816">
				<ele>188.000000</ele>
			</trkpt>
			<trkpt lat="48.741603" lon="16.802700">
				<ele>189.000000</ele>
			</trkpt>
			<trkpt lat="48.741946" lon="16.802539">
				<ele>189.000000</ele>
			</trkpt>
			<trkpt lat="48.742101" lon="16.802449">
				<ele>190.000000</ele>
			</trkpt>
			<trkpt lat="48.742284" lon="16.802332">
				<ele>190.000000</ele>
			</trkpt>
			<trkpt lat="48.742421" lon="16.802187">
				<ele>190.000000</ele>
			</trkpt>
			<trkpt lat="48.742870" lon="16.801658">
				<ele>189.000000</ele>
			</trkpt>
			<trkpt lat="48.743143" lon="16.801317">
				<ele>189.000000</ele>
			</trkpt>
			<trkpt lat="48.743309" lon="16.801101">
				<ele>189.000000</ele>
			</trkpt>
			<trkpt lat="48.743374" lon="16.800992">
				<ele>189.000000</ele>
			</trkpt>
			<trkpt lat="48.743445" lon="16.800858">
				<ele>190.000000</ele>
			</trkpt>
			<trkpt lat="48.743652" lon="16.800382">
				<ele>190.000000</ele>
			</trkpt>
			<trkpt lat="48.743819" lon="16.799960">
				<ele>190.000000</ele>
			</trkpt>
			<trkpt lat="48.744440" lon="16.798371">
				<ele>192.000000</ele>
			</trkpt>
			<trkpt lat="48.744672" lon="16.797750">
				<ele>192.000000</ele>
			</trkpt>
			<trkpt lat="48.744873" lon="16.797157">
				<ele>193.000000</ele>
			</trkpt>
			<trkpt lat="48.745074" lon="16.796511">
				<ele>195.000000</ele>
			</trkpt>
			<trkpt lat="48.745358" lon="16.795541">
				<ele>198.000000</ele>
			</trkpt>
			<trkpt lat="48.745441" lon="16.795216">
				<ele>198.000000</ele>
			</trkpt>
			<trkpt lat="48.745506" lon="16.795055">
				<ele>199.000000</ele>
			</trkpt>
			<trkpt lat="48.745590" lon="16.794939">
				<ele>199.000000</ele>
			</trkpt>
			<trkpt lat="48.745690" lon="16.794830">
				<ele>199.000000</ele>
			</trkpt>
			<trkpt lat="48.745791" lon="16.794768">
				<ele>200.000000</ele>
			</trkpt>
			<trkpt lat="48.746117" lon="16.794579">
				<ele>200.000000</ele>
			</trkpt>
			<trkpt lat="48.746194" lon="16.794526">
				<ele>201.000000</ele>
			</trkpt>
			<trkpt lat="48.746253" lon="16.794463">
				<ele>201.000000</ele>
			</trkpt>
			<trkpt lat="48.746330" lon="16.794354">
				<ele>201.000000</ele>
			</trkpt>
			<trkpt lat="48.746419" lon="16.794157">
				<ele>201.000000</ele>
			</trkpt>
			<trkpt lat="48.746537" lon="16.793753">
				<ele>202.000000</ele>
			</trkpt>
			<trkpt lat="48.746603" lon="16.793465">
				<ele>203.000000</ele>
			</trkpt>
			<trkpt lat="48.746620" lon="16.793375">
				<ele>203.000000</ele>
			</trkpt>
			<trkpt lat="48.746644" lon="16.793295">
				<ele>203.000000</ele>
			</trkpt>
			<trkpt lat="48.746679" lon="16.793222">
				<ele>203.000000</ele>
			</trkpt>
			<trkpt lat="48.746727" lon="16.793160">
				<ele>203.000000</ele>
			</trkpt>
			<trkpt lat="48.746679" lon="16.793008">
				<ele>203.000000</ele>
			</trkpt>
			<trkpt lat="48.746614" lon="16.792836">
				<ele>204.000000</ele>
			</trkpt>
			<trkpt lat="48.746662" lon="16.792566">
				<ele>203.000000</ele>
			</trkpt>
			<trkpt lat="48.746650" lon="16.792549">
				<ele>203.000000</ele>
			</trkpt>
		</trkseg>
	</trk>
</gpx>

