<?xml version="1.0" encoding="utf-8"?>
<gpx xmlns="http://www.topografix.com/GPX/1/1" version="1.1" creator="https://mapy.cz/">
	<trk>
		<name>29_Valtice - Hlohovec</name>
		<trkseg>
			<trkpt lat="48.746597" lon="16.792432">
				<ele>204.000000</ele>
			</trkpt>
			<trkpt lat="48.746662" lon="16.792566">
				<ele>203.000000</ele>
			</trkpt>
			<trkpt lat="48.746679" lon="16.792558">
				<ele>203.000000</ele>
			</trkpt>
			<trkpt lat="48.746697" lon="16.792558">
				<ele>203.000000</ele>
			</trkpt>
			<trkpt lat="48.746715" lon="16.792585">
				<ele>203.000000</ele>
			</trkpt>
			<trkpt lat="48.746745" lon="16.792612">
				<ele>203.000000</ele>
			</trkpt>
			<trkpt lat="48.746898" lon="16.792863">
				<ele>202.000000</ele>
			</trkpt>
			<trkpt lat="48.747005" lon="16.792989">
				<ele>202.000000</ele>
			</trkpt>
			<trkpt lat="48.747248" lon="16.793241">
				<ele>200.000000</ele>
			</trkpt>
			<trkpt lat="48.747538" lon="16.793591">
				<ele>198.000000</ele>
			</trkpt>
			<trkpt lat="48.747770" lon="16.793851">
				<ele>197.000000</ele>
			</trkpt>
			<trkpt lat="48.747989" lon="16.794031">
				<ele>197.000000</ele>
			</trkpt>
			<trkpt lat="48.748196" lon="16.794174">
				<ele>196.000000</ele>
			</trkpt>
			<trkpt lat="48.748533" lon="16.794354">
				<ele>196.000000</ele>
			</trkpt>
			<trkpt lat="48.748675" lon="16.794409">
				<ele>196.000000</ele>
			</trkpt>
			<trkpt lat="48.748782" lon="16.794444">
				<ele>196.000000</ele>
			</trkpt>
			<trkpt lat="48.748883" lon="16.794444">
				<ele>196.000000</ele>
			</trkpt>
			<trkpt lat="48.748972" lon="16.794444">
				<ele>196.000000</ele>
			</trkpt>
			<trkpt lat="48.749055" lon="16.794409">
				<ele>196.000000</ele>
			</trkpt>
			<trkpt lat="48.749120" lon="16.794373">
				<ele>197.000000</ele>
			</trkpt>
			<trkpt lat="48.749131" lon="16.794499">
				<ele>196.000000</ele>
			</trkpt>
			<trkpt lat="48.749156" lon="16.794705">
				<ele>196.000000</ele>
			</trkpt>
			<trkpt lat="48.749156" lon="16.794705">
				<ele>196.000000</ele>
			</trkpt>
			<trkpt lat="48.749179" lon="16.794920">
				<ele>195.000000</ele>
			</trkpt>
			<trkpt lat="48.749197" lon="16.795065">
				<ele>195.000000</ele>
			</trkpt>
			<trkpt lat="48.749221" lon="16.795181">
				<ele>195.000000</ele>
			</trkpt>
			<trkpt lat="48.749576" lon="16.796591">
				<ele>194.000000</ele>
			</trkpt>
			<trkpt lat="48.749967" lon="16.798182">
				<ele>193.000000</ele>
			</trkpt>
			<trkpt lat="48.750091" lon="16.798702">
				<ele>193.000000</ele>
			</trkpt>
			<trkpt lat="48.750719" lon="16.801218">
				<ele>188.000000</ele>
			</trkpt>
			<trkpt lat="48.750908" lon="16.801344">
				<ele>188.000000</ele>
			</trkpt>
			<trkpt lat="48.750908" lon="16.801344">
				<ele>188.000000</ele>
			</trkpt>
			<trkpt lat="48.751880" lon="16.801981">
				<ele>189.000000</ele>
			</trkpt>
			<trkpt lat="48.753331" lon="16.802933">
				<ele>188.000000</ele>
			</trkpt>
			<trkpt lat="48.753829" lon="16.803256">
				<ele>187.000000</ele>
			</trkpt>
			<trkpt lat="48.756695" lon="16.805189">
				<ele>186.000000</ele>
			</trkpt>
			<trkpt lat="48.757039" lon="16.805430">
				<ele>186.000000</ele>
			</trkpt>
			<trkpt lat="48.757861" lon="16.806006">
				<ele>186.000000</ele>
			</trkpt>
			<trkpt lat="48.758187" lon="16.806231">
				<ele>186.000000</ele>
			</trkpt>
			<trkpt lat="48.760112" lon="16.807434">
				<ele>186.000000</ele>
			</trkpt>
			<trkpt lat="48.760218" lon="16.807254">
				<ele>186.000000</ele>
			</trkpt>
			<trkpt lat="48.760218" lon="16.807254">
				<ele>186.000000</ele>
			</trkpt>
			<trkpt lat="48.760343" lon="16.807057">
				<ele>186.000000</ele>
			</trkpt>
			<trkpt lat="48.760574" lon="16.806635">
				<ele>187.000000</ele>
			</trkpt>
			<trkpt lat="48.760829" lon="16.806168">
				<ele>187.000000</ele>
			</trkpt>
			<trkpt lat="48.761059" lon="16.805682">
				<ele>187.000000</ele>
			</trkpt>
			<trkpt lat="48.761421" lon="16.805000">
				<ele>186.000000</ele>
			</trkpt>
			<trkpt lat="48.761669" lon="16.804550">
				<ele>185.000000</ele>
			</trkpt>
			<trkpt lat="48.761918" lon="16.804119">
				<ele>186.000000</ele>
			</trkpt>
			<trkpt lat="48.762209" lon="16.803652">
				<ele>186.000000</ele>
			</trkpt>
			<trkpt lat="48.762481" lon="16.803221">
				<ele>186.000000</ele>
			</trkpt>
			<trkpt lat="48.762824" lon="16.802727">
				<ele>186.000000</ele>
			</trkpt>
			<trkpt lat="48.763120" lon="16.802332">
				<ele>186.000000</ele>
			</trkpt>
			<trkpt lat="48.763446" lon="16.801954">
				<ele>187.000000</ele>
			</trkpt>
			<trkpt lat="48.763795" lon="16.801587">
				<ele>187.000000</ele>
			</trkpt>
			<trkpt lat="48.763878" lon="16.801514">
				<ele>187.000000</ele>
			</trkpt>
			<trkpt lat="48.763979" lon="16.801451">
				<ele>187.000000</ele>
			</trkpt>
			<trkpt lat="48.764085" lon="16.801380">
				<ele>187.000000</ele>
			</trkpt>
			<trkpt lat="48.764192" lon="16.801344">
				<ele>187.000000</ele>
			</trkpt>
			<trkpt lat="48.764512" lon="16.801235">
				<ele>186.000000</ele>
			</trkpt>
			<trkpt lat="48.764612" lon="16.801182">
				<ele>186.000000</ele>
			</trkpt>
			<trkpt lat="48.764956" lon="16.800921">
				<ele>186.000000</ele>
			</trkpt>
			<trkpt lat="48.765264" lon="16.800732">
				<ele>187.000000</ele>
			</trkpt>
			<trkpt lat="48.765370" lon="16.800814">
				<ele>187.000000</ele>
			</trkpt>
			<trkpt lat="48.765495" lon="16.800876">
				<ele>186.000000</ele>
			</trkpt>
			<trkpt lat="48.765661" lon="16.800841">
				<ele>186.000000</ele>
			</trkpt>
			<trkpt lat="48.765707" lon="16.800822">
				<ele>186.000000</ele>
			</trkpt>
			<trkpt lat="48.765707" lon="16.800822">
				<ele>186.000000</ele>
			</trkpt>
			<trkpt lat="48.765814" lon="16.800795">
				<ele>186.000000</ele>
			</trkpt>
			<trkpt lat="48.766312" lon="16.800589">
				<ele>185.000000</ele>
			</trkpt>
			<trkpt lat="48.766809" lon="16.800365">
				<ele>184.000000</ele>
			</trkpt>
			<trkpt lat="48.767596" lon="16.799996">
				<ele>182.000000</ele>
			</trkpt>
			<trkpt lat="48.767726" lon="16.799950">
				<ele>181.000000</ele>
			</trkpt>
			<trkpt lat="48.767851" lon="16.799924">
				<ele>180.000000</ele>
			</trkpt>
			<trkpt lat="48.767969" lon="16.799916">
				<ele>180.000000</ele>
			</trkpt>
			<trkpt lat="48.768213" lon="16.799942">
				<ele>179.000000</ele>
			</trkpt>
			<trkpt lat="48.768331" lon="16.799924">
				<ele>179.000000</ele>
			</trkpt>
			<trkpt lat="48.768710" lon="16.799870">
				<ele>178.000000</ele>
			</trkpt>
			<trkpt lat="48.768822" lon="16.799861">
				<ele>178.000000</ele>
			</trkpt>
			<trkpt lat="48.768917" lon="16.799853">
				<ele>177.000000</ele>
			</trkpt>
			<trkpt lat="48.768994" lon="16.799816">
				<ele>177.000000</ele>
			</trkpt>
			<trkpt lat="48.769071" lon="16.799763">
				<ele>177.000000</ele>
			</trkpt>
			<trkpt lat="48.769130" lon="16.799709">
				<ele>177.000000</ele>
			</trkpt>
			<trkpt lat="48.769189" lon="16.799637">
				<ele>177.000000</ele>
			</trkpt>
			<trkpt lat="48.769255" lon="16.799537">
				<ele>177.000000</ele>
			</trkpt>
			<trkpt lat="48.769326" lon="16.799394">
				<ele>176.000000</ele>
			</trkpt>
			<trkpt lat="48.769408" lon="16.799241">
				<ele>176.000000</ele>
			</trkpt>
			<trkpt lat="48.769586" lon="16.799017">
				<ele>176.000000</ele>
			</trkpt>
			<trkpt lat="48.769674" lon="16.798918">
				<ele>176.000000</ele>
			</trkpt>
			<trkpt lat="48.769764" lon="16.798847">
				<ele>175.000000</ele>
			</trkpt>
			<trkpt lat="48.769876" lon="16.798811">
				<ele>175.000000</ele>
			</trkpt>
			<trkpt lat="48.770012" lon="16.798801">
				<ele>176.000000</ele>
			</trkpt>
			<trkpt lat="48.770243" lon="16.798801">
				<ele>176.000000</ele>
			</trkpt>
			<trkpt lat="48.770551" lon="16.798738">
				<ele>176.000000</ele>
			</trkpt>
			<trkpt lat="48.770670" lon="16.798757">
				<ele>176.000000</ele>
			</trkpt>
			<trkpt lat="48.771007" lon="16.798891">
				<ele>178.000000</ele>
			</trkpt>
			<trkpt lat="48.771214" lon="16.798945">
				<ele>180.000000</ele>
			</trkpt>
			<trkpt lat="48.771356" lon="16.798971">
				<ele>181.000000</ele>
			</trkpt>
			<trkpt lat="48.771492" lon="16.798990">
				<ele>182.000000</ele>
			</trkpt>
			<trkpt lat="48.771616" lon="16.798981">
				<ele>182.000000</ele>
			</trkpt>
			<trkpt lat="48.771723" lon="16.798945">
				<ele>182.000000</ele>
			</trkpt>
			<trkpt lat="48.771824" lon="16.798908">
				<ele>183.000000</ele>
			</trkpt>
			<trkpt lat="48.771925" lon="16.798828">
				<ele>183.000000</ele>
			</trkpt>
			<trkpt lat="48.772019" lon="16.798738">
				<ele>183.000000</ele>
			</trkpt>
			<trkpt lat="48.772108" lon="16.798604">
				<ele>184.000000</ele>
			</trkpt>
			<trkpt lat="48.772570" lon="16.797929">
				<ele>185.000000</ele>
			</trkpt>
			<trkpt lat="48.773002" lon="16.797337">
				<ele>185.000000</ele>
			</trkpt>
			<trkpt lat="48.773198" lon="16.797076">
				<ele>185.000000</ele>
			</trkpt>
			<trkpt lat="48.773334" lon="16.796933">
				<ele>185.000000</ele>
			</trkpt>
			<trkpt lat="48.773458" lon="16.796843">
				<ele>186.000000</ele>
			</trkpt>
			<trkpt lat="48.773624" lon="16.796753">
				<ele>186.000000</ele>
			</trkpt>
			<trkpt lat="48.773760" lon="16.796734">
				<ele>186.000000</ele>
			</trkpt>
			<trkpt lat="48.773902" lon="16.796726">
				<ele>185.000000</ele>
			</trkpt>
			<trkpt lat="48.774476" lon="16.796798">
				<ele>186.000000</ele>
			</trkpt>
			<trkpt lat="48.774541" lon="16.796843">
				<ele>186.000000</ele>
			</trkpt>
			<trkpt lat="48.774618" lon="16.796897">
				<ele>185.000000</ele>
			</trkpt>
			<trkpt lat="48.774648" lon="16.796969">
				<ele>185.000000</ele>
			</trkpt>
			<trkpt lat="48.774648" lon="16.796969">
				<ele>185.000000</ele>
			</trkpt>
			<trkpt lat="48.774677" lon="16.797040">
				<ele>185.000000</ele>
			</trkpt>
			<trkpt lat="48.774731" lon="16.797139">
				<ele>185.000000</ele>
			</trkpt>
			<trkpt lat="48.774796" lon="16.797193">
				<ele>185.000000</ele>
			</trkpt>
			<trkpt lat="48.774885" lon="16.797239">
				<ele>185.000000</ele>
			</trkpt>
			<trkpt lat="48.774973" lon="16.797266">
				<ele>185.000000</ele>
			</trkpt>
			<trkpt lat="48.775009" lon="16.797283">
				<ele>184.000000</ele>
			</trkpt>
			<trkpt lat="48.775033" lon="16.797329">
				<ele>184.000000</ele>
			</trkpt>
			<trkpt lat="48.775062" lon="16.797382">
				<ele>184.000000</ele>
			</trkpt>
			<trkpt lat="48.775157" lon="16.797652">
				<ele>184.000000</ele>
			</trkpt>
			<trkpt lat="48.775086" lon="16.797832">
				<ele>185.000000</ele>
			</trkpt>
			<trkpt lat="48.775086" lon="16.797832">
				<ele>185.000000</ele>
			</trkpt>
			<trkpt lat="48.775033" lon="16.797975">
				<ele>185.000000</ele>
			</trkpt>
			<trkpt lat="48.774885" lon="16.798325">
				<ele>186.000000</ele>
			</trkpt>
			<trkpt lat="48.774832" lon="16.798460">
				<ele>186.000000</ele>
			</trkpt>
			<trkpt lat="48.774707" lon="16.798765">
				<ele>186.000000</ele>
			</trkpt>
			<trkpt lat="48.774624" lon="16.799053">
				<ele>185.000000</ele>
			</trkpt>
			<trkpt lat="48.774535" lon="16.799358">
				<ele>185.000000</ele>
			</trkpt>
			<trkpt lat="48.774458" lon="16.799736">
				<ele>184.000000</ele>
			</trkpt>
			<trkpt lat="48.774328" lon="16.800606">
				<ele>184.000000</ele>
			</trkpt>
			<trkpt lat="48.774287" lon="16.800921">
				<ele>184.000000</ele>
			</trkpt>
			<trkpt lat="48.774269" lon="16.801271">
				<ele>183.000000</ele>
			</trkpt>
			<trkpt lat="48.774275" lon="16.801621">
				<ele>184.000000</ele>
			</trkpt>
			<trkpt lat="48.774311" lon="16.802187">
				<ele>186.000000</ele>
			</trkpt>
			<trkpt lat="48.774317" lon="16.802835">
				<ele>185.000000</ele>
			</trkpt>
			<trkpt lat="48.774317" lon="16.803455">
				<ele>185.000000</ele>
			</trkpt>
			<trkpt lat="48.774293" lon="16.804568">
				<ele>184.000000</ele>
			</trkpt>
			<trkpt lat="48.774352" lon="16.804667">
				<ele>184.000000</ele>
			</trkpt>
			<trkpt lat="48.774435" lon="16.804820">
				<ele>184.000000</ele>
			</trkpt>
			<trkpt lat="48.774512" lon="16.804963">
				<ele>183.000000</ele>
			</trkpt>
			<trkpt lat="48.774683" lon="16.805260">
				<ele>183.000000</ele>
			</trkpt>
			<trkpt lat="48.774784" lon="16.805197">
				<ele>183.000000</ele>
			</trkpt>
			<trkpt lat="48.774784" lon="16.805197">
				<ele>183.000000</ele>
			</trkpt>
			<trkpt lat="48.774814" lon="16.805179">
				<ele>183.000000</ele>
			</trkpt>
			<trkpt lat="48.774968" lon="16.805143">
				<ele>183.000000</ele>
			</trkpt>
			<trkpt lat="48.775104" lon="16.805072">
				<ele>183.000000</ele>
			</trkpt>
			<trkpt lat="48.775305" lon="16.804946">
				<ele>182.000000</ele>
			</trkpt>
			<trkpt lat="48.775459" lon="16.804864">
				<ele>182.000000</ele>
			</trkpt>
			<trkpt lat="48.775518" lon="16.804837">
				<ele>182.000000</ele>
			</trkpt>
			<trkpt lat="48.775577" lon="16.804803">
				<ele>181.000000</ele>
			</trkpt>
			<trkpt lat="48.775737" lon="16.804631">
				<ele>181.000000</ele>
			</trkpt>
			<trkpt lat="48.776157" lon="16.804227">
				<ele>179.000000</ele>
			</trkpt>
			<trkpt lat="48.776489" lon="16.803912">
				<ele>177.000000</ele>
			</trkpt>
			<trkpt lat="48.776578" lon="16.803841">
				<ele>177.000000</ele>
			</trkpt>
			<trkpt lat="48.776678" lon="16.803805">
				<ele>177.000000</ele>
			</trkpt>
			<trkpt lat="48.776768" lon="16.803787">
				<ele>176.000000</ele>
			</trkpt>
			<trkpt lat="48.776904" lon="16.803805">
				<ele>176.000000</ele>
			</trkpt>
			<trkpt lat="48.777300" lon="16.803832">
				<ele>174.000000</ele>
			</trkpt>
			<trkpt lat="48.777590" lon="16.803822">
				<ele>172.000000</ele>
			</trkpt>
			<trkpt lat="48.777833" lon="16.803795">
				<ele>171.000000</ele>
			</trkpt>
			<trkpt lat="48.778064" lon="16.803724">
				<ele>171.000000</ele>
			</trkpt>
			<trkpt lat="48.778792" lon="16.803445">
				<ele>169.000000</ele>
			</trkpt>
			<trkpt lat="48.779005" lon="16.803346">
				<ele>168.000000</ele>
			</trkpt>
			<trkpt lat="48.779206" lon="16.803256">
				<ele>168.000000</ele>
			</trkpt>
			<trkpt lat="48.779431" lon="16.803266">
				<ele>167.000000</ele>
			</trkpt>
			<trkpt lat="48.779745" lon="16.803275">
				<ele>167.000000</ele>
			</trkpt>
			<trkpt lat="48.779929" lon="16.803266">
				<ele>167.000000</ele>
			</trkpt>
			<trkpt lat="48.780917" lon="16.803239">
				<ele>166.000000</ele>
			</trkpt>
			<trkpt lat="48.781545" lon="16.803221">
				<ele>167.000000</ele>
			</trkpt>
			<trkpt lat="48.782646" lon="16.803149">
				<ele>167.000000</ele>
			</trkpt>
			<trkpt lat="48.782953" lon="16.803149">
				<ele>167.000000</ele>
			</trkpt>
			<trkpt lat="48.783308" lon="16.803149">
				<ele>167.000000</ele>
			</trkpt>
			<trkpt lat="48.783385" lon="16.803095">
				<ele>167.000000</ele>
			</trkpt>
			<trkpt lat="48.783438" lon="16.803015">
				<ele>167.000000</ele>
			</trkpt>
			<trkpt lat="48.783438" lon="16.803015">
				<ele>167.000000</ele>
			</trkpt>
			<trkpt lat="48.783438" lon="16.803015">
				<ele>167.000000</ele>
			</trkpt>
			<trkpt lat="48.783492" lon="16.802952">
				<ele>167.000000</ele>
			</trkpt>
			<trkpt lat="48.783539" lon="16.802843">
				<ele>167.000000</ele>
			</trkpt>
			<trkpt lat="48.783605" lon="16.802629">
				<ele>167.000000</ele>
			</trkpt>
			<trkpt lat="48.783705" lon="16.802197">
				<ele>167.000000</ele>
			</trkpt>
			<trkpt lat="48.783723" lon="16.802063">
				<ele>167.000000</ele>
			</trkpt>
			<trkpt lat="48.783729" lon="16.801910">
				<ele>167.000000</ele>
			</trkpt>
			<trkpt lat="48.783716" lon="16.801784">
				<ele>167.000000</ele>
			</trkpt>
			<trkpt lat="48.783670" lon="16.801461">
				<ele>167.000000</ele>
			</trkpt>
			<trkpt lat="48.783664" lon="16.801254">
				<ele>167.000000</ele>
			</trkpt>
			<trkpt lat="48.783664" lon="16.800679">
				<ele>167.000000</ele>
			</trkpt>
			<trkpt lat="48.783634" lon="16.799772">
				<ele>167.000000</ele>
			</trkpt>
			<trkpt lat="48.783645" lon="16.799592">
				<ele>167.000000</ele>
			</trkpt>
			<trkpt lat="48.783664" lon="16.799430">
				<ele>167.000000</ele>
			</trkpt>
			<trkpt lat="48.783693" lon="16.799277">
				<ele>167.000000</ele>
			</trkpt>
			<trkpt lat="48.783782" lon="16.798998">
				<ele>167.000000</ele>
			</trkpt>
			<trkpt lat="48.783847" lon="16.798738">
				<ele>167.000000</ele>
			</trkpt>
			<trkpt lat="48.783859" lon="16.798577">
				<ele>168.000000</ele>
			</trkpt>
			<trkpt lat="48.783847" lon="16.798371">
				<ele>167.000000</ele>
			</trkpt>
			<trkpt lat="48.783782" lon="16.797939">
				<ele>167.000000</ele>
			</trkpt>
			<trkpt lat="48.783592" lon="16.797059">
				<ele>168.000000</ele>
			</trkpt>
			<trkpt lat="48.783527" lon="16.796771">
				<ele>168.000000</ele>
			</trkpt>
			<trkpt lat="48.783450" lon="16.796493">
				<ele>168.000000</ele>
			</trkpt>
			<trkpt lat="48.783356" lon="16.796160">
				<ele>168.000000</ele>
			</trkpt>
			<trkpt lat="48.783314" lon="16.795962">
				<ele>168.000000</ele>
			</trkpt>
			<trkpt lat="48.783302" lon="16.795755">
				<ele>168.000000</ele>
			</trkpt>
			<trkpt lat="48.783302" lon="16.795522">
				<ele>168.000000</ele>
			</trkpt>
			<trkpt lat="48.783302" lon="16.794597">
				<ele>167.000000</ele>
			</trkpt>
			<trkpt lat="48.783285" lon="16.793834">
				<ele>167.000000</ele>
			</trkpt>
			<trkpt lat="48.783279" lon="16.793564">
				<ele>167.000000</ele>
			</trkpt>
			<trkpt lat="48.783255" lon="16.792989">
				<ele>167.000000</ele>
			</trkpt>
			<trkpt lat="48.783231" lon="16.792522">
				<ele>167.000000</ele>
			</trkpt>
			<trkpt lat="48.783243" lon="16.792405">
				<ele>167.000000</ele>
			</trkpt>
			<trkpt lat="48.783267" lon="16.792270">
				<ele>167.000000</ele>
			</trkpt>
			<trkpt lat="48.783344" lon="16.791902">
				<ele>167.000000</ele>
			</trkpt>
			<trkpt lat="48.783356" lon="16.791803">
				<ele>167.000000</ele>
			</trkpt>
			<trkpt lat="48.783362" lon="16.791696">
				<ele>167.000000</ele>
			</trkpt>
			<trkpt lat="48.783379" lon="16.791363">
				<ele>167.000000</ele>
			</trkpt>
			<trkpt lat="48.783421" lon="16.791084">
				<ele>167.000000</ele>
			</trkpt>
			<trkpt lat="48.783438" lon="16.790923">
				<ele>167.000000</ele>
			</trkpt>
			<trkpt lat="48.783468" lon="16.790788">
				<ele>167.000000</ele>
			</trkpt>
			<trkpt lat="48.783551" lon="16.790518">
				<ele>169.000000</ele>
			</trkpt>
			<trkpt lat="48.783580" lon="16.790358">
				<ele>170.000000</ele>
			</trkpt>
			<trkpt lat="48.783610" lon="16.790096">
				<ele>170.000000</ele>
			</trkpt>
			<trkpt lat="48.783610" lon="16.790096">
				<ele>170.000000</ele>
			</trkpt>
			<trkpt lat="48.783616" lon="16.790034">
				<ele>170.000000</ele>
			</trkpt>
			<trkpt lat="48.783639" lon="16.789746">
				<ele>170.000000</ele>
			</trkpt>
			<trkpt lat="48.783634" lon="16.789513">
				<ele>170.000000</ele>
			</trkpt>
			<trkpt lat="48.783610" lon="16.789261">
				<ele>170.000000</ele>
			</trkpt>
			<trkpt lat="48.783586" lon="16.789037">
				<ele>170.000000</ele>
			</trkpt>
			<trkpt lat="48.783580" lon="16.788847">
				<ele>170.000000</ele>
			</trkpt>
			<trkpt lat="48.783580" lon="16.788273">
				<ele>171.000000</ele>
			</trkpt>
			<trkpt lat="48.783574" lon="16.788048">
				<ele>171.000000</ele>
			</trkpt>
			<trkpt lat="48.783569" lon="16.787653">
				<ele>170.000000</ele>
			</trkpt>
			<trkpt lat="48.783592" lon="16.786763">
				<ele>171.000000</ele>
			</trkpt>
			<trkpt lat="48.783598" lon="16.785748">
				<ele>171.000000</ele>
			</trkpt>
			<trkpt lat="48.783592" lon="16.785471">
				<ele>170.000000</ele>
			</trkpt>
			<trkpt lat="48.783580" lon="16.785182">
				<ele>170.000000</ele>
			</trkpt>
			<trkpt lat="48.783557" lon="16.784949">
				<ele>170.000000</ele>
			</trkpt>
			<trkpt lat="48.783533" lon="16.784752">
				<ele>171.000000</ele>
			</trkpt>
			<trkpt lat="48.783433" lon="16.784176">
				<ele>171.000000</ele>
			</trkpt>
			<trkpt lat="48.783397" lon="16.783899">
				<ele>171.000000</ele>
			</trkpt>
			<trkpt lat="48.783344" lon="16.783664">
				<ele>171.000000</ele>
			</trkpt>
			<trkpt lat="48.783208" lon="16.783197">
				<ele>171.000000</ele>
			</trkpt>
			<trkpt lat="48.783166" lon="16.782991">
				<ele>171.000000</ele>
			</trkpt>
			<trkpt lat="48.783059" lon="16.782381">
				<ele>172.000000</ele>
			</trkpt>
			<trkpt lat="48.783036" lon="16.782263">
				<ele>172.000000</ele>
			</trkpt>
			<trkpt lat="48.783000" lon="16.782173">
				<ele>172.000000</ele>
			</trkpt>
			<trkpt lat="48.782935" lon="16.782002">
				<ele>172.000000</ele>
			</trkpt>
			<trkpt lat="48.782888" lon="16.781823">
				<ele>171.000000</ele>
			</trkpt>
			<trkpt lat="48.782870" lon="16.781635">
				<ele>172.000000</ele>
			</trkpt>
			<trkpt lat="48.782835" lon="16.781186">
				<ele>172.000000</ele>
			</trkpt>
			<trkpt lat="48.782787" lon="16.780880">
				<ele>171.000000</ele>
			</trkpt>
			<trkpt lat="48.782752" lon="16.780691">
				<ele>171.000000</ele>
			</trkpt>
			<trkpt lat="48.782728" lon="16.780503">
				<ele>171.000000</ele>
			</trkpt>
			<trkpt lat="48.782693" lon="16.779901">
				<ele>172.000000</ele>
			</trkpt>
			<trkpt lat="48.782680" lon="16.779586">
				<ele>172.000000</ele>
			</trkpt>
			<trkpt lat="48.782615" lon="16.778957">
				<ele>172.000000</ele>
			</trkpt>
			<trkpt lat="48.782610" lon="16.778742">
				<ele>171.000000</ele>
			</trkpt>
			<trkpt lat="48.782604" lon="16.778517">
				<ele>171.000000</ele>
			</trkpt>
			<trkpt lat="48.782615" lon="16.777987">
				<ele>171.000000</ele>
			</trkpt>
			<trkpt lat="48.782628" lon="16.777511">
				<ele>171.000000</ele>
			</trkpt>
			<trkpt lat="48.782663" lon="16.777071">
				<ele>171.000000</ele>
			</trkpt>
			<trkpt lat="48.782711" lon="16.776496">
				<ele>171.000000</ele>
			</trkpt>
			<trkpt lat="48.782799" lon="16.775679">
				<ele>171.000000</ele>
			</trkpt>
			<trkpt lat="48.782823" lon="16.775373">
				<ele>171.000000</ele>
			</trkpt>
			<trkpt lat="48.782829" lon="16.775211">
				<ele>171.000000</ele>
			</trkpt>
			<trkpt lat="48.782817" lon="16.774825">
				<ele>170.000000</ele>
			</trkpt>
			<trkpt lat="48.782829" lon="16.774565">
				<ele>170.000000</ele>
			</trkpt>
			<trkpt lat="48.782852" lon="16.774313">
				<ele>170.000000</ele>
			</trkpt>
			<trkpt lat="48.782941" lon="16.773756">
				<ele>170.000000</ele>
			</trkpt>
			<trkpt lat="48.782959" lon="16.773567">
				<ele>170.000000</ele>
			</trkpt>
			<trkpt lat="48.782977" lon="16.773236">
				<ele>170.000000</ele>
			</trkpt>
			<trkpt lat="48.782994" lon="16.773119">
				<ele>170.000000</ele>
			</trkpt>
			<trkpt lat="48.783042" lon="16.772794">
				<ele>170.000000</ele>
			</trkpt>
			<trkpt lat="48.783065" lon="16.772615">
				<ele>170.000000</ele>
			</trkpt>
			<trkpt lat="48.783077" lon="16.772427">
				<ele>170.000000</ele>
			</trkpt>
			<trkpt lat="48.783071" lon="16.772238">
				<ele>170.000000</ele>
			</trkpt>
			<trkpt lat="48.783048" lon="16.771978">
				<ele>170.000000</ele>
			</trkpt>
			<trkpt lat="48.783042" lon="16.771699">
				<ele>170.000000</ele>
			</trkpt>
			<trkpt lat="48.783065" lon="16.770828">
				<ele>170.000000</ele>
			</trkpt>
			<trkpt lat="48.783071" lon="16.770531">
				<ele>170.000000</ele>
			</trkpt>
			<trkpt lat="48.783048" lon="16.770083">
				<ele>170.000000</ele>
			</trkpt>
			<trkpt lat="48.783036" lon="16.769848">
				<ele>170.000000</ele>
			</trkpt>
			<trkpt lat="48.782989" lon="16.769444">
				<ele>170.000000</ele>
			</trkpt>
			<trkpt lat="48.782971" lon="16.769247">
				<ele>170.000000</ele>
			</trkpt>
			<trkpt lat="48.782929" lon="16.768528">
				<ele>170.000000</ele>
			</trkpt>
			<trkpt lat="48.782882" lon="16.768034">
				<ele>171.000000</ele>
			</trkpt>
			<trkpt lat="48.782811" lon="16.767594">
				<ele>170.000000</ele>
			</trkpt>
			<trkpt lat="48.782805" lon="16.767460">
				<ele>170.000000</ele>
			</trkpt>
			<trkpt lat="48.782793" lon="16.767324">
				<ele>170.000000</ele>
			</trkpt>
			<trkpt lat="48.782799" lon="16.767091">
				<ele>171.000000</ele>
			</trkpt>
			<trkpt lat="48.782787" lon="16.766857">
				<ele>171.000000</ele>
			</trkpt>
			<trkpt lat="48.782758" lon="16.766687">
				<ele>171.000000</ele>
			</trkpt>
			<trkpt lat="48.782687" lon="16.766192">
				<ele>170.000000</ele>
			</trkpt>
			<trkpt lat="48.782640" lon="16.765716">
				<ele>171.000000</ele>
			</trkpt>
			<trkpt lat="48.782610" lon="16.765249">
				<ele>171.000000</ele>
			</trkpt>
			<trkpt lat="48.782598" lon="16.765007">
				<ele>171.000000</ele>
			</trkpt>
			<trkpt lat="48.782533" lon="16.764603">
				<ele>171.000000</ele>
			</trkpt>
			<trkpt lat="48.782426" lon="16.763884">
				<ele>170.000000</ele>
			</trkpt>
			<trkpt lat="48.782385" lon="16.763525">
				<ele>170.000000</ele>
			</trkpt>
			<trkpt lat="48.782290" lon="16.762707">
				<ele>170.000000</ele>
			</trkpt>
			<trkpt lat="48.782160" lon="16.761800">
				<ele>170.000000</ele>
			</trkpt>
			<trkpt lat="48.782054" lon="16.761215">
				<ele>170.000000</ele>
			</trkpt>
			<trkpt lat="48.782029" lon="16.761091">
				<ele>170.000000</ele>
			</trkpt>
			<trkpt lat="48.781995" lon="16.761009">
				<ele>169.000000</ele>
			</trkpt>
			<trkpt lat="48.781775" lon="16.760496">
				<ele>169.000000</ele>
			</trkpt>
			<trkpt lat="48.781592" lon="16.760012">
				<ele>169.000000</ele>
			</trkpt>
			<trkpt lat="48.781532" lon="16.759823">
				<ele>169.000000</ele>
			</trkpt>
			<trkpt lat="48.781396" lon="16.759294">
				<ele>169.000000</ele>
			</trkpt>
			<trkpt lat="48.781296" lon="16.758978">
				<ele>169.000000</ele>
			</trkpt>
			<trkpt lat="48.781166" lon="16.758638">
				<ele>169.000000</ele>
			</trkpt>
			<trkpt lat="48.781041" lon="16.758378">
				<ele>169.000000</ele>
			</trkpt>
			<trkpt lat="48.780988" lon="16.758305">
				<ele>169.000000</ele>
			</trkpt>
			<trkpt lat="48.780929" lon="16.758261">
				<ele>169.000000</ele>
			</trkpt>
			<trkpt lat="48.780846" lon="16.758233">
				<ele>169.000000</ele>
			</trkpt>
			<trkpt lat="48.780787" lon="16.758215">
				<ele>169.000000</ele>
			</trkpt>
			<trkpt lat="48.780787" lon="16.758215">
				<ele>169.000000</ele>
			</trkpt>
			<trkpt lat="48.780733" lon="16.758198">
				<ele>169.000000</ele>
			</trkpt>
			<trkpt lat="48.780597" lon="16.758171">
				<ele>169.000000</ele>
			</trkpt>
			<trkpt lat="48.780461" lon="16.758162">
				<ele>169.000000</ele>
			</trkpt>
			<trkpt lat="48.780360" lon="16.758162">
				<ele>169.000000</ele>
			</trkpt>
			<trkpt lat="48.779857" lon="16.758171">
				<ele>168.000000</ele>
			</trkpt>
			<trkpt lat="48.779757" lon="16.758179">
				<ele>169.000000</ele>
			</trkpt>
			<trkpt lat="48.779703" lon="16.758162">
				<ele>169.000000</ele>
			</trkpt>
			<trkpt lat="48.779662" lon="16.758116">
				<ele>169.000000</ele>
			</trkpt>
			<trkpt lat="48.779626" lon="16.758036">
				<ele>169.000000</ele>
			</trkpt>
			<trkpt lat="48.779573" lon="16.757901">
				<ele>169.000000</ele>
			</trkpt>
			<trkpt lat="48.779532" lon="16.757722">
				<ele>169.000000</ele>
			</trkpt>
			<trkpt lat="48.779514" lon="16.757649">
				<ele>169.000000</ele>
			</trkpt>
			<trkpt lat="48.779479" lon="16.757613">
				<ele>169.000000</ele>
			</trkpt>
			<trkpt lat="48.779479" lon="16.757613">
				<ele>169.000000</ele>
			</trkpt>
			<trkpt lat="48.779479" lon="16.757613">
				<ele>169.000000</ele>
			</trkpt>
			<trkpt lat="48.779218" lon="16.757299">
				<ele>169.000000</ele>
			</trkpt>
			<trkpt lat="48.779307" lon="16.757164">
				<ele>169.000000</ele>
			</trkpt>
			<trkpt lat="48.779336" lon="16.757120">
				<ele>169.000000</ele>
			</trkpt>
			<trkpt lat="48.779372" lon="16.757047">
				<ele>169.000000</ele>
			</trkpt>
			<trkpt lat="48.779420" lon="16.757011">
				<ele>169.000000</ele>
			</trkpt>
			<trkpt lat="48.779573" lon="16.756931">
				<ele>169.000000</ele>
			</trkpt>
			<trkpt lat="48.779792" lon="16.756814">
				<ele>169.000000</ele>
			</trkpt>
			<trkpt lat="48.779881" lon="16.756770">
				<ele>169.000000</ele>
			</trkpt>
		</trkseg>
	</trk>
</gpx>

