<?xml version="1.0" encoding="utf-8"?>
<gpx xmlns="http://www.topografix.com/GPX/1/1" version="1.1" creator="https://mapy.cz/">
	<trk>
		<name>30_Hlohovec - Mikulov</name>
		<trkseg>
			<trkpt lat="48.779514" lon="16.757649">
				<ele>169.000000</ele>
			</trkpt>
			<trkpt lat="48.779514" lon="16.757649">
				<ele>169.000000</ele>
			</trkpt>
			<trkpt lat="48.779479" lon="16.757613">
				<ele>169.000000</ele>
			</trkpt>
			<trkpt lat="48.779218" lon="16.757299">
				<ele>169.000000</ele>
			</trkpt>
			<trkpt lat="48.779307" lon="16.757164">
				<ele>169.000000</ele>
			</trkpt>
			<trkpt lat="48.779336" lon="16.757120">
				<ele>169.000000</ele>
			</trkpt>
			<trkpt lat="48.779372" lon="16.757047">
				<ele>169.000000</ele>
			</trkpt>
			<trkpt lat="48.779420" lon="16.757011">
				<ele>169.000000</ele>
			</trkpt>
			<trkpt lat="48.779573" lon="16.756931">
				<ele>169.000000</ele>
			</trkpt>
			<trkpt lat="48.779792" lon="16.756814">
				<ele>169.000000</ele>
			</trkpt>
			<trkpt lat="48.779904" lon="16.756751">
				<ele>169.000000</ele>
			</trkpt>
			<trkpt lat="48.779887" lon="16.756410">
				<ele>169.000000</ele>
			</trkpt>
			<trkpt lat="48.779845" lon="16.756185">
				<ele>169.000000</ele>
			</trkpt>
			<trkpt lat="48.779845" lon="16.756185">
				<ele>169.000000</ele>
			</trkpt>
			<trkpt lat="48.779792" lon="16.755915">
				<ele>168.000000</ele>
			</trkpt>
			<trkpt lat="48.779573" lon="16.754479">
				<ele>168.000000</ele>
			</trkpt>
			<trkpt lat="48.779378" lon="16.753185">
				<ele>168.000000</ele>
			</trkpt>
			<trkpt lat="48.779277" lon="16.752636">
				<ele>168.000000</ele>
			</trkpt>
			<trkpt lat="48.779200" lon="16.752250">
				<ele>169.000000</ele>
			</trkpt>
			<trkpt lat="48.779111" lon="16.751856">
				<ele>169.000000</ele>
			</trkpt>
			<trkpt lat="48.778744" lon="16.750462">
				<ele>169.000000</ele>
			</trkpt>
			<trkpt lat="48.778591" lon="16.749807">
				<ele>169.000000</ele>
			</trkpt>
			<trkpt lat="48.778549" lon="16.749592">
				<ele>169.000000</ele>
			</trkpt>
			<trkpt lat="48.778520" lon="16.749359">
				<ele>169.000000</ele>
			</trkpt>
			<trkpt lat="48.778455" lon="16.748577">
				<ele>170.000000</ele>
			</trkpt>
			<trkpt lat="48.778431" lon="16.748388">
				<ele>170.000000</ele>
			</trkpt>
			<trkpt lat="48.778401" lon="16.748164">
				<ele>170.000000</ele>
			</trkpt>
			<trkpt lat="48.778348" lon="16.747948">
				<ele>170.000000</ele>
			</trkpt>
			<trkpt lat="48.778229" lon="16.747588">
				<ele>170.000000</ele>
			</trkpt>
			<trkpt lat="48.778206" lon="16.747453">
				<ele>170.000000</ele>
			</trkpt>
			<trkpt lat="48.778188" lon="16.747265">
				<ele>170.000000</ele>
			</trkpt>
			<trkpt lat="48.778182" lon="16.747095">
				<ele>171.000000</ele>
			</trkpt>
			<trkpt lat="48.778200" lon="16.746510">
				<ele>171.000000</ele>
			</trkpt>
			<trkpt lat="48.778194" lon="16.746223">
				<ele>171.000000</ele>
			</trkpt>
			<trkpt lat="48.778146" lon="16.744768">
				<ele>171.000000</ele>
			</trkpt>
			<trkpt lat="48.778129" lon="16.744561">
				<ele>171.000000</ele>
			</trkpt>
			<trkpt lat="48.778099" lon="16.744355">
				<ele>171.000000</ele>
			</trkpt>
			<trkpt lat="48.778046" lon="16.744147">
				<ele>172.000000</ele>
			</trkpt>
			<trkpt lat="48.777963" lon="16.743906">
				<ele>173.000000</ele>
			</trkpt>
			<trkpt lat="48.777934" lon="16.743833">
				<ele>174.000000</ele>
			</trkpt>
			<trkpt lat="48.777892" lon="16.743699">
				<ele>175.000000</ele>
			</trkpt>
			<trkpt lat="48.777869" lon="16.743573">
				<ele>176.000000</ele>
			</trkpt>
			<trkpt lat="48.777850" lon="16.743464">
				<ele>177.000000</ele>
			</trkpt>
			<trkpt lat="48.777844" lon="16.743340">
				<ele>177.000000</ele>
			</trkpt>
			<trkpt lat="48.778070" lon="16.743294">
				<ele>177.000000</ele>
			</trkpt>
			<trkpt lat="48.778070" lon="16.743294">
				<ele>177.000000</ele>
			</trkpt>
			<trkpt lat="48.778401" lon="16.743223">
				<ele>178.000000</ele>
			</trkpt>
			<trkpt lat="48.778449" lon="16.743214">
				<ele>178.000000</ele>
			</trkpt>
			<trkpt lat="48.778514" lon="16.743177">
				<ele>178.000000</ele>
			</trkpt>
			<trkpt lat="48.778602" lon="16.743078">
				<ele>177.000000</ele>
			</trkpt>
			<trkpt lat="48.778703" lon="16.742927">
				<ele>176.000000</ele>
			</trkpt>
			<trkpt lat="48.778744" lon="16.742827">
				<ele>175.000000</ele>
			</trkpt>
			<trkpt lat="48.778780" lon="16.742738">
				<ele>176.000000</ele>
			</trkpt>
			<trkpt lat="48.778815" lon="16.742602">
				<ele>178.000000</ele>
			</trkpt>
			<trkpt lat="48.778821" lon="16.742298">
				<ele>178.000000</ele>
			</trkpt>
			<trkpt lat="48.778839" lon="16.742172">
				<ele>179.000000</ele>
			</trkpt>
			<trkpt lat="48.778839" lon="16.742172">
				<ele>179.000000</ele>
			</trkpt>
			<trkpt lat="48.778845" lon="16.742126">
				<ele>179.000000</ele>
			</trkpt>
			<trkpt lat="48.778874" lon="16.741992">
				<ele>179.000000</ele>
			</trkpt>
			<trkpt lat="48.778928" lon="16.741856">
				<ele>179.000000</ele>
			</trkpt>
			<trkpt lat="48.779029" lon="16.741623">
				<ele>178.000000</ele>
			</trkpt>
			<trkpt lat="48.779111" lon="16.741426">
				<ele>178.000000</ele>
			</trkpt>
			<trkpt lat="48.779171" lon="16.741237">
				<ele>178.000000</ele>
			</trkpt>
			<trkpt lat="48.779230" lon="16.740977">
				<ele>178.000000</ele>
			</trkpt>
			<trkpt lat="48.779324" lon="16.740510">
				<ele>179.000000</ele>
			</trkpt>
			<trkpt lat="48.779460" lon="16.740061">
				<ele>180.000000</ele>
			</trkpt>
			<trkpt lat="48.779556" lon="16.739728">
				<ele>181.000000</ele>
			</trkpt>
			<trkpt lat="48.779573" lon="16.739621">
				<ele>181.000000</ele>
			</trkpt>
			<trkpt lat="48.779585" lon="16.739512">
				<ele>181.000000</ele>
			</trkpt>
			<trkpt lat="48.779591" lon="16.739046">
				<ele>179.000000</ele>
			</trkpt>
			<trkpt lat="48.779573" lon="16.738390">
				<ele>179.000000</ele>
			</trkpt>
			<trkpt lat="48.779550" lon="16.737598">
				<ele>179.000000</ele>
			</trkpt>
			<trkpt lat="48.779508" lon="16.735596">
				<ele>181.000000</ele>
			</trkpt>
			<trkpt lat="48.779479" lon="16.734985">
				<ele>181.000000</ele>
			</trkpt>
			<trkpt lat="48.779485" lon="16.734715">
				<ele>181.000000</ele>
			</trkpt>
			<trkpt lat="48.779508" lon="16.734428">
				<ele>181.000000</ele>
			</trkpt>
			<trkpt lat="48.779597" lon="16.733755">
				<ele>182.000000</ele>
			</trkpt>
			<trkpt lat="48.779697" lon="16.733099">
				<ele>183.000000</ele>
			</trkpt>
			<trkpt lat="48.780065" lon="16.731015">
				<ele>189.000000</ele>
			</trkpt>
			<trkpt lat="48.780301" lon="16.729568">
				<ele>188.000000</ele>
			</trkpt>
			<trkpt lat="48.780390" lon="16.729056">
				<ele>187.000000</ele>
			</trkpt>
			<trkpt lat="48.780509" lon="16.728463">
				<ele>186.000000</ele>
			</trkpt>
			<trkpt lat="48.780639" lon="16.727853">
				<ele>185.000000</ele>
			</trkpt>
			<trkpt lat="48.780881" lon="16.726811">
				<ele>182.000000</ele>
			</trkpt>
			<trkpt lat="48.781089" lon="16.725813">
				<ele>181.000000</ele>
			</trkpt>
			<trkpt lat="48.781272" lon="16.724861">
				<ele>179.000000</ele>
			</trkpt>
			<trkpt lat="48.781514" lon="16.723486">
				<ele>176.000000</ele>
			</trkpt>
			<trkpt lat="48.781645" lon="16.722767">
				<ele>176.000000</ele>
			</trkpt>
			<trkpt lat="48.781734" lon="16.722310">
				<ele>176.000000</ele>
			</trkpt>
			<trkpt lat="48.781769" lon="16.722148">
				<ele>176.000000</ele>
			</trkpt>
			<trkpt lat="48.781828" lon="16.721968">
				<ele>176.000000</ele>
			</trkpt>
			<trkpt lat="48.781911" lon="16.721717">
				<ele>176.000000</ele>
			</trkpt>
			<trkpt lat="48.781953" lon="16.721484">
				<ele>176.000000</ele>
			</trkpt>
			<trkpt lat="48.781964" lon="16.721285">
				<ele>176.000000</ele>
			</trkpt>
			<trkpt lat="48.781947" lon="16.721034">
				<ele>176.000000</ele>
			</trkpt>
			<trkpt lat="48.781923" lon="16.720765">
				<ele>176.000000</ele>
			</trkpt>
			<trkpt lat="48.781923" lon="16.720532">
				<ele>176.000000</ele>
			</trkpt>
			<trkpt lat="48.781929" lon="16.719876">
				<ele>176.000000</ele>
			</trkpt>
			<trkpt lat="48.781935" lon="16.719363">
				<ele>176.000000</ele>
			</trkpt>
			<trkpt lat="48.781953" lon="16.718312">
				<ele>176.000000</ele>
			</trkpt>
			<trkpt lat="48.781982" lon="16.717495">
				<ele>175.000000</ele>
			</trkpt>
			<trkpt lat="48.782041" lon="16.716488">
				<ele>176.000000</ele>
			</trkpt>
			<trkpt lat="48.782054" lon="16.715824">
				<ele>176.000000</ele>
			</trkpt>
			<trkpt lat="48.782054" lon="16.715708">
				<ele>175.000000</ele>
			</trkpt>
			<trkpt lat="48.782041" lon="16.715608">
				<ele>175.000000</ele>
			</trkpt>
			<trkpt lat="48.781964" lon="16.715186">
				<ele>176.000000</ele>
			</trkpt>
			<trkpt lat="48.781941" lon="16.714926">
				<ele>176.000000</ele>
			</trkpt>
			<trkpt lat="48.781870" lon="16.714377">
				<ele>176.000000</ele>
			</trkpt>
			<trkpt lat="48.781840" lon="16.714010">
				<ele>176.000000</ele>
			</trkpt>
			<trkpt lat="48.781823" lon="16.713668">
				<ele>175.000000</ele>
			</trkpt>
			<trkpt lat="48.781799" lon="16.713408">
				<ele>175.000000</ele>
			</trkpt>
			<trkpt lat="48.781763" lon="16.713119">
				<ele>175.000000</ele>
			</trkpt>
			<trkpt lat="48.781704" lon="16.712805">
				<ele>175.000000</ele>
			</trkpt>
			<trkpt lat="48.781480" lon="16.711664">
				<ele>175.000000</ele>
			</trkpt>
			<trkpt lat="48.781260" lon="16.710587">
				<ele>175.000000</ele>
			</trkpt>
			<trkpt lat="48.780627" lon="16.707119">
				<ele>176.000000</ele>
			</trkpt>
			<trkpt lat="48.780437" lon="16.705997">
				<ele>176.000000</ele>
			</trkpt>
			<trkpt lat="48.780372" lon="16.705601">
				<ele>176.000000</ele>
			</trkpt>
			<trkpt lat="48.780319" lon="16.705287">
				<ele>176.000000</ele>
			</trkpt>
			<trkpt lat="48.780289" lon="16.704928">
				<ele>176.000000</ele>
			</trkpt>
			<trkpt lat="48.780319" lon="16.704712">
				<ele>177.000000</ele>
			</trkpt>
			<trkpt lat="48.780343" lon="16.704442">
				<ele>177.000000</ele>
			</trkpt>
			<trkpt lat="48.780343" lon="16.704316">
				<ele>177.000000</ele>
			</trkpt>
			<trkpt lat="48.780354" lon="16.704253">
				<ele>177.000000</ele>
			</trkpt>
			<trkpt lat="48.780408" lon="16.702888">
				<ele>178.000000</ele>
			</trkpt>
			<trkpt lat="48.780437" lon="16.702403">
				<ele>178.000000</ele>
			</trkpt>
			<trkpt lat="48.780763" lon="16.702538">
				<ele>179.000000</ele>
			</trkpt>
			<trkpt lat="48.780763" lon="16.702538">
				<ele>179.000000</ele>
			</trkpt>
			<trkpt lat="48.781988" lon="16.703050">
				<ele>183.000000</ele>
			</trkpt>
			<trkpt lat="48.783977" lon="16.703894">
				<ele>192.000000</ele>
			</trkpt>
			<trkpt lat="48.784125" lon="16.703966">
				<ele>192.000000</ele>
			</trkpt>
			<trkpt lat="48.785202" lon="16.704469">
				<ele>195.000000</ele>
			</trkpt>
			<trkpt lat="48.785682" lon="16.704693">
				<ele>197.000000</ele>
			</trkpt>
			<trkpt lat="48.786191" lon="16.704882">
				<ele>200.000000</ele>
			</trkpt>
			<trkpt lat="48.786747" lon="16.705053">
				<ele>203.000000</ele>
			</trkpt>
			<trkpt lat="48.786989" lon="16.705116">
				<ele>204.000000</ele>
			</trkpt>
			<trkpt lat="48.787292" lon="16.705197">
				<ele>204.000000</ele>
			</trkpt>
			<trkpt lat="48.787481" lon="16.705251">
				<ele>205.000000</ele>
			</trkpt>
			<trkpt lat="48.787659" lon="16.705314">
				<ele>205.000000</ele>
			</trkpt>
			<trkpt lat="48.787842" lon="16.705412">
				<ele>205.000000</ele>
			</trkpt>
			<trkpt lat="48.788049" lon="16.705439">
				<ele>205.000000</ele>
			</trkpt>
			<trkpt lat="48.788268" lon="16.705448">
				<ele>207.000000</ele>
			</trkpt>
			<trkpt lat="48.788268" lon="16.705448">
				<ele>207.000000</ele>
			</trkpt>
			<trkpt lat="48.788511" lon="16.705466">
				<ele>209.000000</ele>
			</trkpt>
			<trkpt lat="48.788736" lon="16.705502">
				<ele>211.000000</ele>
			</trkpt>
			<trkpt lat="48.788890" lon="16.705538">
				<ele>211.000000</ele>
			</trkpt>
			<trkpt lat="48.789043" lon="16.705584">
				<ele>209.000000</ele>
			</trkpt>
			<trkpt lat="48.789292" lon="16.705700">
				<ele>208.000000</ele>
			</trkpt>
			<trkpt lat="48.789251" lon="16.705655">
				<ele>208.000000</ele>
			</trkpt>
			<trkpt lat="48.789215" lon="16.705601">
				<ele>208.000000</ele>
			</trkpt>
			<trkpt lat="48.789198" lon="16.705547">
				<ele>208.000000</ele>
			</trkpt>
			<trkpt lat="48.789168" lon="16.705475">
				<ele>208.000000</ele>
			</trkpt>
			<trkpt lat="48.789162" lon="16.705377">
				<ele>208.000000</ele>
			</trkpt>
			<trkpt lat="48.789162" lon="16.705295">
				<ele>209.000000</ele>
			</trkpt>
			<trkpt lat="48.789168" lon="16.705242">
				<ele>209.000000</ele>
			</trkpt>
			<trkpt lat="48.789168" lon="16.705242">
				<ele>209.000000</ele>
			</trkpt>
			<trkpt lat="48.789179" lon="16.704999">
				<ele>209.000000</ele>
			</trkpt>
			<trkpt lat="48.789209" lon="16.704496">
				<ele>210.000000</ele>
			</trkpt>
			<trkpt lat="48.789328" lon="16.703490">
				<ele>211.000000</ele>
			</trkpt>
			<trkpt lat="48.789393" lon="16.702555">
				<ele>211.000000</ele>
			</trkpt>
			<trkpt lat="48.789535" lon="16.700202">
				<ele>211.000000</ele>
			</trkpt>
			<trkpt lat="48.789570" lon="16.699026">
				<ele>213.000000</ele>
			</trkpt>
			<trkpt lat="48.789576" lon="16.698855">
				<ele>214.000000</ele>
			</trkpt>
			<trkpt lat="48.789588" lon="16.698504">
				<ele>214.000000</ele>
			</trkpt>
			<trkpt lat="48.789600" lon="16.698406">
				<ele>214.000000</ele>
			</trkpt>
			<trkpt lat="48.789617" lon="16.698163">
				<ele>215.000000</ele>
			</trkpt>
			<trkpt lat="48.789612" lon="16.697974">
				<ele>216.000000</ele>
			</trkpt>
			<trkpt lat="48.789594" lon="16.697651">
				<ele>217.000000</ele>
			</trkpt>
			<trkpt lat="48.789588" lon="16.697481">
				<ele>218.000000</ele>
			</trkpt>
			<trkpt lat="48.789612" lon="16.695657">
				<ele>219.000000</ele>
			</trkpt>
			<trkpt lat="48.789617" lon="16.693905">
				<ele>217.000000</ele>
			</trkpt>
			<trkpt lat="48.789629" lon="16.692791">
				<ele>217.000000</ele>
			</trkpt>
			<trkpt lat="48.789623" lon="16.692324">
				<ele>217.000000</ele>
			</trkpt>
			<trkpt lat="48.789606" lon="16.691974">
				<ele>217.000000</ele>
			</trkpt>
			<trkpt lat="48.789588" lon="16.691857">
				<ele>217.000000</ele>
			</trkpt>
			<trkpt lat="48.789570" lon="16.691768">
				<ele>217.000000</ele>
			</trkpt>
			<trkpt lat="48.789535" lon="16.691668">
				<ele>216.000000</ele>
			</trkpt>
			<trkpt lat="48.789499" lon="16.691615">
				<ele>216.000000</ele>
			</trkpt>
			<trkpt lat="48.789446" lon="16.691560">
				<ele>215.000000</ele>
			</trkpt>
			<trkpt lat="48.789393" lon="16.691525">
				<ele>215.000000</ele>
			</trkpt>
			<trkpt lat="48.789517" lon="16.691192">
				<ele>215.000000</ele>
			</trkpt>
			<trkpt lat="48.789552" lon="16.691057">
				<ele>215.000000</ele>
			</trkpt>
			<trkpt lat="48.789552" lon="16.691057">
				<ele>215.000000</ele>
			</trkpt>
			<trkpt lat="48.789612" lon="16.690842">
				<ele>215.000000</ele>
			</trkpt>
			<trkpt lat="48.790061" lon="16.689045">
				<ele>215.000000</ele>
			</trkpt>
			<trkpt lat="48.790358" lon="16.687833">
				<ele>222.000000</ele>
			</trkpt>
			<trkpt lat="48.790529" lon="16.686988">
				<ele>227.000000</ele>
			</trkpt>
			<trkpt lat="48.790600" lon="16.686682">
				<ele>227.000000</ele>
			</trkpt>
			<trkpt lat="48.790635" lon="16.686682">
				<ele>227.000000</ele>
			</trkpt>
			<trkpt lat="48.790659" lon="16.686682">
				<ele>227.000000</ele>
			</trkpt>
			<trkpt lat="48.790695" lon="16.686674">
				<ele>226.000000</ele>
			</trkpt>
			<trkpt lat="48.790724" lon="16.686647">
				<ele>226.000000</ele>
			</trkpt>
			<trkpt lat="48.790848" lon="16.686476">
				<ele>225.000000</ele>
			</trkpt>
			<trkpt lat="48.790848" lon="16.686476">
				<ele>225.000000</ele>
			</trkpt>
			<trkpt lat="48.790902" lon="16.686404">
				<ele>225.000000</ele>
			</trkpt>
			<trkpt lat="48.791192" lon="16.686045">
				<ele>223.000000</ele>
			</trkpt>
			<trkpt lat="48.791387" lon="16.685820">
				<ele>222.000000</ele>
			</trkpt>
			<trkpt lat="48.791547" lon="16.685667">
				<ele>221.000000</ele>
			</trkpt>
			<trkpt lat="48.791742" lon="16.685533">
				<ele>220.000000</ele>
			</trkpt>
			<trkpt lat="48.791973" lon="16.685416">
				<ele>218.000000</ele>
			</trkpt>
			<trkpt lat="48.792245" lon="16.685317">
				<ele>217.000000</ele>
			</trkpt>
			<trkpt lat="48.792772" lon="16.685183">
				<ele>213.000000</ele>
			</trkpt>
			<trkpt lat="48.792949" lon="16.685128">
				<ele>212.000000</ele>
			</trkpt>
			<trkpt lat="48.793003" lon="16.685110">
				<ele>212.000000</ele>
			</trkpt>
			<trkpt lat="48.793068" lon="16.685110">
				<ele>212.000000</ele>
			</trkpt>
			<trkpt lat="48.793121" lon="16.685128">
				<ele>211.000000</ele>
			</trkpt>
			<trkpt lat="48.793169" lon="16.685120">
				<ele>211.000000</ele>
			</trkpt>
			<trkpt lat="48.793287" lon="16.685066">
				<ele>210.000000</ele>
			</trkpt>
			<trkpt lat="48.793523" lon="16.684894">
				<ele>206.000000</ele>
			</trkpt>
			<trkpt lat="48.793802" lon="16.684680">
				<ele>204.000000</ele>
			</trkpt>
			<trkpt lat="48.793755" lon="16.684428">
				<ele>203.000000</ele>
			</trkpt>
			<trkpt lat="48.793808" lon="16.684365">
				<ele>203.000000</ele>
			</trkpt>
			<trkpt lat="48.793837" lon="16.684311">
				<ele>202.000000</ele>
			</trkpt>
			<trkpt lat="48.793843" lon="16.684257">
				<ele>202.000000</ele>
			</trkpt>
			<trkpt lat="48.793873" lon="16.684105">
				<ele>202.000000</ele>
			</trkpt>
			<trkpt lat="48.793902" lon="16.684032">
				<ele>202.000000</ele>
			</trkpt>
			<trkpt lat="48.793902" lon="16.684032">
				<ele>202.000000</ele>
			</trkpt>
			<trkpt lat="48.793914" lon="16.683997">
				<ele>202.000000</ele>
			</trkpt>
			<trkpt lat="48.794252" lon="16.683395">
				<ele>201.000000</ele>
			</trkpt>
			<trkpt lat="48.794878" lon="16.682353">
				<ele>202.000000</ele>
			</trkpt>
			<trkpt lat="48.794956" lon="16.682236">
				<ele>202.000000</ele>
			</trkpt>
			<trkpt lat="48.795074" lon="16.682020">
				<ele>203.000000</ele>
			</trkpt>
			<trkpt lat="48.795121" lon="16.681940">
				<ele>203.000000</ele>
			</trkpt>
			<trkpt lat="48.795257" lon="16.681795">
				<ele>204.000000</ele>
			</trkpt>
			<trkpt lat="48.795583" lon="16.681302">
				<ele>207.000000</ele>
			</trkpt>
			<trkpt lat="48.795819" lon="16.680942">
				<ele>209.000000</ele>
			</trkpt>
			<trkpt lat="48.796051" lon="16.680573">
				<ele>210.000000</ele>
			</trkpt>
			<trkpt lat="48.796334" lon="16.680089">
				<ele>213.000000</ele>
			</trkpt>
			<trkpt lat="48.796648" lon="16.679531">
				<ele>213.000000</ele>
			</trkpt>
			<trkpt lat="48.797187" lon="16.678535">
				<ele>217.000000</ele>
			</trkpt>
			<trkpt lat="48.797270" lon="16.678382">
				<ele>217.000000</ele>
			</trkpt>
			<trkpt lat="48.797352" lon="16.678193">
				<ele>218.000000</ele>
			</trkpt>
			<trkpt lat="48.797577" lon="16.677610">
				<ele>219.000000</ele>
			</trkpt>
			<trkpt lat="48.797725" lon="16.677296">
				<ele>220.000000</ele>
			</trkpt>
			<trkpt lat="48.797802" lon="16.677088">
				<ele>220.000000</ele>
			</trkpt>
			<trkpt lat="48.797855" lon="16.676999">
				<ele>220.000000</ele>
			</trkpt>
			<trkpt lat="48.797885" lon="16.676944">
				<ele>220.000000</ele>
			</trkpt>
			<trkpt lat="48.797914" lon="16.676873">
				<ele>220.000000</ele>
			</trkpt>
			<trkpt lat="48.797920" lon="16.676810">
				<ele>220.000000</ele>
			</trkpt>
			<trkpt lat="48.797920" lon="16.676730">
				<ele>220.000000</ele>
			</trkpt>
			<trkpt lat="48.797926" lon="16.676585">
				<ele>220.000000</ele>
			</trkpt>
			<trkpt lat="48.797932" lon="16.676531">
				<ele>220.000000</ele>
			</trkpt>
			<trkpt lat="48.797956" lon="16.676478">
				<ele>220.000000</ele>
			</trkpt>
			<trkpt lat="48.798133" lon="16.676055">
				<ele>222.000000</ele>
			</trkpt>
			<trkpt lat="48.798186" lon="16.675948">
				<ele>222.000000</ele>
			</trkpt>
			<trkpt lat="48.798305" lon="16.675715">
				<ele>224.000000</ele>
			</trkpt>
			<trkpt lat="48.798518" lon="16.675273">
				<ele>226.000000</ele>
			</trkpt>
			<trkpt lat="48.798695" lon="16.674914">
				<ele>227.000000</ele>
			</trkpt>
			<trkpt lat="48.798861" lon="16.674520">
				<ele>228.000000</ele>
			</trkpt>
			<trkpt lat="48.799057" lon="16.674052">
				<ele>228.000000</ele>
			</trkpt>
			<trkpt lat="48.799145" lon="16.673801">
				<ele>228.000000</ele>
			</trkpt>
			<trkpt lat="48.799198" lon="16.673694">
				<ele>228.000000</ele>
			</trkpt>
			<trkpt lat="48.799299" lon="16.673531">
				<ele>229.000000</ele>
			</trkpt>
			<trkpt lat="48.799405" lon="16.673315">
				<ele>229.000000</ele>
			</trkpt>
			<trkpt lat="48.799518" lon="16.673432">
				<ele>230.000000</ele>
			</trkpt>
			<trkpt lat="48.799625" lon="16.673531">
				<ele>231.000000</ele>
			</trkpt>
			<trkpt lat="48.799725" lon="16.673604">
				<ele>231.000000</ele>
			</trkpt>
			<trkpt lat="48.799725" lon="16.673604">
				<ele>231.000000</ele>
			</trkpt>
			<trkpt lat="48.800027" lon="16.673837">
				<ele>232.000000</ele>
			</trkpt>
			<trkpt lat="48.800808" lon="16.674394">
				<ele>235.000000</ele>
			</trkpt>
			<trkpt lat="48.801211" lon="16.674699">
				<ele>237.000000</ele>
			</trkpt>
			<trkpt lat="48.801447" lon="16.674896">
				<ele>238.000000</ele>
			</trkpt>
			<trkpt lat="48.801825" lon="16.675157">
				<ele>238.000000</ele>
			</trkpt>
			<trkpt lat="48.801867" lon="16.675183">
				<ele>238.000000</ele>
			</trkpt>
			<trkpt lat="48.801903" lon="16.675193">
				<ele>238.000000</ele>
			</trkpt>
			<trkpt lat="48.802003" lon="16.675175">
				<ele>238.000000</ele>
			</trkpt>
			<trkpt lat="48.802163" lon="16.674726">
				<ele>239.000000</ele>
			</trkpt>
			<trkpt lat="48.802163" lon="16.674726">
				<ele>239.000000</ele>
			</trkpt>
			<trkpt lat="48.802328" lon="16.674268">
				<ele>240.000000</ele>
			</trkpt>
			<trkpt lat="48.802950" lon="16.672436">
				<ele>245.000000</ele>
			</trkpt>
			<trkpt lat="48.803252" lon="16.671554">
				<ele>247.000000</ele>
			</trkpt>
			<trkpt lat="48.803500" lon="16.670728">
				<ele>249.000000</ele>
			</trkpt>
			<trkpt lat="48.803612" lon="16.670306">
				<ele>250.000000</ele>
			</trkpt>
			<trkpt lat="48.803701" lon="16.669920">
				<ele>250.000000</ele>
			</trkpt>
			<trkpt lat="48.803938" lon="16.668725">
				<ele>252.000000</ele>
			</trkpt>
			<trkpt lat="48.804044" lon="16.668241">
				<ele>253.000000</ele>
			</trkpt>
			<trkpt lat="48.804103" lon="16.667998">
				<ele>254.000000</ele>
			</trkpt>
			<trkpt lat="48.804216" lon="16.667648">
				<ele>255.000000</ele>
			</trkpt>
			<trkpt lat="48.804340" lon="16.667144">
				<ele>256.000000</ele>
			</trkpt>
			<trkpt lat="48.804435" lon="16.666740">
				<ele>256.000000</ele>
			</trkpt>
			<trkpt lat="48.804465" lon="16.666623">
				<ele>257.000000</ele>
			</trkpt>
			<trkpt lat="48.804506" lon="16.666524">
				<ele>257.000000</ele>
			</trkpt>
			<trkpt lat="48.804541" lon="16.666443">
				<ele>257.000000</ele>
			</trkpt>
			<trkpt lat="48.804589" lon="16.666380">
				<ele>257.000000</ele>
			</trkpt>
			<trkpt lat="48.804630" lon="16.666327">
				<ele>258.000000</ele>
			</trkpt>
			<trkpt lat="48.804695" lon="16.666264">
				<ele>258.000000</ele>
			</trkpt>
			<trkpt lat="48.804760" lon="16.666220">
				<ele>258.000000</ele>
			</trkpt>
			<trkpt lat="48.804843" lon="16.666201">
				<ele>258.000000</ele>
			</trkpt>
			<trkpt lat="48.804819" lon="16.665977">
				<ele>258.000000</ele>
			</trkpt>
			<trkpt lat="48.804813" lon="16.665788">
				<ele>258.000000</ele>
			</trkpt>
			<trkpt lat="48.804825" lon="16.665608">
				<ele>259.000000</ele>
			</trkpt>
			<trkpt lat="48.804825" lon="16.665608">
				<ele>259.000000</ele>
			</trkpt>
			<trkpt lat="48.804825" lon="16.665581">
				<ele>259.000000</ele>
			</trkpt>
			<trkpt lat="48.804843" lon="16.665419">
				<ele>259.000000</ele>
			</trkpt>
			<trkpt lat="48.804884" lon="16.665222">
				<ele>259.000000</ele>
			</trkpt>
			<trkpt lat="48.804938" lon="16.665015">
				<ele>259.000000</ele>
			</trkpt>
			<trkpt lat="48.805015" lon="16.664818">
				<ele>259.000000</ele>
			</trkpt>
			<trkpt lat="48.805109" lon="16.664583">
				<ele>259.000000</ele>
			</trkpt>
			<trkpt lat="48.805192" lon="16.664440">
				<ele>259.000000</ele>
			</trkpt>
			<trkpt lat="48.805263" lon="16.664314">
				<ele>259.000000</ele>
			</trkpt>
			<trkpt lat="48.805458" lon="16.664054">
				<ele>259.000000</ele>
			</trkpt>
			<trkpt lat="48.805878" lon="16.663497">
				<ele>260.000000</ele>
			</trkpt>
			<trkpt lat="48.806624" lon="16.662536">
				<ele>263.000000</ele>
			</trkpt>
			<trkpt lat="48.806890" lon="16.662168">
				<ele>263.000000</ele>
			</trkpt>
			<trkpt lat="48.807198" lon="16.661709">
				<ele>264.000000</ele>
			</trkpt>
			<trkpt lat="48.807529" lon="16.661188">
				<ele>265.000000</ele>
			</trkpt>
			<trkpt lat="48.807955" lon="16.660470">
				<ele>264.000000</ele>
			</trkpt>
			<trkpt lat="48.808411" lon="16.659643">
				<ele>260.000000</ele>
			</trkpt>
			<trkpt lat="48.808577" lon="16.659329">
				<ele>259.000000</ele>
			</trkpt>
			<trkpt lat="48.808695" lon="16.659042">
				<ele>260.000000</ele>
			</trkpt>
			<trkpt lat="48.808825" lon="16.658727">
				<ele>260.000000</ele>
			</trkpt>
			<trkpt lat="48.808973" lon="16.658430">
				<ele>260.000000</ele>
			</trkpt>
			<trkpt lat="48.809050" lon="16.658296">
				<ele>260.000000</ele>
			</trkpt>
			<trkpt lat="48.809150" lon="16.658098">
				<ele>260.000000</ele>
			</trkpt>
			<trkpt lat="48.809233" lon="16.657910">
				<ele>260.000000</ele>
			</trkpt>
			<trkpt lat="48.809292" lon="16.657721">
				<ele>261.000000</ele>
			</trkpt>
			<trkpt lat="48.809417" lon="16.657289">
				<ele>262.000000</ele>
			</trkpt>
			<trkpt lat="48.809505" lon="16.657048">
				<ele>262.000000</ele>
			</trkpt>
			<trkpt lat="48.809612" lon="16.656805">
				<ele>263.000000</ele>
			</trkpt>
			<trkpt lat="48.809748" lon="16.656535">
				<ele>264.000000</ele>
			</trkpt>
			<trkpt lat="48.809824" lon="16.656419">
				<ele>265.000000</ele>
			</trkpt>
			<trkpt lat="48.809914" lon="16.656310">
				<ele>265.000000</ele>
			</trkpt>
			<trkpt lat="48.810381" lon="16.655916">
				<ele>268.000000</ele>
			</trkpt>
			<trkpt lat="48.810594" lon="16.655754">
				<ele>270.000000</ele>
			</trkpt>
			<trkpt lat="48.810748" lon="16.655673">
				<ele>271.000000</ele>
			</trkpt>
			<trkpt lat="48.810789" lon="16.655646">
				<ele>271.000000</ele>
			</trkpt>
			<trkpt lat="48.810813" lon="16.655618">
				<ele>271.000000</ele>
			</trkpt>
			<trkpt lat="48.810872" lon="16.655530">
				<ele>272.000000</ele>
			</trkpt>
			<trkpt lat="48.811168" lon="16.654784">
				<ele>275.000000</ele>
			</trkpt>
			<trkpt lat="48.811256" lon="16.654549">
				<ele>276.000000</ele>
			</trkpt>
			<trkpt lat="48.811256" lon="16.654549">
				<ele>276.000000</ele>
			</trkpt>
			<trkpt lat="48.811552" lon="16.653769">
				<ele>279.000000</ele>
			</trkpt>
			<trkpt lat="48.811966" lon="16.652645">
				<ele>278.000000</ele>
			</trkpt>
			<trkpt lat="48.812244" lon="16.651891">
				<ele>275.000000</ele>
			</trkpt>
			<trkpt lat="48.812321" lon="16.651666">
				<ele>273.000000</ele>
			</trkpt>
			<trkpt lat="48.812345" lon="16.651612">
				<ele>273.000000</ele>
			</trkpt>
			<trkpt lat="48.812375" lon="16.651585">
				<ele>273.000000</ele>
			</trkpt>
			<trkpt lat="48.812410" lon="16.651559">
				<ele>273.000000</ele>
			</trkpt>
			<trkpt lat="48.812446" lon="16.651576">
				<ele>273.000000</ele>
			</trkpt>
			<trkpt lat="48.812475" lon="16.651369">
				<ele>272.000000</ele>
			</trkpt>
			<trkpt lat="48.812493" lon="16.651243">
				<ele>272.000000</ele>
			</trkpt>
			<trkpt lat="48.812493" lon="16.651243">
				<ele>272.000000</ele>
			</trkpt>
			<trkpt lat="48.812546" lon="16.650840">
				<ele>271.000000</ele>
			</trkpt>
			<trkpt lat="48.812617" lon="16.650390">
				<ele>270.000000</ele>
			</trkpt>
			<trkpt lat="48.812664" lon="16.650067">
				<ele>269.000000</ele>
			</trkpt>
			<trkpt lat="48.812623" lon="16.650031">
				<ele>269.000000</ele>
			</trkpt>
			<trkpt lat="48.812587" lon="16.649960">
				<ele>269.000000</ele>
			</trkpt>
			<trkpt lat="48.812546" lon="16.649815">
				<ele>269.000000</ele>
			</trkpt>
			<trkpt lat="48.812534" lon="16.649780">
				<ele>269.000000</ele>
			</trkpt>
			<trkpt lat="48.812534" lon="16.649780">
				<ele>269.000000</ele>
			</trkpt>
			<trkpt lat="48.812499" lon="16.649645">
				<ele>268.000000</ele>
			</trkpt>
			<trkpt lat="48.812487" lon="16.649574">
				<ele>268.000000</ele>
			</trkpt>
			<trkpt lat="48.812415" lon="16.649232">
				<ele>268.000000</ele>
			</trkpt>
			<trkpt lat="48.812327" lon="16.648819">
				<ele>267.000000</ele>
			</trkpt>
			<trkpt lat="48.812238" lon="16.648477">
				<ele>266.000000</ele>
			</trkpt>
			<trkpt lat="48.812155" lon="16.648226">
				<ele>266.000000</ele>
			</trkpt>
			<trkpt lat="48.812019" lon="16.647911">
				<ele>265.000000</ele>
			</trkpt>
			<trkpt lat="48.811203" lon="16.645989">
				<ele>262.000000</ele>
			</trkpt>
			<trkpt lat="48.811321" lon="16.645863">
				<ele>260.000000</ele>
			</trkpt>
			<trkpt lat="48.811321" lon="16.645863">
				<ele>260.000000</ele>
			</trkpt>
			<trkpt lat="48.811487" lon="16.645702">
				<ele>257.000000</ele>
			</trkpt>
			<trkpt lat="48.811753" lon="16.645432">
				<ele>257.000000</ele>
			</trkpt>
			<trkpt lat="48.812375" lon="16.644803">
				<ele>257.000000</ele>
			</trkpt>
			<trkpt lat="48.812291" lon="16.644687">
				<ele>257.000000</ele>
			</trkpt>
			<trkpt lat="48.812339" lon="16.644570">
				<ele>257.000000</ele>
			</trkpt>
			<trkpt lat="48.812428" lon="16.644318">
				<ele>258.000000</ele>
			</trkpt>
			<trkpt lat="48.812428" lon="16.644318">
				<ele>258.000000</ele>
			</trkpt>
			<trkpt lat="48.812528" lon="16.644031">
				<ele>260.000000</ele>
			</trkpt>
			<trkpt lat="48.812706" lon="16.643545">
				<ele>261.000000</ele>
			</trkpt>
			<trkpt lat="48.813717" lon="16.641264">
				<ele>268.000000</ele>
			</trkpt>
			<trkpt lat="48.813551" lon="16.641093">
				<ele>267.000000</ele>
			</trkpt>
			<trkpt lat="48.813551" lon="16.641093">
				<ele>267.000000</ele>
			</trkpt>
			<trkpt lat="48.812700" lon="16.640222">
				<ele>262.000000</ele>
			</trkpt>
			<trkpt lat="48.812771" lon="16.640051">
				<ele>262.000000</ele>
			</trkpt>
			<trkpt lat="48.812901" lon="16.639781">
				<ele>262.000000</ele>
			</trkpt>
			<trkpt lat="48.813108" lon="16.639332">
				<ele>262.000000</ele>
			</trkpt>
			<trkpt lat="48.813108" lon="16.639332">
				<ele>262.000000</ele>
			</trkpt>
		</trkseg>
	</trk>
</gpx>

